{"type":"FeatureCollection","features":[{"type":"Feature","id":"bangkok-raco-culture-cafe","geometry":{"type":"Point","coordinates":[100.5007105,13.7665679]},"properties":{"name":"Culture Cafe","category":"Other","icon":"fa-location-dot","address":"249 Thanon Samsen, Khwaeng Wat Sam Phraya, Khet Phra Nakhon, Krung Thep Maha Nakhon 10200","events":[{"date":"2026-10-05","time":"20:00","title":"Monday Night: Minimal&Techno Vinyl Sessions by plazdj","artists":["plazdj"],"ra_url":"https://ra.co/events/2514175","poster":"https://images.ra.co/8ab44eb98775f2199be801ac241e96cdac481be6.jpg","soundcloud_track_id":"","soundcloud_url":""},{"date":"2026-10-06","time":"20:00","title":"Bangkok Vinyl Minimal&Techno Sessions with MOODYBOOM / Highwire crew","artists":["MOODYBOOM"],"ra_url":"https://ra.co/events/2514192","poster":"https://images.ra.co/b3ebf0d9ad628eb83aeff212266d21cfe40088bc.jpg","soundcloud_track_id":"","soundcloud_url":""},{"date":"2026-10-07","time":"20:00","title":"WEDNESDAY MINIMAL HOUSE'n'TECHNO 'VINYL SESSIONS' presents; plazdj (Strictly Vi‬‬‬‬‬‬‬‬‬nyl)","artists":["plazdj"],"ra_url":"https://ra.co/events/2527423","poster":"https://images.ra.co/a88d523df6deb0677f876c146ff8bbb8d51aab82.jpg","soundcloud_track_id":"","soundcloud_url":""},{"date":"2026-10-08","time":"20:00","title":"The bangkok Techno Collaboration presents; NO.EARS: Strictly Vinyl Set","artists":[],"ra_url":"https://ra.co/events/2530341","poster":"https://images.ra.co/ecdb711ea3601885049ad1984d2b54ec1e0dddb1.jpg","soundcloud_track_id":"","soundcloud_url":""},{"date":"2026-10-09","time":"20:00","title":"HARD EDGE: Dark&Industrial Hard Techno","artists":["The3RD","Gunya","Damon Rider"],"ra_url":"https://ra.co/events/2528681","poster":"https://images.ra.co/29644d56e2dde4274c5d457b11238a9b96e93559.jpg","soundcloud_track_id":"","soundcloud_url":""},{"date":"2026-10-10","time":"20:00","title":"Krit Morton Invites Bangkok vinyl junkie presents; 6 hours of his solo vinyl set","artists":["DJ Krit Morton"],"ra_url":"https://ra.co/events/2528704","poster":"https://images.ra.co/8bd860f0dfcb5ad71d2134ae69c01750a2dbfb74.jpg","soundcloud_track_id":"","soundcloud_url":""},{"date":"2026-10-11","time":"20:00","title":"G2G House'n'Techno Music Collective presents; Giantsiam","artists":["Giantsiam"],"ra_url":"https://ra.co/events/2514169","poster":"https://images.ra.co/3c35fdc4fd0d01e69d147698d4d706bd8b8616e0.jpg","soundcloud_track_id":"","soundcloud_url":""}]}},{"type":"Feature","id":"bangkok-raco-bangkok-island","geometry":{"type":"Point","coordinates":[100.5484694,13.6981768]},"properties":{"name":"Bangkok Island","category":"Other","icon":"fa-location-dot","address":"499/1 Rama III Soi 64, Khwaeng Chong Nonsi, Khet Yan Nawa, Krung Thep Maha Nakhon 10120","events":[{"date":"2026-10-07","time":"17:00","title":"DJ COMMUNITY - 07/10","artists":[],"ra_url":"https://ra.co/events/2551635","poster":"https://images.ra.co/bbcc2bd270f06c3264aa41fd63e2d1bccb0ea65b.png","soundcloud_track_id":"","soundcloud_url":""},{"date":"2026-10-08","time":"18:00","title":"MIDTERM ESCAPE","artists":[],"ra_url":"https://ra.co/events/2541849","poster":"https://images.ra.co/19c8aff3fa381141b696d1910cec642ea8dc5333.jpg","soundcloud_track_id":"","soundcloud_url":""},{"date":"2026-10-09","time":"18:00","title":"Chant Down Babylon","artists":[],"ra_url":"https://ra.co/events/2544777","poster":"https://images.ra.co/535a4171f2e86b4c6c3558b5a87653059bc98e13.jpg","soundcloud_track_id":"","soundcloud_url":""},{"date":"2026-10-10","time":"18:00","title":"Under Current 10 oct","artists":[],"ra_url":"https://ra.co/events/2542710","poster":"https://images.ra.co/8b1db3039e189d93ef49cfde3bba3c8872f8a787.jpg","soundcloud_track_id":"","soundcloud_url":""},{"date":"2026-10-11","time":"17:00","title":"Fon Bday 11 Oct 2026","artists":[],"ra_url":"https://ra.co/events/2547214","poster":"https://images.ra.co/1a431d71337ebbc76cca21e9b0441cbbdfb83d19.jpg","soundcloud_track_id":"","soundcloud_url":""}]}},{"type":"Feature","id":"bangkok-raco-horn","geometry":{"type":"Point","coordinates":[100.5329614,13.7284285]},"properties":{"name":"Horn","category":"Other","icon":"fa-location-dot","address":"4th floor, 71 -73 Soi Silom 4, Khwaeng Suriya Wong, Khet Bang Rak, Krung Thep Maha Nakhon 10500","events":[{"date":"2026-10-08","time":"22:00","title":"FEED with OXYBOY / Elila.b / GAPFXCK","artists":["OXYBOY"],"ra_url":"https://ra.co/events/2546951","poster":"https://images.ra.co/21f8e450b0ae8276a1321b00c9a0716bfc48d723.jpg","soundcloud_track_id":"","soundcloud_url":""}]}},{"type":"Feature","id":"bangkok-raco-subwerk-club","geometry":{"type":"Point","coordinates":[100.5250374,13.7272665]},"properties":{"name":"Subwerk Club","category":"Other","icon":"fa-location-dot","address":"2, 1 และ 2/3 Decho Rd, Khwaeng Suriya Wong, Suriyawong, Krung Thep Maha Nakhon 10500","events":[{"date":"2026-10-09","time":"22:00","title":"Hard Techno with PENELOPE (weareone) - by Rave Times","artists":["Abyss"],"ra_url":"https://ra.co/events/2550586","poster":"https://images.ra.co/ae92ad0975c7065208c496af4eadde71c1eff674.png","soundcloud_track_id":"","soundcloud_url":""},{"date":"2026-10-10","time":"22:00","title":"Hard Techno with PENELOPE (weareone) - by Rave Times","artists":[],"ra_url":"https://ra.co/events/2551590","poster":"https://images.ra.co/0810fbc8b7c57e81561709e9c3d93883ff2d51b9.png","soundcloud_track_id":"","soundcloud_url":""}]}},{"type":"Feature","id":"bangkok-raco-amnesia","geometry":{"type":"Point","coordinates":[100.5757386,13.7513002]},"properties":{"name":"Amnesia","category":"Other","icon":"fa-location-dot","address":"21, 77 Soi Phetchaburi 47 Yaek 10, Khwaeng Bang Kapi, Khet Huai Khwang, Krung Thep Maha Nakhon 10310","events":[{"date":"2026-10-09","time":"22:00","title":"Hard Techno Rave feat. TNZ - FREE Drinks by INAKOMA","artists":["Sam Laxton"],"ra_url":"https://ra.co/events/2542250","poster":"https://images.ra.co/3c7b771338c284b14e0d88cb8eff466765e80df9.png","soundcloud_track_id":"","soundcloud_url":""}]}},{"type":"Feature","id":"bangkok-raco-avve","geometry":{"type":"Point","coordinates":[100.5940104,13.7144532]},"properties":{"name":"Avve","category":"Other","icon":"fa-location-dot","address":"3 25 25 Soi Edison, Khwaeng Phra Khanong Nuea, Watthana, Krung Thep Maha Nakhon 10110","events":[{"date":"2026-10-09","time":"22:30","title":"ALTER EGO 6","artists":["x_me","NEBESNY","Jorgium"],"ra_url":"https://ra.co/events/2548856","poster":"https://images.ra.co/3b5d3a32352d4aa8afd833e8144bf3a0b2099983.png","soundcloud_track_id":"","soundcloud_url":""}]}},{"type":"Feature","id":"bangkok-raco-12-x-12","geometry":{"type":"Point","coordinates":[100.5854822,13.7366373]},"properties":{"name":"12 x 12","category":"Other","icon":"fa-location-dot","address":"810, 22 Soi Thara Rom 2, Khwaeng Khlong Tan Nuea, Watthana, Krung Thep Maha Nakhon 10110","events":[{"date":"2026-10-10","time":"21:00","title":"Dinosound and GAOLAO B2B All Night Long","artists":["Dinosound","GAOLAO"],"ra_url":"https://ra.co/events/2550641","poster":"https://images.ra.co/b56df28cdf37dbfb8223cb461006ded614c6c751.png","soundcloud_track_id":"","soundcloud_url":""}]}},{"type":"Feature","id":"bangkok-raco-dual","geometry":{"type":"Point","coordinates":[100.5305394,13.7251706]},"properties":{"name":"Dual","category":"Other","icon":"fa-location-dot","address":"Soi Naradhiwas Rajanagarindra 3, Si Lom, Khet Bang Rak, Krung Thep Maha Nakhon 10500","events":[{"date":"2026-10-10","time":"21:00","title":"DUAL","artists":["Timur Basha","Neil E"],"ra_url":"https://ra.co/events/2549501","poster":"https://images.ra.co/44b04353d1d369f47e4687f93220473eb19ba969.jpg","soundcloud_track_id":"","soundcloud_url":""}]}}]}