{"type":"FeatureCollection","features":[{"type":"Feature","geometry":{"type":"Point","coordinates":[100.50829324046188,13.718763935540062]},"properties":{"name":"Start","order":0,"slug":"start","photos":[]}},{"type":"Feature","geometry":{"type":"Point","coordinates":[100.5045298,13.7146938]},"properties":{"name":"หลวงพ่อโบสถ์บน","name_en":"หลวงพ่อโบสถ์บน","order":1,"slug":"way-1158114735","osm_id":"way/1158114735","distance_km":0.63,"photos":["/temple-walks/ccplace-temple-walk/photos/way-1158114735-1.jpg","/temple-walks/ccplace-temple-walk/photos/way-1158114735-2.jpg","/temple-walks/ccplace-temple-walk/photos/way-1158114735-3.jpg","/temple-walks/ccplace-temple-walk/photos/way-1158114735-4.jpg","/temple-walks/ccplace-temple-walk/photos/way-1158114735-5.jpg"],"attributions":["© Nai Narinthibet (In) / Public domain","© Yakuzakorat / CC BY-SA 4.0","© Yakuzakorat / CC BY-SA 4.0","© Mastertongapollo / CC BY-SA 4.0","© Mastertongapollo / CC BY-SA 4.0"]}},{"type":"Feature","geometry":{"type":"Point","coordinates":[100.5053343,13.714067]},"properties":{"name":"วัดเศวตฉัตรวรวิหาร","name_en":"Wat Sawettachat Worawihan","order":2,"slug":"relation-13448724","osm_id":"relation/13448724","distance_km":0.71,"photos":["/temple-walks/ccplace-temple-walk/photos/relation-13448724-1.jpg","/temple-walks/ccplace-temple-walk/photos/relation-13448724-2.jpg","/temple-walks/ccplace-temple-walk/photos/relation-13448724-3.jpg","/temple-walks/ccplace-temple-walk/photos/relation-13448724-4.jpg","/temple-walks/ccplace-temple-walk/photos/relation-13448724-5.jpg"],"attributions":["© กสิณธร ราชโอรส / CC BY-SA 4.0","© กสิณธร ราชโอรส / CC BY-SA 3.0","© กสิณธร ราชโอรส / CC BY-SA 3.0","© กสิณธร ราชโอรส / CC BY-SA 3.0","© กสิณธร ราชโอรส / CC BY-SA 3.0"]}},{"type":"Feature","geometry":{"type":"Point","coordinates":[100.5134324,13.7173267]},"properties":{"name":"วัดยานนาวา","name_en":"Wat Yannawa","order":3,"slug":"way-332853807","osm_id":"way/332853807","distance_km":4.85,"photos":["/temple-walks/ccplace-temple-walk/photos/way-332853807-1.jpg","/temple-walks/ccplace-temple-walk/photos/way-332853807-2.jpg","/temple-walks/ccplace-temple-walk/photos/way-332853807-3.jpg","/temple-walks/ccplace-temple-walk/photos/way-332853807-4.jpg","/temple-walks/ccplace-temple-walk/photos/way-332853807-5.jpg"],"attributions":["© Uthen Smantai / CC BY-SA 3.0","© Uthen Smantai / CC BY-SA 3.0","© Joe628 / CC BY-SA 4.0","© Joe628 / CC BY-SA 4.0","© Joe628 / CC BY-SA 4.0"]}},{"type":"Feature","geometry":{"type":"Point","coordinates":[100.5141456,13.7192126]},"properties":{"name":"ศาลเจ้าเจียวเองเบี้ยว","name_en":"Chiao Eng Biao Shrine","order":4,"slug":"way-897536918","osm_id":"way/897536918","distance_km":5.32,"photos":[],"attributions":[]}},{"type":"Feature","geometry":{"type":"Point","coordinates":[100.5153739,13.7218484]},"properties":{"name":"วัดสวนพลู","name_en":"Wat Suan Phlu","order":5,"slug":"way-1003480964","osm_id":"way/1003480964","distance_km":5.88,"photos":["/temple-walks/ccplace-temple-walk/photos/way-1003480964-1.jpg","/temple-walks/ccplace-temple-walk/photos/way-1003480964-2.jpg","/temple-walks/ccplace-temple-walk/photos/way-1003480964-3.jpg","/temple-walks/ccplace-temple-walk/photos/way-1003480964-4.jpg","/temple-walks/ccplace-temple-walk/photos/way-1003480964-5.jpg"],"attributions":["© Marc Baronnet / CC BY-SA 4.0","© Chainwit. / CC BY-SA 4.0","© Joe628 / CC BY-SA 4.0","© Joe628 / CC BY-SA 4.0","© Joe628 / CC BY-SA 4.0"]}},{"type":"Feature","geometry":{"type":"Point","coordinates":[100.5147203,13.7262005]},"properties":{"name":"วัดม่วงแค","name_en":"Wat Muang Khae","order":6,"slug":"way-231405202","osm_id":"way/231405202","distance_km":6.73,"photos":["/temple-walks/ccplace-temple-walk/photos/way-231405202-1.jpg","/temple-walks/ccplace-temple-walk/photos/way-231405202-2.jpg","/temple-walks/ccplace-temple-walk/photos/way-231405202-3.jpg","/temple-walks/ccplace-temple-walk/photos/way-231405202-4.jpg","/temple-walks/ccplace-temple-walk/photos/way-231405202-5.jpg"],"attributions":["© กสิณธร ราชโอรส / CC BY-SA 4.0","© กสิณธร ราชโอรส / CC BY-SA 4.0","© กสิณธร ราชโอรส / CC BY-SA 4.0","© กสิณธร ราชโอรส / CC BY-SA 4.0","© กสิณธร ราชโอรส / CC BY-SA 4.0"]}},{"type":"Feature","geometry":{"type":"Point","coordinates":[100.5167786,13.7327097]},"properties":{"name":"วัดมหาพฤฒารามวรวิหาร","name_en":"Wat Maha Phruettharam Worawihan","order":7,"slug":"way-231405201","osm_id":"way/231405201","distance_km":8.06,"photos":["/temple-walks/ccplace-temple-walk/photos/way-231405201-1.jpg","/temple-walks/ccplace-temple-walk/photos/way-231405201-2.jpg","/temple-walks/ccplace-temple-walk/photos/way-231405201-3.jpg","/temple-walks/ccplace-temple-walk/photos/way-231405201-4.jpg","/temple-walks/ccplace-temple-walk/photos/way-231405201-5.jpg"],"attributions":["© กสิณธร ราชโอรส / CC BY-SA 3.0","© กสิณธร ราชโอรส / CC BY-SA 3.0","© กสิณธร ราชโอรส / CC BY-SA 4.0","© กสิณธร ราชโอรส / CC BY-SA 4.0","© กสิณธร ราชโอรส / CC BY-SA 4.0"]}},{"type":"Feature","geometry":{"type":"Point","coordinates":[100.5194737,13.731414]},"properties":{"name":"วัดแก้วแจ่มฟ้า","name_en":"Wat Kaeo Chaem Fa","order":8,"slug":"way-231405200","osm_id":"way/231405200","distance_km":8.71,"photos":["/temple-walks/ccplace-temple-walk/photos/way-231405200-1.jpg","/temple-walks/ccplace-temple-walk/photos/way-231405200-2.jpg","/temple-walks/ccplace-temple-walk/photos/way-231405200-3.jpg","/temple-walks/ccplace-temple-walk/photos/way-231405200-4.jpg","/temple-walks/ccplace-temple-walk/photos/way-231405200-5.jpg"],"attributions":["© กสิณธร ราชโอรส / CC BY-SA 4.0","© กสิณธร ราชโอรส / CC BY-SA 4.0","© กสิณธร ราชโอรส / CC BY-SA 4.0","© กสิณธร ราชโอรส / CC BY-SA 4.0","© กสิณธร ราชโอรส / CC BY-SA 4.0"]}},{"type":"Feature","geometry":{"type":"LineString","coordinates":[[100.508279,13.718731],[100.508273,13.718733],[100.508203,13.718761],[100.508183,13.718716],[100.50813,13.71859],[100.508092,13.718495],[100.507838,13.717973],[100.507756,13.717812],[100.507481,13.717269],[100.507374,13.717049],[100.507262,13.716833],[100.507217,13.716754],[100.507175,13.716699],[100.506936,13.716473],[100.506817,13.71636],[100.506761,13.716306],[100.506738,13.716286],[100.506508,13.716078],[100.506457,13.716031],[100.506088,13.715702],[100.506024,13.715675],[100.505944,13.715647],[100.50539,13.715157],[100.505273,13.715056],[100.505053,13.714866],[100.504946,13.714767],[100.504709,13.714559],[100.504675,13.71453],[100.504709,13.714559],[100.504805,13.714486],[100.504876,13.714432],[100.505224,13.714168],[100.505257,13.714155],[100.505296,13.714154],[100.505321,13.714156],[100.505321,13.714156],[100.505321,13.714156],[100.505296,13.714154],[100.505257,13.714155],[100.505224,13.714168],[100.504876,13.714432],[100.504805,13.714486],[100.504709,13.714559],[100.504946,13.714767],[100.505053,13.714866],[100.505273,13.715056],[100.50539,13.715157],[100.505944,13.715647],[100.505964,13.715686],[100.505968,13.715693],[100.506001,13.715759],[100.506422,13.716118],[100.506737,13.716391],[100.506994,13.716629],[100.507091,13.716723],[100.507162,13.716799],[100.507215,13.71689],[100.507374,13.717231],[100.507713,13.717985],[100.507968,13.718544],[100.508004,13.718639],[100.508048,13.718754],[100.508105,13.718872],[100.508157,13.718989],[100.508301,13.719307],[100.508469,13.719667],[100.508581,13.719893],[100.508668,13.720086],[100.508719,13.720237],[100.508732,13.72029],[100.508752,13.720375],[100.508763,13.720493],[100.508792,13.720843],[100.508796,13.720903],[100.5088,13.721087],[100.508805,13.721231],[100.508811,13.721425],[100.508732,13.721435],[100.508655,13.721445],[100.508302,13.721508],[100.507261,13.721707],[100.506894,13.721777],[100.506769,13.721799],[100.50664,13.721819],[100.506533,13.721829],[100.506438,13.721823],[100.506348,13.721801],[100.506238,13.721751],[100.506184,13.721708],[100.506122,13.72165],[100.506071,13.721583],[100.506028,13.721508],[100.506002,13.721416],[100.506002,13.721341],[100.506011,13.721258],[100.506036,13.721191],[100.506065,13.721146],[100.506079,13.721125],[100.50615,13.721037],[100.506228,13.720974],[100.506333,13.720924],[100.50671,13.72082],[100.507334,13.720662],[100.507708,13.720562],[100.50807,13.720456],[100.508623,13.720282],[100.510683,13.719778],[100.513038,13.719218],[100.513377,13.719136],[100.514961,13.718732],[100.515207,13.71867],[100.516873,13.718208],[100.516982,13.718185],[100.517058,13.718176],[100.517138,13.718173],[100.517227,13.718178],[100.517344,13.718191],[100.517626,13.718258],[100.517974,13.718388],[100.518508,13.718543],[100.518702,13.718672],[100.51877,13.718749],[100.51881,13.718823],[100.518816,13.718847],[100.518833,13.71891],[100.518828,13.719021],[100.518802,13.719159],[100.518719,13.719472],[100.518426,13.720526],[100.518419,13.720552],[100.518235,13.721213],[100.518127,13.7216],[100.518081,13.721767],[100.518028,13.721957],[100.517925,13.722329],[100.517868,13.722535],[100.517847,13.722607],[100.517664,13.722539],[100.517218,13.722374],[100.517008,13.722296],[100.51679,13.722215],[100.516747,13.722195],[100.516703,13.722173],[100.516656,13.722134],[100.516634,13.722106],[100.516602,13.722067],[100.516331,13.721384],[100.516226,13.721147],[100.516211,13.72111],[100.516168,13.721012],[100.515989,13.720615],[100.515775,13.720104],[100.51572,13.719984],[100.515635,13.719786],[100.515607,13.719722],[100.515485,13.719442],[100.51538,13.719214],[100.515235,13.718876],[100.515178,13.718727],[100.515138,13.71863],[100.515077,13.718488],[100.515044,13.718416],[100.515009,13.71834],[100.514974,13.718263],[100.514867,13.718007],[100.514729,13.717706],[100.514685,13.717598],[100.514557,13.717291],[100.514482,13.71713],[100.51442,13.716978],[100.51439,13.716906],[100.514369,13.716912],[100.514319,13.716928],[100.513819,13.717087],[100.513464,13.717142],[100.513379,13.717168],[100.513422,13.717329],[100.513379,13.717168],[100.513464,13.717142],[100.513819,13.717087],[100.514319,13.716928],[100.514369,13.716912],[100.51439,13.716906],[100.51442,13.716978],[100.514482,13.71713],[100.514557,13.717291],[100.514685,13.717598],[100.514729,13.717706],[100.514867,13.718007],[100.514974,13.718263],[100.515009,13.71834],[100.515044,13.718416],[100.515077,13.718488],[100.515138,13.71863],[100.515178,13.718727],[100.515086,13.718748],[100.515013,13.718765],[100.514585,13.718875],[100.514432,13.718914],[100.514089,13.719002],[100.514432,13.718914],[100.514585,13.718875],[100.515013,13.718765],[100.515086,13.718748],[100.515178,13.718727],[100.515235,13.718876],[100.51538,13.719214],[100.515485,13.719442],[100.515607,13.719722],[100.515635,13.719786],[100.51572,13.719984],[100.515775,13.720104],[100.515989,13.720615],[100.516168,13.721012],[100.516211,13.72111],[100.516226,13.721147],[100.516183,13.721163],[100.515988,13.721246],[100.516149,13.721463],[100.515673,13.72168],[100.51538,13.721857],[100.515673,13.72168],[100.516149,13.721463],[100.516285,13.721404],[100.516331,13.721384],[100.516602,13.722067],[100.516614,13.722115],[100.516628,13.722165],[100.516637,13.722213],[100.516638,13.722249],[100.516632,13.722307],[100.516629,13.722347],[100.516618,13.722436],[100.516539,13.723056],[100.516529,13.723146],[100.516499,13.723403],[100.516494,13.723448],[100.516477,13.723573],[100.516438,13.723858],[100.51642,13.723999],[100.516415,13.724038],[100.516402,13.724138],[100.516374,13.724347],[100.516369,13.724384],[100.51634,13.7246],[100.516297,13.724919],[100.516279,13.725053],[100.516268,13.725136],[100.516246,13.725271],[100.516228,13.725339],[100.516214,13.725389],[100.516204,13.725445],[100.5162,13.725492],[100.516204,13.725556],[100.516212,13.725633],[100.516209,13.725666],[100.516192,13.72585],[100.516155,13.726176],[100.516141,13.72629],[100.516134,13.726339],[100.516129,13.726379],[100.516064,13.726363],[100.515849,13.726337],[100.515471,13.726331],[100.515411,13.726342],[100.515271,13.726343],[100.515148,13.726374],[100.514844,13.726363],[100.514812,13.726361],[100.514795,13.726353],[100.514783,13.726336],[100.514782,13.726323],[100.51478,13.72631],[100.514781,13.726274],[100.514781,13.726248],[100.514768,13.726228],[100.514747,13.726214],[100.514719,13.726209],[100.514617,13.726191],[100.514458,13.726164],[100.514454,13.726165],[100.51445,13.726167],[100.514442,13.726174],[100.514406,13.726228],[100.514384,13.726243],[100.514355,13.726246],[100.514292,13.726239],[100.514263,13.726239],[100.514241,13.726248],[100.51423,13.72626],[100.514228,13.726279],[100.51422,13.726351],[100.514219,13.726377],[100.51426,13.726387],[100.514574,13.726417],[100.514704,13.72643],[100.514734,13.726427],[100.514761,13.726412],[100.514777,13.726383],[100.514795,13.726353],[100.514812,13.726361],[100.514844,13.726363],[100.515148,13.726374],[100.515271,13.726343],[100.515411,13.726342],[100.515471,13.726331],[100.515849,13.726337],[100.516064,13.726363],[100.516129,13.726379],[100.516076,13.726773],[100.516044,13.727002],[100.515972,13.72754],[100.515945,13.727738],[100.51593,13.727849],[100.515999,13.727877],[100.516043,13.727894],[100.516151,13.727928],[100.516343,13.727965],[100.516507,13.728005],[100.516618,13.728014],[100.516891,13.728062],[100.516981,13.728087],[100.517186,13.728143],[100.517421,13.728217],[100.51759,13.728267],[100.517792,13.728332],[100.517947,13.728377],[100.518012,13.728395],[100.518023,13.728399],[100.518059,13.728409],[100.51825,13.728463],[100.518292,13.728474],[100.518343,13.728491],[100.518409,13.728511],[100.518467,13.72853],[100.518446,13.728689],[100.518383,13.729151],[100.51836,13.729318],[100.518357,13.729342],[100.518308,13.729705],[100.5183,13.729764],[100.518248,13.730149],[100.518197,13.730532],[100.518204,13.730624],[100.518177,13.730723],[100.518154,13.730812],[100.518085,13.731114],[100.518075,13.73117],[100.51808,13.73124],[100.518331,13.732474],[100.517411,13.732608],[100.517317,13.732621],[100.517178,13.732633],[100.516908,13.732649],[100.516876,13.732662],[100.516908,13.732649],[100.517178,13.732633],[100.517317,13.732621],[100.517411,13.732608],[100.518331,13.732474],[100.51808,13.73124],[100.518075,13.73117],[100.518085,13.731114],[100.518154,13.730812],[100.518177,13.730723],[100.518204,13.730624],[100.518732,13.730723],[100.518872,13.730751],[100.518946,13.730764],[100.519399,13.73085],[100.519419,13.730853],[100.519876,13.730937],[100.519957,13.73095],[100.51995,13.731006],[100.519899,13.731238],[100.519879,13.731253],[100.51985,13.731266],[100.519608,13.731223],[100.519586,13.731229],[100.519563,13.731286],[100.519549,13.731305],[100.519488,13.731315],[100.519488,13.731315]]},"properties":{"type":"route","segment_breaks":[0,28,36,177,200,221,278,355,382],"total_km":8.71}}]}