{"type":"FeatureCollection","features":[{"type":"Feature","id":"toulouse-distorama-la-mecanique-des-fluides","geometry":{"type":"Point","coordinates":[1.4537749,43.6002765]},"properties":{"name":"La Mécanique des Fluides","category":"Concert Bar","icon":"🎵","address":"1 rue Riquet 31000 Toulouse","logo":"mecanique_des_fluides.png","url":"","coord_source":"nominatim","coord_accuracy":"high"}},{"type":"Feature","id":"toulouse-distorama-le-ravelin","geometry":{"type":"Point","coordinates":[1.4282089,43.599082]},"properties":{"name":"Le Ravelin","category":"Concert Bar","icon":"🎵","address":"6 place du Ravelin 31300 Toulouse","logo":"le_ravelin.png","url":"","coord_source":"nominatim","coord_accuracy":"high"}},{"type":"Feature","id":"toulouse-distorama-gloria","geometry":{"type":"Point","coordinates":[1.4439408,43.6014516]},"properties":{"name":"Gloria","category":"Concert Bar","icon":"🎵","address":"4 rue Peyras 31000 Toulouse","logo":"","url":"","coord_source":"nominatim","coord_accuracy":"high"}},{"type":"Feature","id":"toulouse-distorama-dalidaark","geometry":{"type":"Point","coordinates":[1.4318769,43.5988684]},"properties":{"name":"Dalidaark","category":"Concert Bar","icon":"🎵","address":"39 rue Réclusane 31300 Toulouse","logo":"dalidaark.png","url":"","coord_source":"nominatim","coord_accuracy":"high"}},{"type":"Feature","id":"toulouse-distorama-au-poele-de-la-bete","geometry":{"type":"Point","coordinates":[1.4541776,43.6028499]},"properties":{"name":"Au Poêle de la bête","category":"Concert Bar","icon":"🎵","address":"56 rue d'Aubuisson 31000 Toulouse","logo":"poele_de_la_bete.png","url":"","coord_source":"nominatim","coord_accuracy":"high"}},{"type":"Feature","id":"toulouse-distorama-le-dada","geometry":{"type":"Point","coordinates":[1.4383337,43.6123398]},"properties":{"name":"Le Dada","category":"Concert Bar","icon":"🎵","address":"27 avenue Honoré Serres 31000 Toulouse","logo":"","url":"","coord_source":"nominatim","coord_accuracy":"high"}},{"type":"Feature","id":"toulouse-distorama-skatepark-le-petit","geometry":{"type":"Point","coordinates":[1.4232958,43.6203645]},"properties":{"name":"Skatepark Le Petit","category":"Concert Bar","icon":"🎵","address":"125 chemin du Sang de Serp 31200 Toulouse","logo":"","url":"","coord_source":"nominatim","coord_accuracy":"high"}},{"type":"Feature","id":"toulouse-distorama-radio-fmr","geometry":{"type":"Point","coordinates":[1.4487374,43.6153004]},"properties":{"name":"Radio FMR","category":"Radio","icon":"📻","address":"9 boulevard des Minimes 31200 Toulouse","logo":"radio_fmr.png","url":"https://www.radiofmr.com/","coord_source":"nominatim","coord_accuracy":"high"}},{"type":"Feature","id":"toulouse-distorama-le-cameleon","geometry":{"type":"Point","coordinates":[1.433005,43.599585]},"properties":{"name":"Le Caméléon","category":"Concert Bar","icon":"🎵","address":"19 rue Pont Saint Pierre 31300 Toulouse","logo":"","url":"","coord_source":"nominatim","coord_accuracy":"high"}},{"type":"Feature","id":"toulouse-distorama-bar-belfort","geometry":{"type":"Point","coordinates":[1.4527628,43.6057612]},"properties":{"name":"Bar Belfort","category":"Concert Bar","icon":"🎵","address":"9 place Belfort 31000 Toulouse","logo":"","url":"","coord_source":"nominatim","coord_accuracy":"high"}},{"type":"Feature","id":"toulouse-distorama-pirouette","geometry":{"type":"Point","coordinates":[1.4291318,43.5991955]},"properties":{"name":"Pirouette","category":"Concert Bar","icon":"🎵","address":"1 rue Marthe Varsi 31100 Toulouse","logo":"","url":"","coord_source":"nominatim","coord_accuracy":"high"}},{"type":"Feature","id":"toulouse-distorama-boudu-pont","geometry":{"type":"Point","coordinates":[1.4363272,43.5988936]},"properties":{"name":"Boudu pont","category":"Concert Bar","icon":"🎵","address":"1 rue de la République 31300 Toulouse","logo":"","url":"","coord_source":"nominatim","coord_accuracy":"high"}},{"type":"Feature","id":"toulouse-distorama-les-merles-moqueurs","geometry":{"type":"Point","coordinates":[1.422521,43.5958665]},"properties":{"name":"Les Merles Moqueurs","category":"Concert Bar","icon":"🎵","address":"8 allées Maurice Sarraut 31300 Toulouse","logo":"","url":"","coord_source":"nominatim","coord_accuracy":"high"}},{"type":"Feature","id":"toulouse-distorama-cacahuete","geometry":{"type":"Point","coordinates":[1.4328833,43.5987868]},"properties":{"name":"Cacahuète","category":"Concert Bar","icon":"🎵","address":"21 place de l'Estrapade 31300 Toulouse","logo":"","url":"","coord_source":"nominatim","coord_accuracy":"high"}},{"type":"Feature","id":"toulouse-distorama-l-autan","geometry":{"type":"Point","coordinates":[1.43883,43.6117922]},"properties":{"name":"L'Autan","category":"Concert Bar","icon":"🎵","address":"58 boulevard d'Arcole 31000 Toulouse","logo":"","url":"","coord_source":"nominatim","coord_accuracy":"high"}},{"type":"Feature","id":"toulouse-distorama-labo-des-arts","geometry":{"type":"Point","coordinates":[1.4652089,43.6055126]},"properties":{"name":"Labo Des Arts","category":"Concert Bar","icon":"🎵","address":"8 rue Clément 31500 Toulouse","logo":"","url":"","coord_source":"nominatim","coord_accuracy":"high"}},{"type":"Feature","id":"toulouse-distorama-l-engrenage","geometry":{"type":"Point","coordinates":[1.4880684,43.6274411]},"properties":{"name":"L'Engrenage","category":"Concert Bar","icon":"🎵","address":"14 rue Louis Renault 31130 Balma","logo":"","url":"","coord_source":"nominatim","coord_accuracy":"high"}},{"type":"Feature","id":"toulouse-distorama-le-detroit","geometry":{"type":"Point","coordinates":[1.4269419,43.6420734]},"properties":{"name":"Le Détroit","category":"Concert Bar","icon":"🎵","address":"3 avenue de Fondeyre 31200 Toulouse","logo":"","url":"","coord_source":"nominatim","coord_accuracy":"high"}},{"type":"Feature","id":"toulouse-distorama-little-o-clock","geometry":{"type":"Point","coordinates":[1.5208073,43.6444525]},"properties":{"name":"Little O'Clock","category":"Concert Bar","icon":"🎵","address":"75 allée Jean Jaurès 31000 Toulouse","logo":"","url":"","coord_source":"nominatim","coord_accuracy":"high"}},{"type":"Feature","id":"toulouse-distorama-axis-music","geometry":{"type":"Point","coordinates":[1.3974931,43.5472325]},"properties":{"name":"Axis Music","category":"Concert Bar","icon":"🎵","address":"7 impasse Boudeville 31100 Toulouse","logo":"","url":"","coord_source":"nominatim","coord_accuracy":"high"}},{"type":"Feature","id":"toulouse-distorama-axis-musique","geometry":{"type":"Point","coordinates":[1.3974931,43.5472325]},"properties":{"name":"Axis Music","category":"Concert Bar","icon":"🎵","address":"7 impasse Boudeville 31100 Toulouse","logo":"","url":"","coord_source":"nominatim","coord_accuracy":"high"}},{"type":"Feature","id":"toulouse-distorama-chez-paul-asso","geometry":{"type":"Point","coordinates":[1.4670985,43.5563945]},"properties":{"name":"Chez Paul Asso","category":"Concert Bar","icon":"🎵","address":"118 route de Narbonne 31400 Toulouse","logo":"","url":"","coord_source":"nominatim","coord_accuracy":"high"}},{"type":"Feature","id":"toulouse-distorama-studio-du-cerisier","geometry":{"type":"Point","coordinates":[1.4147534,43.5874098]},"properties":{"name":"Studio du Cerisier","category":"Studio","icon":"🎙️","address":"11 rue Descoins-Tinard 31100 Toulouse","logo":"","url":"","coord_source":"nominatim","coord_accuracy":"high"}},{"type":"Feature","id":"toulouse-distorama-bistrot-ducoin","geometry":{"type":"Point","coordinates":[1.4559708,43.6090065]},"properties":{"name":"Bistrot Ducoin","category":"Concert Bar","icon":"🎵","address":"40 rue du Général Jean Compans 31500 Toulouse","logo":"bistrot_ducoin.jpg","url":"","coord_source":"nominatim","coord_accuracy":"high"}},{"type":"Feature","id":"toulouse-distorama-le-cactus","geometry":{"type":"Point","coordinates":[1.4371017,43.6108466]},"properties":{"name":"Le Cactus","category":"Concert Bar","icon":"🎵","address":"13 boulevard Lascrosses 31000 Toulouse","logo":"","url":"","coord_source":"nominatim","coord_accuracy":"high"}},{"type":"Feature","id":"toulouse-distorama-the-petit-london","geometry":{"type":"Point","coordinates":[1.4538883,43.6008176]},"properties":{"name":"The Petit London","category":"Concert Bar","icon":"🎵","address":"7 rue Pierre-Paul Riquet 31000 Toulouse","logo":"","url":"","coord_source":"nominatim","coord_accuracy":"high"}},{"type":"Feature","id":"toulouse-distorama-le-poinconneur","geometry":{"type":"Point","coordinates":[1.4544142,43.617283]},"properties":{"name":"Le Poinçonneur","category":"Concert Bar","icon":"🎵","address":"19bis rue du Faubourg Bonnefoy 31500 Toulouse","logo":"","url":"","coord_source":"nominatim","coord_accuracy":"high"}},{"type":"Feature","id":"toulouse-distorama-l-atelier-des-cheminots","geometry":{"type":"Point","coordinates":[1.4536169,43.6154599]},"properties":{"name":"L'atelier des Cheminots","category":"Concert Bar","icon":"🎵","address":"3 rue des Cheminots 31200 Toulouse","logo":"","url":"","coord_source":"nominatim","coord_accuracy":"high"}},{"type":"Feature","id":"toulouse-distorama-le-winger","geometry":{"type":"Point","coordinates":[1.4516526,43.6108151]},"properties":{"name":"Le Winger","category":"Concert Bar","icon":"🎵","address":"68 rue de Bayard 31000 Toulouse","logo":"","url":"","coord_source":"nominatim","coord_accuracy":"high"}},{"type":"Feature","id":"toulouse-distorama-face-b-friperie","geometry":{"type":"Point","coordinates":[1.4528685,43.60564]},"properties":{"name":"Face B Friperie","category":"Boutique","icon":"🛍️","address":"7 place Damloup 31000 Toulouse","logo":"face_b.jpg","url":"","coord_source":"nominatim","coord_accuracy":"high"}},{"type":"Feature","id":"toulouse-distorama-guitar-tech","geometry":{"type":"Point","coordinates":[1.4351346,43.5991741]},"properties":{"name":"Guitar Tech","category":"Boutique","icon":"🛍️","address":"50 grande rue Saint Nicolas 31300 Toulouse","logo":"guitar_tech.png","url":"","coord_source":"nominatim","coord_accuracy":"high"}},{"type":"Feature","id":"toulouse-distorama-le-laboratoire","geometry":{"type":"Point","coordinates":[1.4424622,43.6004601]},"properties":{"name":"Le Laboratoire","category":"Record Shop","icon":"💿","address":"9 rue de la Bourse 31000 Toulouse","logo":"laboratoire.png","url":"","coord_source":"nominatim","coord_accuracy":"high"}},{"type":"Feature","id":"toulouse-distorama-studio-swampland","geometry":{"type":"Point","coordinates":[1.4500104,43.6153048]},"properties":{"name":"Studio Swampland","category":"Studio","icon":"🎙️","address":"1 rue Chabanon 31200 Toulouse","logo":"swampland.png","url":"","coord_source":"nominatim","coord_accuracy":"high"}},{"type":"Feature","id":"toulouse-distorama-terres-de-legendes","geometry":{"type":"Point","coordinates":[1.4421923,43.6033626]},"properties":{"name":"Terres de Légendes","category":"Boutique","icon":"🛍️","address":"44 rue Gambetta 31000 Toulouse","logo":"terres_de_legendes.png","url":"","coord_source":"nominatim","coord_accuracy":"high"}},{"type":"Feature","id":"toulouse-distorama-vicious-circle","geometry":{"type":"Point","coordinates":[1.4424225,43.6036117]},"properties":{"name":"Vicious Circle","category":"Record Shop","icon":"💿","address":"56 rue Gambetta 31000 Toulouse","logo":"vicious_circle.png","url":"","coord_source":"nominatim","coord_accuracy":"high"}},{"type":"Feature","id":"toulouse-distorama-la-cinematheque-de-toulouse","geometry":{"type":"Point","coordinates":[1.4414764,43.6068671]},"properties":{"name":"La Cinémathèque de Toulouse","category":"Cinema","icon":"🎬","address":"69 rue du Taur 31000 Toulouse","logo":"cinematheque.png","url":"","coord_source":"nominatim","coord_accuracy":"high"}},{"type":"Feature","id":"toulouse-distorama-american-cosmograph","geometry":{"type":"Point","coordinates":[1.4467818,43.6039842]},"properties":{"name":"American Cosmograph","category":"Cinema","icon":"🎬","address":"24 rue Montardy 31000 Toulouse","logo":"american_cosmograph.jpg","url":"","coord_source":"nominatim","coord_accuracy":"high"}},{"type":"Feature","id":"toulouse-distorama-le-3-rue-peyrolieres","geometry":{"type":"Point","coordinates":[1.4409174,43.6001303]},"properties":{"name":"Le 3 Rue Peyrolières","category":"Boutique","icon":"🛍️","address":"3 rue Peyrolières 31000 Toulouse","logo":"3_rue_peyroliere.png","url":"","coord_source":"nominatim","coord_accuracy":"high"}}]}