{"type":"FeatureCollection","features":[{"type":"Feature","geometry":{"type":"Point","coordinates":[100.4927,13.7516]},"properties":{"name":"Start","order":0,"slug":"start","photos":[]}},{"type":"Feature","geometry":{"type":"Point","coordinates":[100.4926905,13.7515102]},"properties":{"name":"วัดพระศรีรัตนศาสดาราม","name_en":"Wat Phra Kaew","order":1,"slug":"way-230010054","osm_id":"way/230010054","distance_km":0.01,"photos":["/temple-walks/rattanakosin/photos/way-230010054-1.jpg","/temple-walks/rattanakosin/photos/way-230010054-2.jpg","/temple-walks/rattanakosin/photos/way-230010054-3.jpg","/temple-walks/rattanakosin/photos/way-230010054-4.jpg","/temple-walks/rattanakosin/photos/way-230010054-5.jpg"],"attributions":["© Jakub Hałun / CC BY-SA 4.0","© Jakub Hałun / CC BY-SA 4.0","© Jakub Hałun / CC BY-SA 4.0","© Jakub Hałun / CC BY-SA 4.0","© Jakub Hałun / CC BY-SA 4.0"]}},{"type":"Feature","geometry":{"type":"Point","coordinates":[100.4907979,13.7547697]},"properties":{"name":"วัดมหาธาตุยุวราชรังสฤษฎิ์ราชวรมหาวิหาร","name_en":"Wat Maha That Yuwarat Rangsarit Ratchaworamahawihan","order":2,"slug":"way-178329987","osm_id":"way/178329987","distance_km":0.4,"photos":["/temple-walks/rattanakosin/photos/way-178329987-1.jpg","/temple-walks/rattanakosin/photos/way-178329987-2.jpg","/temple-walks/rattanakosin/photos/way-178329987-3.jpg","/temple-walks/rattanakosin/photos/way-178329987-4.jpg","/temple-walks/rattanakosin/photos/way-178329987-5.jpg"],"attributions":["© กสิณธร ราชโอรส / CC BY-SA 4.0","© กสิณธร ราชโอรส / CC BY-SA 4.0","© กสิณธร ราชโอรส / CC BY-SA 4.0","© กสิณธร ราชโอรส / CC BY-SA 4.0","© I3LACK1CE / CC BY-SA 4.0"]}},{"type":"Feature","geometry":{"type":"Point","coordinates":[100.4915419,13.7595906]},"properties":{"name":"วัดบวรสถานสุทธาวาส","name_en":"Wat Bowon Sathan Sutthawat","order":3,"slug":"way-234351085","osm_id":"way/234351085","distance_km":1.12,"photos":["/temple-walks/rattanakosin/photos/way-234351085-1.jpg","/temple-walks/rattanakosin/photos/way-234351085-2.jpg","/temple-walks/rattanakosin/photos/way-234351085-3.jpg","/temple-walks/rattanakosin/photos/way-234351085-4.jpg","/temple-walks/rattanakosin/photos/way-234351085-5.jpg"],"attributions":["© Mastertongapollo / CC BY-SA 4.0","© กสิณธร ราชโอรส / CC BY-SA 4.0","© กสิณธร ราชโอรส / CC BY-SA 4.0","© กสิณธร ราชโอรส / CC BY-SA 4.0","© กสิณธร ราชโอรส / CC BY-SA 4.0"]}},{"type":"Feature","geometry":{"type":"Point","coordinates":[100.4950778,13.7608303]},"properties":{"name":"วัดชนะสงคราม","name_en":"Wat Chana Songkhram","order":4,"slug":"way-178329976","osm_id":"way/178329976","distance_km":2.6,"photos":["/temple-walks/rattanakosin/photos/way-178329976-1.jpg","/temple-walks/rattanakosin/photos/way-178329976-2.jpg","/temple-walks/rattanakosin/photos/way-178329976-3.jpg","/temple-walks/rattanakosin/photos/way-178329976-4.jpg","/temple-walks/rattanakosin/photos/way-178329976-5.jpg"],"attributions":["© Marcin Konsek / CC BY-SA 4.0","© Marcin Konsek / CC BY-SA 4.0","© Marcin Konsek / CC BY-SA 4.0","© Marcin Konsek / CC BY-SA 4.0","© This Photo was taken by Supanut Arunoprayote.\n\nFeel free to use any of my images, but please mention me as the author and may send me a message.  (สามารถใช้ภาพได้อิสระ แต่กรุณาใส่เครดิตผู้ถ่ายและอาจส่งข้อความบอกกล่าวด้วย) \n\n\n\nPlease do not upload an updated image here without consultation with the Author. The author would like to make corrections only at his own source. This ensures that the changes are preserved.Please if you think that any changes should be required, please inform the author.Otherwise you can upload a new image with a new name. Please use one of the templates derivative or extract. / CC BY 4.0"]}},{"type":"Feature","geometry":{"type":"Point","coordinates":[100.4959948,13.7555613]},"properties":{"name":"วัดบุรณศิริมาตยาราม","name_en":"Wat Buranasiri Mattayaram","order":5,"slug":"way-1000481576","osm_id":"way/1000481576","distance_km":3.89,"photos":["/temple-walks/rattanakosin/photos/way-1000481576-1.jpg","/temple-walks/rattanakosin/photos/way-1000481576-2.jpg","/temple-walks/rattanakosin/photos/way-1000481576-3.jpg","/temple-walks/rattanakosin/photos/way-1000481576-4.jpg","/temple-walks/rattanakosin/photos/way-1000481576-5.jpg"],"attributions":["© กสิณธร ราชโอรส / CC BY-SA 4.0","© กสิณธร ราชโอรส / CC BY-SA 4.0","© กสิณธร ราชโอรส / CC BY-SA 4.0","© กสิณธร ราชโอรส / CC BY-SA 4.0","© กสิณธร ราชโอรส / CC BY-SA 4.0"]}},{"type":"Feature","geometry":{"type":"Point","coordinates":[100.4993781,13.7547351]},"properties":{"name":"วัดมหรรณพารามวรวิหาร","name_en":"Wat Mahannapharam Worawihan","order":6,"slug":"way-118171998","osm_id":"way/118171998","distance_km":4.37,"photos":["/temple-walks/rattanakosin/photos/way-118171998-1.jpg","/temple-walks/rattanakosin/photos/way-118171998-2.jpg","/temple-walks/rattanakosin/photos/way-118171998-3.jpg","/temple-walks/rattanakosin/photos/way-118171998-4.jpg","/temple-walks/rattanakosin/photos/way-118171998-5.jpg"],"attributions":["© กสิณธร ราชโอรส / CC BY-SA 4.0","© กสิณธร ราชโอรส / CC BY-SA 4.0","© กสิณธร ราชโอรส / CC BY-SA 4.0","© กสิณธร ราชโอรส / CC BY-SA 4.0","© กสิณธร ราชโอรส / CC BY-SA 4.0"]}},{"type":"Feature","geometry":{"type":"Point","coordinates":[100.5042531,13.7548368]},"properties":{"name":"วัดราชนัดดารามวรวิหาร","name_en":"Wat Ratchanatdaram Worawihan","order":7,"slug":"way-103022363","osm_id":"way/103022363","distance_km":5.57,"photos":["/temple-walks/rattanakosin/photos/way-103022363-1.jpg","/temple-walks/rattanakosin/photos/way-103022363-2.jpg","/temple-walks/rattanakosin/photos/way-103022363-3.jpg","/temple-walks/rattanakosin/photos/way-103022363-4.jpg","/temple-walks/rattanakosin/photos/way-103022363-5.jpg"],"attributions":["© Y.Thanongsak / CC BY-SA 4.0","© กสิณธร ราชโอรส / CC BY-SA 3.0","© Wiwutsungtong / CC BY-SA 4.0","© Wiwutsungtong / CC BY-SA 4.0","© Suwapan91 / CC BY-SA 4.0"]}},{"type":"Feature","geometry":{"type":"Point","coordinates":[100.5056632,13.7583469]},"properties":{"name":"วัดปรินายกวรวิหาร","name_en":"Wat Parinayok Worawihan","order":8,"slug":"way-333223518","osm_id":"way/333223518","distance_km":6.32,"photos":["/temple-walks/rattanakosin/photos/way-333223518-1.jpg","/temple-walks/rattanakosin/photos/way-333223518-2.jpg","/temple-walks/rattanakosin/photos/way-333223518-3.jpg","/temple-walks/rattanakosin/photos/way-333223518-4.jpg","/temple-walks/rattanakosin/photos/way-333223518-5.jpg"],"attributions":["© กสิณธร ราชโอรส / CC BY-SA 4.0","© กสิณธร ราชโอรส / CC BY-SA 4.0","© กสิณธร ราชโอรส / CC BY-SA 4.0","© กสิณธร ราชโอรส / CC BY-SA 4.0","© กสิณธร ราชโอรส / CC BY-SA 3.0"]}},{"type":"Feature","geometry":{"type":"Point","coordinates":[100.5104272,13.7603121]},"properties":{"name":"วัดโสมนัสราชวรวิหาร","name_en":"Wat Sommanat Ratchaworawihan","order":9,"slug":"way-333223519","osm_id":"way/333223519","distance_km":7.22,"photos":["/temple-walks/rattanakosin/photos/way-333223519-1.jpg","/temple-walks/rattanakosin/photos/way-333223519-2.jpg","/temple-walks/rattanakosin/photos/way-333223519-3.jpg","/temple-walks/rattanakosin/photos/way-333223519-4.jpg","/temple-walks/rattanakosin/photos/way-333223519-5.jpg"],"attributions":["© กสิณธร ราชโอรส / CC BY-SA 4.0","© กสิณธร ราชโอรส / CC BY-SA 4.0","© กสิณธร ราชโอรส / CC BY-SA 4.0","© กสิณธร ราชโอรส / CC BY-SA 4.0","© กสิณธร ราชโอรส / CC BY-SA 4.0"]}},{"type":"Feature","geometry":{"type":"Point","coordinates":[100.511038,13.7576071]},"properties":{"name":"วัดสุนทรธรรมทาน","name_en":"Wat Sunthon Thammathan","order":10,"slug":"way-348393896","osm_id":"way/348393896","distance_km":7.7,"photos":["/temple-walks/rattanakosin/photos/way-348393896-1.jpg","/temple-walks/rattanakosin/photos/way-348393896-2.jpg","/temple-walks/rattanakosin/photos/way-348393896-3.jpg","/temple-walks/rattanakosin/photos/way-348393896-4.jpg","/temple-walks/rattanakosin/photos/way-348393896-5.jpg"],"attributions":["© กสิณธร ราชโอรส / CC BY-SA 4.0","© กสิณธร ราชโอรส / CC BY-SA 4.0","© กสิณธร ราชโอรส / CC BY-SA 4.0","© กสิณธร ราชโอรส / CC BY-SA 4.0","© กสิณธร ราชโอรส / CC BY-SA 4.0"]}},{"type":"Feature","geometry":{"type":"Point","coordinates":[100.5103701,13.7555341]},"properties":{"name":"วัดสิตาราม","name_en":"Wat Sitaram","order":11,"slug":"way-333223617","osm_id":"way/333223617","distance_km":8.31,"photos":["/temple-walks/rattanakosin/photos/way-333223617-1.jpg","/temple-walks/rattanakosin/photos/way-333223617-2.jpg","/temple-walks/rattanakosin/photos/way-333223617-3.jpg","/temple-walks/rattanakosin/photos/way-333223617-4.jpg","/temple-walks/rattanakosin/photos/way-333223617-5.jpg"],"attributions":["© กสิณธร ราชโอรส / CC BY-SA 4.0","© กสิณธร ราชโอรส / CC BY-SA 4.0","© กสิณธร ราชโอรส / CC BY-SA 4.0","© กสิณธร ราชโอรส / CC BY-SA 4.0","© กสิณธร ราชโอรส / CC BY-SA 4.0"]}},{"type":"Feature","geometry":{"type":"Point","coordinates":[100.5155791,13.7592497]},"properties":{"name":"วัดสมณานัมบริหาร","name_en":"Wat Samananam Borihan","order":12,"slug":"way-348799504","osm_id":"way/348799504","distance_km":9.83,"photos":["/temple-walks/rattanakosin/photos/way-348799504-1.jpg","/temple-walks/rattanakosin/photos/way-348799504-2.jpg","/temple-walks/rattanakosin/photos/way-348799504-3.jpg","/temple-walks/rattanakosin/photos/way-348799504-4.jpg","/temple-walks/rattanakosin/photos/way-348799504-5.jpg"],"attributions":["© กสิณธร ราชโอรส / CC BY-SA 4.0","© กสิณธร ราชโอรส / CC BY-SA 4.0","© กสิณธร ราชโอรส / CC BY-SA 4.0","© กสิณธร ราชโอรส / CC BY-SA 4.0","© กสิณธร ราชโอรส / CC BY-SA 4.0"]}},{"type":"Feature","geometry":{"type":"LineString","coordinates":[[100.4927,13.7516],[100.4926905,13.7515102],[100.492567,13.752455],[100.492378,13.75245],[100.492198,13.752446],[100.491617,13.752433],[100.49139,13.752428],[100.491255,13.752425],[100.491288,13.752537],[100.491323,13.752651],[100.491571,13.753446],[100.491618,13.753611],[100.491802,13.754293],[100.491857,13.754493],[100.491918,13.754711],[100.492052,13.755193],[100.492081,13.755302],[100.492093,13.755348],[100.492125,13.755462],[100.492159,13.755582],[100.492225,13.75583],[100.492326,13.756175],[100.492525,13.756901],[100.492565,13.757051],[100.492585,13.757125],[100.492663,13.757481],[100.492768,13.75784],[100.492787,13.757913],[100.492812,13.757996],[100.492888,13.75825],[100.493019,13.758707],[100.493026,13.75873],[100.493036,13.758812],[100.493032,13.758865],[100.493017,13.758912],[100.492996,13.758953],[100.492966,13.758987],[100.492886,13.759075],[100.492531,13.759442],[100.492186,13.75979],[100.491931,13.760043],[100.491905,13.760016],[100.491895,13.760006],[100.49169,13.759776],[100.491696,13.759771],[100.49169,13.759776],[100.491895,13.760006],[100.491905,13.760016],[100.491931,13.760043],[100.49165,13.760339],[100.491607,13.760436],[100.491602,13.760491],[100.49164,13.76058],[100.491712,13.760664],[100.491796,13.760708],[100.491822,13.760732],[100.491915,13.760819],[100.491961,13.760861],[100.49212,13.760984],[100.492749,13.761473],[100.492889,13.761582],[100.49298,13.761648],[100.49353,13.762072],[100.493791,13.762277],[100.493934,13.762389],[100.494227,13.762625],[100.494476,13.762829],[100.494542,13.762883],[100.494626,13.762951],[100.494644,13.762966],[100.494788,13.763083],[100.494834,13.76312],[100.494899,13.763172],[100.494931,13.763198],[100.495148,13.763372],[100.495203,13.763416],[100.495224,13.763432],[100.495491,13.763645],[100.495585,13.763712],[100.495662,13.763736],[100.495747,13.763747],[100.495836,13.763741],[100.49595,13.763712],[100.495982,13.763693],[100.496032,13.763663],[100.496375,13.763431],[100.496445,13.763384],[100.496633,13.763257],[100.496673,13.76323],[100.496794,13.763149],[100.497201,13.762876],[100.497986,13.762356],[100.498118,13.762268],[100.498245,13.762183],[100.49814,13.762057],[100.497619,13.761582],[100.497394,13.761389],[100.497027,13.76106],[100.49656,13.76062],[100.496502,13.760569],[100.496134,13.760235],[100.496071,13.760311],[100.495775,13.760667],[100.495549,13.760947],[100.495278,13.760741],[100.495241,13.760787],[100.49518,13.760863],[100.495158,13.760891],[100.49518,13.760863],[100.495241,13.760787],[100.495278,13.760741],[100.495033,13.760561],[100.494983,13.760531],[100.49502,13.760455],[100.495437,13.759958],[100.495544,13.75984],[100.495636,13.759746],[100.495605,13.759712],[100.495523,13.759622],[100.495465,13.759558],[100.495391,13.759468],[100.495236,13.759275],[100.495188,13.759198],[100.495112,13.759082],[100.495034,13.758921],[100.494976,13.758726],[100.494973,13.758714],[100.494961,13.758645],[100.494953,13.758497],[100.494974,13.758333],[100.495003,13.758246],[100.495045,13.758167],[100.4951,13.758101],[100.495171,13.758047],[100.495199,13.758031],[100.495275,13.757989],[100.495348,13.757963],[100.495433,13.75794],[100.495607,13.757913],[100.495847,13.757895],[100.495986,13.757913],[100.49605,13.757922],[100.496187,13.757928],[100.496308,13.757919],[100.496436,13.757899],[100.49725,13.757737],[100.498206,13.757551],[100.498714,13.757449],[100.498672,13.757235],[100.498151,13.757338],[100.49721,13.757531],[100.497188,13.757393],[100.497186,13.757385],[100.497136,13.757053],[100.497129,13.756348],[100.497131,13.756126],[100.497122,13.756065],[100.497123,13.756058],[100.497125,13.755984],[100.497126,13.755976],[100.497141,13.755936],[100.496356,13.756138],[100.496316,13.756132],[100.496284,13.756106],[100.496278,13.756054],[100.496349,13.755615],[100.496494,13.754711],[100.497187,13.754672],[100.497657,13.754634],[100.497907,13.754616],[100.498519,13.754576],[100.498593,13.754571],[100.498603,13.754647],[100.498637,13.754888],[100.498684,13.754881],[100.498762,13.754868],[100.4988,13.754862],[100.49879,13.754881],[100.49879,13.75491],[100.498812,13.75509],[100.499051,13.755059],[100.499058,13.755058],[100.499345,13.755021],[100.499416,13.755012],[100.499345,13.755021],[100.499058,13.755058],[100.499051,13.755059],[100.498812,13.75509],[100.49879,13.75491],[100.49879,13.754881],[100.4988,13.754862],[100.498762,13.754868],[100.498684,13.754881],[100.498637,13.754888],[100.498722,13.755506],[100.498727,13.755545],[100.498737,13.755631],[100.498743,13.755688],[100.498764,13.755897],[100.498766,13.755915],[100.498813,13.756311],[100.498856,13.756703],[100.498891,13.756975],[100.498898,13.757026],[100.498918,13.757185],[100.498932,13.757296],[100.498946,13.757402],[100.499103,13.75737],[100.499424,13.757306],[100.500398,13.757106],[100.501198,13.756933],[100.501237,13.756924],[100.501264,13.756918],[100.501406,13.75692],[100.501573,13.756939],[100.501613,13.756974],[100.501699,13.757022],[100.501787,13.757046],[100.501911,13.757043],[100.502026,13.757],[100.502106,13.756939],[100.502161,13.756868],[100.502188,13.756811],[100.502209,13.756704],[100.5022,13.756635],[100.502173,13.756535],[100.502112,13.756446],[100.502087,13.756424],[100.502217,13.756305],[100.502245,13.756275],[100.50226,13.75625],[100.502287,13.756181],[100.502303,13.75609],[100.502305,13.756064],[100.50231,13.755995],[100.502336,13.755971],[100.502366,13.75597],[100.50257,13.755934],[100.502761,13.755896],[100.503109,13.755831],[100.503236,13.755808],[100.503515,13.755746],[100.503687,13.755712],[100.503753,13.755699],[100.504069,13.755587],[100.504062,13.755556],[100.504044,13.755484],[100.503966,13.75518],[100.503899,13.754921],[100.503894,13.754898],[100.503823,13.754631],[100.504049,13.754565],[100.504155,13.754533],[100.504049,13.754565],[100.503823,13.754631],[100.503894,13.754898],[100.503899,13.754921],[100.503966,13.75518],[100.504044,13.755484],[100.504062,13.755556],[100.504069,13.755587],[100.50423,13.755532],[100.504262,13.75552],[100.504741,13.755348],[100.505125,13.755209],[100.505266,13.755157],[100.505285,13.755266],[100.505283,13.755385],[100.505265,13.755512],[100.505258,13.755613],[100.505251,13.755642],[100.505224,13.755793],[100.505211,13.755845],[100.505188,13.755917],[100.505043,13.756176],[100.505257,13.756134],[100.505315,13.756135],[100.505369,13.756147],[100.505411,13.756163],[100.505515,13.756213],[100.505756,13.75636],[100.505784,13.756376],[100.505844,13.756619],[100.505874,13.756682],[100.505248,13.757826],[100.505409,13.757922],[100.505443,13.757952],[100.505456,13.75797],[100.505459,13.757982],[100.505457,13.757997],[100.505422,13.758081],[100.505405,13.758133],[100.505423,13.758162],[100.505664,13.758289],[100.50569,13.758304],[100.505849,13.758396],[100.506144,13.75855],[100.506219,13.758583],[100.506277,13.758597],[100.506362,13.758555],[100.506698,13.758413],[100.50678,13.758585],[100.506847,13.758732],[100.5073,13.759698],[100.507395,13.759892],[100.507469,13.76005],[100.507579,13.760274],[100.50773,13.760585],[100.507881,13.760907],[100.508084,13.76134],[100.508266,13.761253],[100.508441,13.761624],[100.508632,13.761537],[100.50906,13.761347],[100.509106,13.761325],[100.509127,13.761311],[100.509149,13.761292],[100.509186,13.761236],[100.509211,13.761187],[100.50921,13.761125],[100.509197,13.761064],[100.508961,13.760554],[100.508903,13.760418],[100.508896,13.760366],[100.508906,13.760332],[100.508933,13.760285],[100.509004,13.760215],[100.509163,13.760077],[100.509197,13.760126],[100.509222,13.760165],[100.509253,13.760211],[100.509293,13.760161],[100.50959,13.759874],[100.509655,13.759952],[100.509721,13.760029],[100.509776,13.760098],[100.509787,13.760118],[100.509787,13.760148],[100.509787,13.760118],[100.509776,13.760098],[100.509721,13.760029],[100.509655,13.759952],[100.50959,13.759874],[100.509293,13.760161],[100.509253,13.760211],[100.509222,13.760165],[100.509197,13.760126],[100.509163,13.760077],[100.509205,13.760035],[100.50998,13.759302],[100.510067,13.759217],[100.510153,13.759127],[100.510239,13.759044],[100.51049,13.758794],[100.510579,13.758703],[100.510849,13.75843],[100.510893,13.758386],[100.511131,13.758167],[100.511262,13.758036],[100.511215,13.757901],[100.511113,13.757584],[100.51109,13.757514],[100.511079,13.757481],[100.511042,13.757361],[100.510914,13.756953],[100.510835,13.756684],[100.510783,13.756463],[100.510669,13.756465],[100.5104,13.756458],[100.510002,13.756447],[100.50983,13.756443],[100.509633,13.75644],[100.509609,13.756234],[100.509463,13.755015],[100.509862,13.754917],[100.510339,13.754824],[100.510414,13.755114],[100.510444,13.755223],[100.510429,13.755275],[100.51036,13.755308],[100.510238,13.755332],[100.510205,13.755335],[100.510168,13.755339],[100.51022,13.755567],[100.510168,13.755339],[100.510205,13.755335],[100.510238,13.755332],[100.51036,13.755308],[100.510429,13.755275],[100.510444,13.755223],[100.510414,13.755114],[100.510339,13.754824],[100.510398,13.754813],[100.510815,13.754774],[100.511096,13.754751],[100.511313,13.754729],[100.511704,13.754687],[100.511946,13.754651],[100.511971,13.754648],[100.512373,13.754551],[100.512429,13.754533],[100.512588,13.754485],[100.51293,13.754381],[100.513241,13.754289],[100.513783,13.754129],[100.513932,13.754101],[100.514011,13.754098],[100.51406,13.754112],[100.514134,13.754165],[100.514185,13.754207],[100.514219,13.754235],[100.514446,13.754774],[100.514513,13.754755],[100.516047,13.754308],[100.516275,13.75438],[100.517012,13.754545],[100.51697,13.75474],[100.516935,13.754846],[100.516908,13.754936],[100.516885,13.754993],[100.51686,13.755056],[100.516715,13.755389],[100.516609,13.755618],[100.516504,13.755825],[100.516433,13.755951],[100.516387,13.756028],[100.516293,13.756193],[100.516175,13.756404],[100.516148,13.756452],[100.516071,13.756584],[100.515972,13.756733],[100.515947,13.756765],[100.515745,13.757019],[100.515838,13.757107],[100.516035,13.757301],[100.516085,13.757349],[100.516027,13.757408],[100.515949,13.757487],[100.515716,13.757725],[100.515198,13.758248],[100.515294,13.758407],[100.515451,13.758885],[100.515499,13.759004],[100.515594,13.759244]]},"properties":{"type":"route","segment_breaks":[0,2,14,45,108,166,184,253,295,338,361,384,443],"total_km":9.83}}]}