{
  "type": "FeatureCollection",
  "_meta": {
    "crs": "EPSG:4326",
    "generated": "2026-05-20",
    "source": "Google Places API",
    "center": {
      "lat": 43.6047,
      "lon": 1.4442
    }
  },
  "features": [
    {
      "type": "Feature",
      "id": "toulouse-mange-bien-000",
      "geometry": {
        "type": "Point",
        "coordinates": [
          1.4572709,
          43.6011072
        ]
      },
      "properties": {
        "name": "Bàcaro",
        "category": "Restaurant",
        "icon": "🍽️",
        "address": "20 Rue du Pont Guilheméry, 31500 Toulouse, France",
        "coord_source": "google_places_api",
        "coord_accuracy": "high",
        "hours": "lundi: 12:00 – 15:00; mardi: 12:00 – 14:30, 19:00 – 23:30; mercredi: 12:00 – 14:30, 19:00 – 23:30; jeudi: 12:00 – 14:30, 19:00 – 23:30; vendredi: 12:00 – 15:00, 19:00 – 23:30; samedi: Fermé; dimanche: Fermé",
        "phone": "06 84 58 30 80",
        "url": "http://bacaro-toulouse.fr/"
      }
    },
    {
      "type": "Feature",
      "id": "toulouse-mange-bien-001",
      "geometry": {
        "type": "Point",
        "coordinates": [
          1.4297123999999999,
          43.5971383
        ]
      },
      "properties": {
        "name": "Basta",
        "category": "Restaurant",
        "icon": "🍽️",
        "address": "33 Rue Varsovie, 31300 Toulouse, France",
        "coord_source": "google_places_api",
        "coord_accuracy": "high",
        "hours": "lundi: Fermé; mardi: 12:00 – 14:00, 19:00 – 22:00; mercredi: 12:00 – 14:00, 19:00 – 22:00; jeudi: 12:00 – 14:00, 19:00 – 22:00; vendredi: 12:00 – 14:00, 19:00 – 22:00; samedi: 12:00 – 14:00, 19:00 – 22:00; dimanche: Fermé",
        "phone": "06 50 17 19 48",
        "url": "https://www.instagram.com/bastapizze"
      }
    },
    {
      "type": "Feature",
      "id": "toulouse-mange-bien-002",
      "geometry": {
        "type": "Point",
        "coordinates": [
          1.431846,
          43.598321
        ]
      },
      "properties": {
        "name": "Bistrot 12",
        "category": "Restaurant",
        "icon": "🍽️",
        "address": "12 Pl. Intérieure Saint-Cyprien, 31300 Toulouse, France",
        "coord_source": "google_places_api",
        "coord_accuracy": "high",
        "hours": "lundi: 08:30 – 02:00; mardi: 08:30 – 02:00; mercredi: 08:30 – 02:00; jeudi: 08:30 – 02:00; vendredi: 08:30 – 02:00; samedi: 09:30 – 03:00; dimanche: 09:30 – 02:00",
        "phone": "05 31 22 74 35",
        "url": "https://www.instagram.com/bistrot12/"
      }
    },
    {
      "type": "Feature",
      "id": "toulouse-mange-bien-003",
      "geometry": {
        "type": "Point",
        "coordinates": [
          1.4542275,
          43.606015199999995
        ]
      },
      "properties": {
        "name": "Bistrot August",
        "category": "Restaurant",
        "icon": "🍽️",
        "address": "62 Rue Pierre-Paul Riquet, 31000 Toulouse, France",
        "coord_source": "google_places_api",
        "coord_accuracy": "high",
        "hours": "lundi: Fermé; mardi: Fermé; mercredi: 12:00 – 14:00, 19:00 – 22:00; jeudi: 12:00 – 14:00, 19:00 – 22:00; vendredi: 12:00 – 14:00, 19:00 – 22:00; samedi: 12:00 – 14:00, 19:00 – 22:30; dimanche: 12:00 – 15:00",
        "phone": "07 56 44 12 41",
        "url": "https://www.instagram.com/bistrot.august/"
      }
    },
    {
      "type": "Feature",
      "id": "toulouse-mange-bien-004",
      "geometry": {
        "type": "Point",
        "coordinates": [
          1.4386932,
          43.611018099999995
        ]
      },
      "properties": {
        "name": "Boucherie Gras",
        "category": "Boucherie",
        "icon": "🥩",
        "address": "7 Pl. Arnaud Bernard, 31000 Toulouse, France",
        "coord_source": "google_places_api",
        "coord_accuracy": "high",
        "hours": "lundi: Fermé; mardi: 10:00 – 13:00, 15:00 – 19:30; mercredi: 10:00 – 13:00, 15:00 – 23:30; jeudi: 10:00 – 13:00, 15:00 – 23:30; vendredi: 10:00 – 13:00, 15:00 – 23:30; samedi: 09:30 – 23:30; dimanche: Fermé",
        "phone": "05 32 58 05 49",
        "url": "https://www.boucheriegras.com/"
      }
    },
    {
      "type": "Feature",
      "id": "toulouse-mange-bien-005",
      "geometry": {
        "type": "Point",
        "coordinates": [
          1.4458666,
          43.5953248
        ]
      },
      "properties": {
        "name": "Boulangerie Maurice",
        "category": "Boulangerie",
        "icon": "🥐",
        "address": "8 Gd Rue Nazareth, 31000 Toulouse, France",
        "coord_source": "google_places_api",
        "coord_accuracy": "high",
        "hours": "lundi: Fermé; mardi: 10:30 – 13:00, 14:30 – 19:00; mercredi: 10:30 – 13:00, 14:30 – 19:00; jeudi: 10:30 – 13:00, 15:00 – 19:00; vendredi: 10:30 – 13:00, 14:30 – 19:00; samedi: Fermé; dimanche: Fermé",
        "url": "https://boulangeriemaurice.com/"
      }
    },
    {
      "type": "Feature",
      "id": "toulouse-mange-bien-006",
      "geometry": {
        "type": "Point",
        "coordinates": [
          1.4304466,
          43.5973861
        ]
      },
      "properties": {
        "name": "Café Manine",
        "category": "Café",
        "icon": "☕",
        "address": "17 Pl. Roguet, 31300 Toulouse, France",
        "coord_source": "google_places_api",
        "coord_accuracy": "high",
        "hours": "lundi: 09:00 – 01:30; mardi: 09:00 – 01:30; mercredi: 09:00 – 01:30; jeudi: 09:00 – 01:30; vendredi: 09:00 – 01:30; samedi: 09:00 – 02:30; dimanche: 09:00 – 01:30",
        "phone": "09 52 48 94 08",
        "url": "https://www.cafemanine.fr/"
      }
    },
    {
      "type": "Feature",
      "id": "toulouse-mange-bien-007",
      "geometry": {
        "type": "Point",
        "coordinates": [
          1.4468279,
          43.6050804
        ]
      },
      "properties": {
        "name": "Copola",
        "category": "Restaurant",
        "icon": "🍽️",
        "address": "13 Pl. du Président Thomas Wilson, 31000 Toulouse, France",
        "coord_source": "google_places_api",
        "coord_accuracy": "high",
        "hours": "lundi: 12:00 – 14:30, 19:00 – 22:00; mardi: 12:00 – 14:30, 19:00 – 22:00; mercredi: 12:00 – 14:30, 19:00 – 22:00; jeudi: 12:00 – 14:30, 19:00 – 22:00; vendredi: 12:00 – 14:30, 19:00 – 22:00; samedi: 12:00 – 14:30, 19:00 – 22:00; dimanche: 12:00 – 14:30, 19:00 – 22:00",
        "phone": "05 61 21 08 27",
        "url": "https://www.capoul.fr/fr/"
      }
    },
    {
      "type": "Feature",
      "id": "toulouse-mange-bien-008",
      "geometry": {
        "type": "Point",
        "coordinates": [
          1.4491893999999998,
          43.6079607
        ]
      },
      "properties": {
        "name": "Des Sens Pâtisserie",
        "category": "Pâtisserie",
        "icon": "🧁",
        "address": "24 Rue Denfert Rochereau, 31000 Toulouse, France",
        "coord_source": "google_places_api",
        "coord_accuracy": "high",
        "hours": "lundi: Fermé; mardi: 14:00 – 18:30; mercredi: 12:00 – 18:00; jeudi: 12:00 – 18:00; vendredi: 12:00 – 18:00; samedi: 10:00 – 17:30; dimanche: 10:00 – 12:30",
        "phone": "05 62 30 04 56"
      }
    },
    {
      "type": "Feature",
      "id": "toulouse-mange-bien-009",
      "geometry": {
        "type": "Point",
        "coordinates": [
          1.4338583999999999,
          43.6041543
        ]
      },
      "properties": {
        "name": "Grave",
        "category": "Restaurant",
        "icon": "🍽️",
        "address": "1 All. de Brienne, 31000 Toulouse, France",
        "coord_source": "google_places_api",
        "coord_accuracy": "high",
        "hours": "lundi: 09:00 – 02:00; mardi: 09:00 – 02:00; mercredi: 09:00 – 02:00; jeudi: 09:00 – 02:00; vendredi: 09:00 – 02:00; samedi: 15:00 – 02:00; dimanche: 15:00 – 02:00",
        "phone": "05 62 84 20 47",
        "url": "https://reservation.laddition.com/booking/grave?utm_source=ig&utm_medium=social&utm_content=link_in_bio#/date"
      }
    },
    {
      "type": "Feature",
      "id": "toulouse-mange-bien-010",
      "geometry": {
        "type": "Point",
        "coordinates": [
          1.442672,
          43.598653000000006
        ]
      },
      "properties": {
        "name": "Kodomo",
        "category": "Restaurant",
        "icon": "🍽️",
        "address": "19 Rue des Paradoux, 31000 Toulouse, France",
        "coord_source": "google_places_api",
        "coord_accuracy": "high",
        "hours": "lundi: Fermé; mardi: Fermé; mercredi: 19:00 – 02:00; jeudi: 19:00 – 02:00; vendredi: 19:00 – 02:00; samedi: 19:00 – 02:00; dimanche: Fermé",
        "url": "https://www.instagram.com/kodomo_bar"
      }
    },
    {
      "type": "Feature",
      "id": "toulouse-mange-bien-011",
      "geometry": {
        "type": "Point",
        "coordinates": [
          1.4438749000000002,
          43.5949466
        ]
      },
      "properties": {
        "name": "Kopi Coffee Shop",
        "category": "Café",
        "icon": "☕",
        "address": "20 Pl. du Salin, 31000 Toulouse, France",
        "coord_source": "google_places_api",
        "coord_accuracy": "high",
        "hours": "lundi: Fermé; mardi: 08:00 – 18:00; mercredi: 08:00 – 18:00; jeudi: 08:00 – 18:00; vendredi: 08:00 – 18:00; samedi: 08:00 – 18:00; dimanche: Fermé",
        "phone": "05 34 41 12 18",
        "url": "https://kopicoffeeshop.com/"
      }
    },
    {
      "type": "Feature",
      "id": "toulouse-mange-bien-012",
      "geometry": {
        "type": "Point",
        "coordinates": [
          1.4445199,
          43.5976484
        ]
      },
      "properties": {
        "name": "L'Arpète",
        "category": "Restaurant",
        "icon": "🍽️",
        "address": "1 Pl. des Carmes, 31000 Toulouse, France",
        "coord_source": "google_places_api",
        "coord_accuracy": "high",
        "hours": "lundi: Fermé; mardi: Fermé; mercredi: 10:00 – 14:00, 19:30 – 21:30; jeudi: 10:00 – 14:00, 19:30 – 21:30; vendredi: 10:00 – 14:00, 19:30 – 21:30; samedi: 10:00 – 14:30, 19:30 – 21:30; dimanche: 10:00 – 14:00",
        "phone": "05 61 14 10 07",
        "url": "http://www.larpete.fr/"
      }
    },
    {
      "type": "Feature",
      "id": "toulouse-mange-bien-013",
      "geometry": {
        "type": "Point",
        "coordinates": [
          1.4452022,
          43.594898699999995
        ]
      },
      "properties": {
        "name": "L'Heure du Singe",
        "category": "Restaurant",
        "icon": "🍽️",
        "address": "4 Rue du Languedoc, 31000 Toulouse, France",
        "coord_source": "google_places_api",
        "coord_accuracy": "high",
        "hours": "lundi: 12:00 – 14:00, 18:00 – 02:00; mardi: 12:00 – 14:00, 18:00 – 00:00; mercredi: 12:00 – 14:00, 18:00 – 00:00; jeudi: 12:00 – 14:00, 18:00 – 01:00; vendredi: 12:00 – 14:00, 18:00 – 02:00; samedi: 19:00 – 03:00; dimanche: Fermé",
        "phone": "09 74 64 17 89",
        "url": "http://www.heuredusinge.com/"
      }
    },
    {
      "type": "Feature",
      "id": "toulouse-mange-bien-014",
      "geometry": {
        "type": "Point",
        "coordinates": [
          1.450871,
          43.6113978
        ]
      },
      "properties": {
        "name": "L'Octave",
        "category": "Restaurant",
        "icon": "🍽️",
        "address": "11 Rue Agathoise, 31000 Toulouse, France",
        "coord_source": "google_places_api",
        "coord_accuracy": "high",
        "hours": "lundi: 12:00 – 14:00, 19:30 – 23:00; mardi: 12:00 – 14:00, 19:30 – 23:00; mercredi: 19:30 – 23:00; jeudi: 12:00 – 14:00, 19:30 – 23:00; vendredi: 12:00 – 14:00, 19:30 – 23:00; samedi: Fermé; dimanche: Fermé",
        "phone": "06 27 09 01 13",
        "url": "https://www.instagram.com/loctave0011/"
      }
    },
    {
      "type": "Feature",
      "id": "toulouse-mange-bien-015",
      "geometry": {
        "type": "Point",
        "coordinates": [
          1.4436995,
          43.5972059
        ]
      },
      "properties": {
        "name": "Le Coq en Pâte",
        "category": "Restaurant",
        "icon": "🍽️",
        "address": "6 Rue des Prêtres, 31000 Toulouse, France",
        "coord_source": "google_places_api",
        "coord_accuracy": "high",
        "hours": "lundi: 12:00 – 13:15, 19:30 – 21:15; mardi: 12:00 – 13:15, 19:30 – 21:15; mercredi: 12:00 – 13:15, 19:30 – 21:15; jeudi: 12:00 – 13:15, 19:30 – 21:15; vendredi: 12:00 – 13:15, 19:30 – 21:15; samedi: Fermé; dimanche: Fermé",
        "phone": "05 32 02 43 39",
        "url": "https://lecoqenpate-restaurant.fr/"
      }
    },
    {
      "type": "Feature",
      "id": "toulouse-mange-bien-016",
      "geometry": {
        "type": "Point",
        "coordinates": [
          1.4406896,
          43.600591099999995
        ]
      },
      "properties": {
        "name": "Le Détaillant",
        "category": "Restaurant",
        "icon": "🍽️",
        "address": "17 Rue Peyrolières, 31000 Toulouse, France",
        "coord_source": "google_places_api",
        "coord_accuracy": "high",
        "hours": "lundi: 11:00 – 16:00; mardi: 11:00 – 16:00; mercredi: 11:00 – 16:00; jeudi: 11:00 – 16:00; vendredi: 11:00 – 16:00; samedi: 11:00 – 16:00; dimanche: Fermé",
        "phone": "06 12 05 39 65",
        "url": "http://www.le-detaillant.fr/"
      }
    },
    {
      "type": "Feature",
      "id": "toulouse-mange-bien-017",
      "geometry": {
        "type": "Point",
        "coordinates": [
          1.4530882,
          43.605663
        ]
      },
      "properties": {
        "name": "Le Rocher de la Vierge",
        "category": "Restaurant",
        "icon": "🍽️",
        "address": "4 Pl. de Damloup, 31000 Toulouse, France",
        "coord_source": "google_places_api",
        "coord_accuracy": "high",
        "hours": "lundi: Fermé; mardi: 12:00 – 14:15, 19:45 – 22:00; mercredi: 12:00 – 14:15, 19:45 – 22:00; jeudi: 12:00 – 14:15, 19:45 – 22:00; vendredi: 12:00 – 14:15, 19:45 – 22:00; samedi: 09:00 – 14:15, 19:45 – 22:00; dimanche: Fermé",
        "phone": "05 34 30 80 38"
      }
    },
    {
      "type": "Feature",
      "id": "toulouse-mange-bien-018",
      "geometry": {
        "type": "Point",
        "coordinates": [
          1.4428333,
          43.598721399999995
        ]
      },
      "properties": {
        "name": "Les Impulsifs",
        "category": "Restaurant",
        "icon": "🍽️",
        "address": "14 Rue des Paradoux, 31000 Toulouse, France",
        "coord_source": "google_places_api",
        "coord_accuracy": "high",
        "hours": "lundi: 12:00 – 14:00, 19:30 – 21:45; mardi: 12:00 – 14:00, 19:30 – 21:45; mercredi: 12:00 – 14:00; jeudi: 12:00 – 14:00, 19:30 – 21:45; vendredi: 12:00 – 14:00, 19:30 – 21:45; samedi: Fermé; dimanche: Fermé",
        "phone": "09 87 37 74 92",
        "url": "http://les-impulsifs.fr/"
      }
    },
    {
      "type": "Feature",
      "id": "toulouse-mange-bien-019",
      "geometry": {
        "type": "Point",
        "coordinates": [
          1.4300491000000002,
          43.6061007
        ]
      },
      "properties": {
        "name": "Les Passionnés",
        "category": "Restaurant",
        "icon": "🍽️",
        "address": "31 Bis All. de Brienne, 31000 Toulouse, France",
        "coord_source": "google_places_api",
        "coord_accuracy": "high",
        "hours": "lundi: Fermé; mardi: 12:00 – 14:00, 19:30 – 22:00; mercredi: 12:00 – 14:00, 19:30 – 22:00; jeudi: 12:00 – 14:00, 19:30 – 22:00; vendredi: 12:00 – 14:00, 19:30 – 22:00; samedi: 12:00 – 14:00, 19:30 – 22:00; dimanche: 12:00 – 14:00, 19:30 – 22:00",
        "phone": "07 65 25 47 56",
        "url": "https://www.lespassionnes-restaurant.fr/"
      }
    },
    {
      "type": "Feature",
      "id": "toulouse-mange-bien-020",
      "geometry": {
        "type": "Point",
        "coordinates": [
          1.4435976,
          43.5947813
        ]
      },
      "properties": {
        "name": "Les Têtes d'Ail",
        "category": "Restaurant",
        "icon": "🍽️",
        "address": "6 Rue de la Fonderie, 31000 Toulouse, France",
        "coord_source": "google_places_api",
        "coord_accuracy": "high",
        "hours": "lundi: Fermé; mardi: 12:00 – 13:30, 20:00 – 21:30; mercredi: 12:00 – 13:30, 20:00 – 21:30; jeudi: 12:00 – 13:30, 20:00 – 21:30; vendredi: 12:00 – 13:30, 20:00 – 21:30; samedi: 20:00 – 21:30; dimanche: Fermé",
        "phone": "05 61 13 40 41",
        "url": "https://www.instagram.com/lestetesdail?igsh=MTNleG9scXp3ZnBqeA%3D%3D&utm_source=qr"
      }
    },
    {
      "type": "Feature",
      "id": "toulouse-mange-bien-021",
      "geometry": {
        "type": "Point",
        "coordinates": [
          1.4567184,
          43.6066824
        ]
      },
      "properties": {
        "name": "Les Tilleuls",
        "category": "Restaurant",
        "icon": "🍽️",
        "address": "34 Avenue du Cimetière, 31500 Toulouse, France",
        "coord_source": "google_places_api",
        "coord_accuracy": "high",
        "hours": "lundi: 08:00 – 02:00; mardi: 08:00 – 02:00; mercredi: 08:00 – 02:00; jeudi: 08:00 – 02:00; vendredi: 08:00 – 02:00; samedi: 09:00 – 03:00; dimanche: 09:00 – 02:00",
        "phone": "05 61 52 44 30",
        "url": "https://www.instagram.com/lestilleuls_toulouse/"
      }
    },
    {
      "type": "Feature",
      "id": "toulouse-mange-bien-022",
      "geometry": {
        "type": "Point",
        "coordinates": [
          1.4376738999999998,
          43.602629799999995
        ]
      },
      "properties": {
        "name": "Mado",
        "category": "Restaurant",
        "icon": "🍽️",
        "address": "22 Rue des Blanchers, 31000 Toulouse, France",
        "coord_source": "google_places_api",
        "coord_accuracy": "high",
        "hours": "lundi: 12:00 – 14:00, 19:45 – 22:00; mardi: 12:00 – 14:00, 19:45 – 22:00; mercredi: 12:00 – 14:00, 19:45 – 22:00; jeudi: 12:00 – 14:00, 19:45 – 22:00; vendredi: 12:00 – 14:30, 19:45 – 22:00; samedi: 12:00 – 14:30, 19:45 – 22:00; dimanche: 12:00 – 14:00, 19:45 – 22:00",
        "phone": "06 14 62 04 47",
        "url": "https://restaurantmado.fr/"
      }
    },
    {
      "type": "Feature",
      "id": "toulouse-mange-bien-023",
      "geometry": {
        "type": "Point",
        "coordinates": [
          1.4545679999999999,
          43.6174271
        ]
      },
      "properties": {
        "name": "Mère Grand",
        "category": "Restaurant",
        "icon": "🍽️",
        "address": "23 Rue du Faubourg Bonnefoy, 31500 Toulouse, France",
        "coord_source": "google_places_api",
        "coord_accuracy": "high",
        "hours": "lundi: 11:30 – 14:15; mardi: 11:00 – 15:00, 18:00 – 23:00; mercredi: 11:00 – 15:00, 18:00 – 23:00; jeudi: 11:00 – 15:00, 18:00 – 23:00; vendredi: 11:00 – 15:00, 18:00 – 23:00; samedi: Fermé; dimanche: Fermé",
        "phone": "05 81 60 11 27",
        "url": "https://www.mere-grand-restaurant-toulouse.fr/"
      }
    },
    {
      "type": "Feature",
      "id": "toulouse-mange-bien-024",
      "geometry": {
        "type": "Point",
        "coordinates": [
          1.4545633999999998,
          43.6169728
        ]
      },
      "properties": {
        "name": "Minifundi",
        "category": "Restaurant",
        "icon": "🍽️",
        "address": "22 Rue du Faubourg Bonnefoy, 31500 Toulouse, France",
        "coord_source": "google_places_api",
        "coord_accuracy": "high",
        "hours": "lundi: 07:30 – 16:30; mardi: 07:30 – 16:30; mercredi: 07:30 – 16:30; jeudi: 07:30 – 16:30; vendredi: 07:30 – 16:30; samedi: 09:00 – 17:00; dimanche: 09:00 – 17:00",
        "phone": "06 34 15 39 37",
        "url": "https://minifundi.coffee/"
      }
    },
    {
      "type": "Feature",
      "id": "toulouse-mange-bien-025",
      "geometry": {
        "type": "Point",
        "coordinates": [
          1.4330539,
          43.5999135
        ]
      },
      "properties": {
        "name": "Odom",
        "category": "Restaurant",
        "icon": "🍽️",
        "address": "26 Rue du Pont Saint-Pierre, 31300 Toulouse, France",
        "coord_source": "google_places_api",
        "coord_accuracy": "high",
        "hours": "lundi: Fermé; mardi: Fermé; mercredi: 12:00 – 14:00, 19:00 – 21:30; jeudi: 12:00 – 14:00, 19:00 – 21:30; vendredi: 12:00 – 14:00, 19:00 – 21:30; samedi: 12:00 – 14:00, 19:00 – 21:30; dimanche: 12:00 – 14:00, 19:00 – 21:30",
        "phone": "05 34 59 38 22",
        "url": "http://odomtoulouse.com/"
      }
    },
    {
      "type": "Feature",
      "id": "toulouse-mange-bien-026",
      "geometry": {
        "type": "Point",
        "coordinates": [
          1.4326678,
          43.599101499999996
        ]
      },
      "properties": {
        "name": "Papi",
        "category": "Restaurant",
        "icon": "🍽️",
        "address": "9 Rue du Pont Saint-Pierre, 31300 Toulouse, France",
        "coord_source": "google_places_api",
        "coord_accuracy": "high",
        "hours": "lundi: 19:30 – 21:30; mardi: 12:00 – 14:00, 19:30 – 21:30; mercredi: 12:00 – 14:00, 19:30 – 21:30; jeudi: 12:00 – 14:00, 19:30 – 21:30; vendredi: 12:00 – 14:00, 19:30 – 21:30; samedi: Fermé; dimanche: Fermé",
        "phone": "05 62 86 46 02",
        "url": "https://www.instagram.com/papi_tlse/"
      }
    },
    {
      "type": "Feature",
      "id": "toulouse-mange-bien-027",
      "geometry": {
        "type": "Point",
        "coordinates": [
          1.4329953,
          43.5989025
        ]
      },
      "properties": {
        "name": "Pizza Doh",
        "category": "Pizzeria",
        "icon": "🍕",
        "address": "4 Pl. de l'Estrapade, 31300 Toulouse, France",
        "coord_source": "google_places_api",
        "coord_accuracy": "high",
        "hours": "lundi: Fermé; mardi: Fermé; mercredi: 19:00 – 22:00; jeudi: 12:00 – 14:00, 19:00 – 22:00; vendredi: 12:00 – 14:00, 19:00 – 22:00; samedi: 12:00 – 14:00, 19:00 – 22:00; dimanche: 12:00 – 14:00, 19:00 – 22:00",
        "url": "https://www.pizzadoh.fr/"
      }
    },
    {
      "type": "Feature",
      "id": "toulouse-mange-bien-028",
      "geometry": {
        "type": "Point",
        "coordinates": [
          1.4538646,
          43.6061633
        ]
      },
      "properties": {
        "name": "Pompette",
        "category": "Restaurant",
        "icon": "🍽️",
        "address": "27 Rue Gabriel Péri, 31000 Toulouse, France",
        "coord_source": "google_places_api",
        "coord_accuracy": "high",
        "hours": "lundi: Fermé; mardi: 17:00 – 00:00; mercredi: 17:00 – 00:00; jeudi: 17:00 – 02:00; vendredi: 17:00 – 02:00; samedi: 17:00 – 03:00; dimanche: Fermé",
        "phone": "09 72 73 28 76"
      }
    },
    {
      "type": "Feature",
      "id": "toulouse-mange-bien-029",
      "geometry": {
        "type": "Point",
        "coordinates": [
          1.4378247,
          43.611562199999995
        ]
      },
      "properties": {
        "name": "Ramones",
        "category": "Restaurant",
        "icon": "🍽️",
        "address": "2 Bd Lascrosses, 31000 Toulouse, France",
        "coord_source": "google_places_api",
        "coord_accuracy": "high",
        "hours": "lundi: 09:30 – 02:00; mardi: 09:30 – 02:00; mercredi: 09:30 – 02:00; jeudi: 09:30 – 02:00; vendredi: 09:30 – 02:00; samedi: 15:00 – 03:00; dimanche: 15:00 – 02:00",
        "phone": "05 32 53 68 57",
        "url": "https://www.momone-toulouse.fr/"
      }
    },
    {
      "type": "Feature",
      "id": "toulouse-mange-bien-030",
      "geometry": {
        "type": "Point",
        "coordinates": [
          1.4493072,
          43.6093683
        ]
      },
      "properties": {
        "name": "Soulan",
        "category": "Restaurant",
        "icon": "🍽️",
        "address": "2 Pl. Robert Schuman, 31000 Toulouse, France",
        "coord_source": "google_places_api",
        "coord_accuracy": "high",
        "hours": "lundi: 17:30 – 23:00; mardi: 17:30 – 23:00; mercredi: 17:30 – 23:00; jeudi: 10:30 – 13:00, 17:30 – 23:00; vendredi: 10:30 – 13:00, 17:30 – 23:00; samedi: Fermé; dimanche: Fermé",
        "phone": "05 61 75 20 78",
        "url": "https://www.instagram.com/soulan.toulouse/"
      }
    },
    {
      "type": "Feature",
      "id": "toulouse-mange-bien-031",
      "geometry": {
        "type": "Point",
        "coordinates": [
          1.4329177,
          43.6095153
        ]
      },
      "properties": {
        "name": "Spicchizzi",
        "category": "Restaurant",
        "icon": "🍽️",
        "address": "43 Bd Lascrosses, 31000 Toulouse, France",
        "coord_source": "google_places_api",
        "coord_accuracy": "high",
        "hours": "lundi: 11:00 – 23:00; mardi: 11:00 – 23:00; mercredi: 11:00 – 23:00; jeudi: 11:00 – 00:00; vendredi: 11:00 – 00:00; samedi: 11:00 – 00:00; dimanche: 17:00 – 23:00",
        "phone": "09 74 64 05 93",
        "url": "http://www.spritzza.fr/"
      }
    },
    {
      "type": "Feature",
      "id": "toulouse-mange-bien-032",
      "geometry": {
        "type": "Point",
        "coordinates": [
          1.4328422,
          43.5990143
        ]
      },
      "properties": {
        "name": "Superette",
        "category": "Restaurant",
        "icon": "🍽️",
        "address": "7 Pl. de l'Estrapade, 31300 Toulouse, France",
        "coord_source": "google_places_api",
        "coord_accuracy": "high",
        "hours": "lundi: 12:00 – 14:30, 19:00 – 22:30; mardi: 12:00 – 14:30, 19:00 – 22:30; mercredi: 12:00 – 14:30, 19:00 – 22:30; jeudi: 12:00 – 14:30, 19:00 – 22:30; vendredi: 12:00 – 14:00, 19:00 – 22:30; samedi: 12:00 – 14:30, 19:00 – 22:30; dimanche: 12:00 – 14:30, 19:00 – 22:30",
        "url": "http://www.superette-burger.com/"
      }
    },
    {
      "type": "Feature",
      "id": "toulouse-mange-bien-033",
      "geometry": {
        "type": "Point",
        "coordinates": [
          1.4510393,
          43.6091194
        ]
      },
      "properties": {
        "name": "Supernova",
        "category": "Restaurant",
        "icon": "🍽️",
        "address": "10 Rue Bertrand de Born, 31000 Toulouse, France",
        "coord_source": "google_places_api",
        "coord_accuracy": "high",
        "hours": "lundi: 12:00 – 18:00; mardi: 12:00 – 18:00; mercredi: 12:00 – 18:00; jeudi: 12:00 – 18:00; vendredi: 12:00 – 18:00; samedi: Fermé; dimanche: Fermé",
        "phone": "06 31 59 52 62",
        "url": "https://www.instagram.com/supernovanovanovanova?igsh=ZWN4aGlvbGlmeXdt"
      }
    },
    {
      "type": "Feature",
      "id": "toulouse-mange-bien-034",
      "geometry": {
        "type": "Point",
        "coordinates": [
          1.4281618999999999,
          43.5971596
        ]
      },
      "properties": {
        "name": "Toulouse Pasta Club",
        "category": "Restaurant",
        "icon": "🍽️",
        "address": "25 Av. Etienne Billières, 31300 Toulouse, France",
        "coord_source": "google_places_api",
        "coord_accuracy": "high",
        "url": "https://www.instagram.com/toulousepastaclub"
      }
    },
    {
      "type": "Feature",
      "id": "toulouse-mange-bien-035",
      "geometry": {
        "type": "Point",
        "coordinates": [
          1.4385185999999999,
          43.6020264
        ]
      },
      "properties": {
        "name": "Turbo Machine",
        "category": "Restaurant",
        "icon": "🍽️",
        "address": "3 Rue des Blanchers, 31000 Toulouse, France",
        "coord_source": "google_places_api",
        "coord_accuracy": "high",
        "hours": "lundi: 09:00 – 17:30; mardi: Fermé; mercredi: Fermé; jeudi: 09:00 – 17:30; vendredi: 09:00 – 17:30; samedi: 09:00 – 17:30; dimanche: 09:00 – 16:30",
        "phone": "05 32 59 73 72",
        "url": "https://www.instagram.com/turbomachinecafe/"
      }
    }
  ]
}