{"type":"FeatureCollection","features":[{"type":"Feature","id":"toulouse-distorama-le-ravelin","geometry":{"type":"Point","coordinates":[1.4282089,43.599082]},"properties":{"name":"Le Ravelin","category":"Concert Bar","icon":"fa-music","address":"6 place du Ravelin 31300 Toulouse","logo":"le_ravelin.png","events":[{"date":"2025-12-12","time":"19h","price":"Prix Libre","desc":"LES RENTIERS (pk/rap hxc) + TOTO SADYK (rap hxc)","artist":"LES RENTIERS (pk/rap hxc) + TOTO SADYK","youtube_video_id":"T7sQ602k8oI","bandcamp_url":"https://lesrentiers.bandcamp.com/","bandcamp_embed_url":""}]}},{"type":"Feature","id":"toulouse-distorama-bistrot-ducoin","geometry":{"type":"Point","coordinates":[1.4559708,43.6090065]},"properties":{"name":"Bistrot Ducoin","category":"Concert Bar","icon":"fa-music","address":"40 rue du Général Jean Compans 31500 Toulouse","logo":"bistrot_ducoin.jpg","events":[{"date":"2025-12-12","time":"21h","price":"Prix Libre","desc":"SILLY WALK (pk)","artist":"SILLY WALK","youtube_video_id":"","bandcamp_url":"","bandcamp_embed_url":""}]}},{"type":"Feature","id":"toulouse-distorama-la-mecanique-des-fluides","geometry":{"type":"Point","coordinates":[1.4537749,43.6002765]},"properties":{"name":"La Mécanique des Fluides","category":"Concert Bar","icon":"fa-music","address":"1 rue Riquet 31000 Toulouse","logo":"","events":[{"date":"2025-12-12","time":"19h","price":"Prix Libre","desc":"A TERRE (pk hxc/Pays Basque) + BLOD (sludge/doom/Bdx)","artist":"A TERRE (pk hxc/Pays Basque) + BLOD","youtube_video_id":"","bandcamp_url":"","bandcamp_embed_url":""}]}},{"type":"Feature","id":"toulouse-distorama-the-petit-london","geometry":{"type":"Point","coordinates":[1.4538883,43.6008176]},"properties":{"name":"The Petit London","category":"Concert Bar","icon":"fa-music","address":"7 rue Pierre-Paul Riquet 31000 Toulouse","logo":"","events":[{"date":"2025-12-12","time":"22h","price":"Gratuit","desc":"KONSTROY (darkwave, ebm)","artist":"KONSTROY","youtube_video_id":"","bandcamp_url":"https://bandcamp.com/konstroy","bandcamp_embed_url":""}]}},{"type":"Feature","id":"toulouse-distorama-boudu-pont","geometry":{"type":"Point","coordinates":[1.4363272,43.5988936]},"properties":{"name":"Boudu pont","category":"Concert Bar","icon":"fa-music","address":"1 rue de la République 31300 Toulouse","logo":"","events":[{"date":"2025-12-12","time":"21h","price":"Gratuit","desc":"DJ SET, CHEMICAL DISTRICT (funky hip-hop, UK grg, d’n’b)","artist":"DJ SET, CHEMICAL DISTRICT","youtube_video_id":"","bandcamp_url":"","bandcamp_embed_url":""}]}}]}