{"type":"FeatureCollection","features":[{"type":"Feature","id":"toulouse-distorama-dalidaark","geometry":{"type":"Point","coordinates":[1.4318769,43.5988684]},"properties":{"name":"Dalidaark","category":"Concert Bar","icon":"fa-music","address":"39 rue Réclusane 31300 Toulouse","logo":"dalidaark.png","events":[{"date":"2025-10-27","time":"20h30","price":"Gratuit","desc":"VANTRE (noise-rk/math-rk) + NARCISSE NOUGAT (math-rk)","artist":"VANTRE (noise-rk/math-rk) + NARCISSE NOUGAT","youtube_video_id":"cpEcuQo8gn0","bandcamp_url":"","bandcamp_embed_url":""}]}}]}