{"type":"FeatureCollection","features":[{"type":"Feature","id":"toulouse-distorama-boudu-pont","geometry":{"type":"Point","coordinates":[1.4363272,43.5988936]},"properties":{"name":"Boudu pont","category":"Concert Bar","icon":"fa-music","address":"1 rue de la République 31300 Toulouse","logo":"","events":[{"date":"2025-12-31","time":"21h","price":"Gratuit","desc":"DJ Set \"AU BOUDU SOUND\" (bass music, reggae, drum 'n' bass)","artist":"DJ Set \"AU BOUDU SOUND\"","youtube_video_id":"","bandcamp_url":"","bandcamp_embed_url":""}]}}]}