{"type":"FeatureCollection","features":[{"type":"Feature","id":"toulouse-distorama-gloria","geometry":{"type":"Point","coordinates":[1.4439408,43.6014516]},"properties":{"name":"Gloria","category":"Concert Bar","icon":"fa-music","address":"4 rue Peyras 31000 Toulouse","logo":"","events":[{"date":"2025-10-17","time":"21h","price":"Gratuit","desc":"Blind Test","artist":"Blind Test","youtube_video_id":"","bandcamp_url":"","bandcamp_embed_url":""}]}},{"type":"Feature","id":"toulouse-distorama-boudu-pont","geometry":{"type":"Point","coordinates":[1.4363272,43.5988936]},"properties":{"name":"Boudu pont","category":"Concert Bar","icon":"fa-music","address":"1 rue de la République 31300 Toulouse","logo":"","events":[{"date":"2025-10-17","time":"","price":"21h- Gratuit","desc":"THE BIOLOGISTS + KAUTSA (reggae roots / uk dub / electro dub)","artist":"THE BIOLOGISTS + KAUTSA","youtube_video_id":"","bandcamp_url":"","bandcamp_embed_url":""}]}},{"type":"Feature","id":"toulouse-distorama-bistrot-ducoin","geometry":{"type":"Point","coordinates":[1.4559708,43.6090065]},"properties":{"name":"Bistrot Ducoin","category":"Concert Bar","icon":"fa-music","address":"40 rue du Général Jean Compans 31500 Toulouse","logo":"bistrot_ducoin.jpg","events":[{"date":"2025-10-17","time":"20h30","price":"Prix Libre","desc":"ALBACORE (pk noise)","artist":"ALBACORE","youtube_video_id":"bhhnWfzBDS0","bandcamp_url":"","bandcamp_embed_url":""}]}},{"type":"Feature","id":"toulouse-distorama-la-mecanique-des-fluides","geometry":{"type":"Point","coordinates":[1.4537749,43.6002765]},"properties":{"name":"La Mécanique des Fluides","category":"Concert Bar","icon":"fa-music","address":"1 rue Riquet 31000 Toulouse","logo":"","events":[{"date":"2025-10-17","time":"20h","price":"5/7€","desc":"GRAVE KULT (evil speed metal pk/Nantes) + LISIEUX (dark fk)","artist":"GRAVE KULT (evil speed metal pk/Nantes) + LISIEUX","youtube_video_id":"","bandcamp_url":"","bandcamp_embed_url":""}]}},{"type":"Feature","id":"toulouse-distorama-le-ravelin","geometry":{"type":"Point","coordinates":[1.4282089,43.599082]},"properties":{"name":"Le Ravelin","category":"Concert Bar","icon":"fa-music","address":"6 place du Ravelin 31300 Toulouse","logo":"le_ravelin.png","events":[{"date":"2025-10-17","time":"19h30","price":"8€","desc":"XYZ (IAN SVENONIUS + MEMPHIS ELECTRONIC) + DESTINATION LONELY (release party)","artist":"XYZ (IAN SVENONIUS + MEMPHIS ELECTRONIC) + DESTINATION LONELY","youtube_video_id":"","bandcamp_url":"","bandcamp_embed_url":""}]}},{"type":"Feature","id":"toulouse-distorama-little-o-clock","geometry":{"type":"Point","coordinates":[1.5208073,43.6444525]},"properties":{"name":"Little O'Clock","category":"Concert Bar","icon":"fa-music","address":"75 allée Jean Jaurès 31000 Toulouse","logo":"","events":[{"date":"2025-10-17","time":"20h30","price":"Gratuit","desc":"ANIIMA (modern metal) + WAY FOR NOTHING (post rk)","artist":"ANIIMA (modern metal) + WAY FOR NOTHING","youtube_video_id":"","bandcamp_url":"","bandcamp_embed_url":""}]}},{"type":"Feature","id":"toulouse-distorama-le-dada","geometry":{"type":"Point","coordinates":[1.4383337,43.6123398]},"properties":{"name":"Le Dada","category":"Concert Bar","icon":"fa-music","address":"27 avenue Honoré Serres 31000 Toulouse","logo":"","events":[{"date":"2025-10-17","time":"19h22","price":"3/5/7€","desc":"DEEP TRISKELL + UNTEL + BEAR BONES LAY LOW + JAZZOUX + DJ ANITA DYNAMITA","artist":"DEEP TRISKELL + UNTEL + BEAR BONES LAY LOW + JAZZOUX + DJ ANITA DYNAMITA","youtube_video_id":"","bandcamp_url":"","bandcamp_embed_url":""}]}}]}