{"type":"FeatureCollection","features":[{"type":"Feature","id":"toulouse-distorama-le-ravelin","geometry":{"type":"Point","coordinates":[1.4282089,43.599082]},"properties":{"name":"Le Ravelin","category":"Concert Bar","icon":"fa-music","address":"6 place du Ravelin 31300 Toulouse","logo":"le_ravelin.png","events":[{"date":"2025-10-30","time":"20h","price":"5€ suggérés","desc":"CATALOGUE (post pk revival) + BANKSTER","artist":"CATALOGUE (post pk revival) + BANKSTER","youtube_video_id":"","bandcamp_url":"","bandcamp_embed_url":""}]}},{"type":"Feature","id":"toulouse-distorama-bistrot-ducoin","geometry":{"type":"Point","coordinates":[1.4559708,43.6090065]},"properties":{"name":"Bistrot Ducoin","category":"Concert Bar","icon":"fa-music","address":"40 rue du Général Jean Compans 31500 Toulouse","logo":"bistrot_ducoin.jpg","events":[{"date":"2025-10-30","time":"19h30","price":"Prix Libre","desc":"Blues Au Coin Du Zinc","artist":"Blues Au Coin Du Zinc","youtube_video_id":"","bandcamp_url":"","bandcamp_embed_url":""}]}},{"type":"Feature","id":"toulouse-distorama-gloria","geometry":{"type":"Point","coordinates":[1.4439408,43.6014516]},"properties":{"name":"Gloria","category":"Concert Bar","icon":"fa-music","address":"4 rue Peyras 31000 Toulouse","logo":"","events":[{"date":"2025-10-30","time":"20h","price":"Prix Libre","desc":"MARC SENS","artist":"MARC SENS","youtube_video_id":"","bandcamp_url":"","bandcamp_embed_url":""}]}},{"type":"Feature","id":"toulouse-distorama-cacahuete","geometry":{"type":"Point","coordinates":[1.4328833,43.5987868]},"properties":{"name":"Cacahuète","category":"Concert Bar","icon":"fa-music","address":"21 place de l'Estrapade 31300 Toulouse","logo":"","events":[{"date":"2025-10-30","time":"20h","price":"Prix Libre","desc":"THE SOBERS - acoustic tour (pk rk)","artist":"THE SOBERS - acoustic tour","youtube_video_id":"","bandcamp_url":"","bandcamp_embed_url":""}]}}]}