{"type":"FeatureCollection","features":[{"type":"Feature","id":"toulouse-distorama-la-mecanique-des-fluides","geometry":{"type":"Point","coordinates":[1.4537749,43.6002765]},"properties":{"name":"La Mécanique des Fluides","category":"Concert Bar","icon":"🎵","address":"1 rue Riquet 31000 Toulouse","logo":"","events":[{"date":"2025-10-16","time":"20h","price":"Prix Libre","desc":"Live Machines par FABULATOR (hypnotic tek) + MLT (modular tek) + SBTP (tek house)","artist":"Live Machines par FABULATOR (hypnotic tek) + MLT (modular tek) + SBTP"}]}},{"type":"Feature","id":"toulouse-distorama-bistrot-ducoin","geometry":{"type":"Point","coordinates":[1.4559708,43.6090065]},"properties":{"name":"Bistrot Ducoin","category":"Concert Bar","icon":"🎵","address":"40 rue du Général Jean Compans 31500 Toulouse","logo":"bistrot_ducoin.jpg","events":[{"date":"2025-10-16","time":"19h30","price":"Prix Libre","desc":"SMUGGLERS (pk)","artist":"SMUGGLERS"}]}},{"type":"Feature","id":"toulouse-distorama-dalidaark","geometry":{"type":"Point","coordinates":[1.4318769,43.5988684]},"properties":{"name":"Dalidaark","category":"Concert Bar","icon":"🎵","address":"39 rue Réclusane 31300 Toulouse","logo":"dalidaark.png","events":[{"date":"2025-10-16","time":"20h","price":"Gratos","desc":"INCIRRINA (dark minimal synth duo/Athens)","artist":"INCIRRINA"}]}},{"type":"Feature","id":"toulouse-distorama-le-dada","geometry":{"type":"Point","coordinates":[1.4383337,43.6123398]},"properties":{"name":"Le Dada","category":"Concert Bar","icon":"🎵","address":"27 avenue Honoré Serres 31000 Toulouse","logo":"","events":[{"date":"2025-10-16","time":"20h","price":"7/10 €","desc":"SAD MADONA (synth cold wave) + ALICE KEAN (post pk/dark wave) + KONSTROY (dark wave DJ set)","artist":"SAD MADONA (synth cold wave) + ALICE KEAN (post pk/dark wave) + KONSTROY"}]}}]}