{"type":"FeatureCollection","features":[{"type":"Feature","id":"toulouse-distorama-le-ravelin","geometry":{"type":"Point","coordinates":[1.4282089,43.599082]},"properties":{"name":"Le Ravelin","category":"Concert Bar","icon":"fa-music","address":"6 place du Ravelin 31300 Toulouse","logo":"le_ravelin.png","events":[{"date":"2025-11-02","time":"20h","price":"5€ ou +","desc":"LEMONGRAB (post pk/Berlin) + SPACE BUCKET (electro art pk)","artist":"LEMONGRAB (post pk/Berlin) + SPACE BUCKET","youtube_video_id":"","bandcamp_url":"","bandcamp_embed_url":""}]}},{"type":"Feature","id":"toulouse-distorama-la-mecanique-des-fluides","geometry":{"type":"Point","coordinates":[1.4537647,43.6072494]},"properties":{"name":"La Mécanique des Fluides","category":"Concert Bar","icon":"fa-music","address":"1 rue Riquet 31000 Toulouse","logo":"","events":[{"date":"2025-11-02","time":"20h","price":"Prix Libre","desc":"NYOS (post rk/noise rk)","artist":"NYOS","youtube_video_id":"","bandcamp_url":"","bandcamp_embed_url":""}]}}]}