{"type":"FeatureCollection","features":[{"type":"Feature","id":"toulouse-distorama-bistrot-ducoin","geometry":{"type":"Point","coordinates":[1.4559708,43.6090065]},"properties":{"name":"Bistrot Ducoin","category":"Concert Bar","icon":"fa-music","address":"40 rue du Général Jean Compans 31500 Toulouse","logo":"bistrot_ducoin.jpg","events":[{"date":"2025-11-06","time":"19h30","price":"Prix Libre","desc":"ZÉBU (chansons francaises)","artist":"ZÉBU","youtube_video_id":"","bandcamp_url":"","bandcamp_embed_url":""}]}},{"type":"Feature","id":"toulouse-distorama-labo-des-arts","geometry":{"type":"Point","coordinates":[1.4652089,43.6055126]},"properties":{"name":"Labo Des Arts","category":"Concert Bar","icon":"fa-music","address":"8 rue Clément 31500 Toulouse","logo":"","events":[{"date":"2025-11-06","time":"19h30","price":"6,80€ à 7,80€","desc":"Release Party → NOVO SKELTER (post pk) + MONDO CANE (post rk)","artist":"Release Party → NOVO SKELTER (post pk) + MONDO CANE","youtube_video_id":"zpSmSHrwgCg","bandcamp_url":"https://mikepatton.bandcamp.com/album/mondo-cane","bandcamp_embed_url":""}]}}]}