{"type":"FeatureCollection","features":[{"type":"Feature","id":"toulouse-distorama-boudu-pont","geometry":{"type":"Point","coordinates":[1.4363272,43.5988936]},"properties":{"name":"Boudu pont","category":"Concert Bar","icon":"fa-music","address":"1 rue de la République 31300 Toulouse","logo":"","events":[{"date":"2025-10-11","time":"","price":"22h- Gratuit","desc":"BLIND TEST + BOOTISHAKE","artist":"BLIND TEST + BOOTISHAKE","youtube_video_id":"","bandcamp_url":"","bandcamp_embed_url":""}]}},{"type":"Feature","id":"toulouse-distorama-dalidaark","geometry":{"type":"Point","coordinates":[1.4318769,43.5988684]},"properties":{"name":"Dalidaark","category":"Concert Bar","icon":"fa-music","address":"39 rue Réclusane 31300 Toulouse","logo":"dalidaark.png","events":[{"date":"2025-10-11","time":"20h","price":"Gratuit","desc":"FAUNA NOVA (coldwave/kraut rk)","artist":"FAUNA NOVA","youtube_video_id":"","bandcamp_url":"","bandcamp_embed_url":""}]}},{"type":"Feature","id":"toulouse-distorama-le-ravelin","geometry":{"type":"Point","coordinates":[1.4282089,43.599082]},"properties":{"name":"Le Ravelin","category":"Concert Bar","icon":"fa-music","address":"6 place du Ravelin 31300 Toulouse","logo":"le_ravelin.png","events":[{"date":"2025-10-11","time":"20h","price":"5€","desc":"THE VACUUMS (rk psyche) + MINERVES (pop grg)","artist":"THE VACUUMS (rk psyche) + MINERVES","youtube_video_id":"","bandcamp_url":"","bandcamp_embed_url":""}]}},{"type":"Feature","id":"toulouse-distorama-la-mecanique-des-fluides","geometry":{"type":"Point","coordinates":[1.4537749,43.6002765]},"properties":{"name":"La Mécanique des Fluides","category":"Concert Bar","icon":"fa-music","address":"1 rue Riquet 31000 Toulouse","logo":"","events":[{"date":"2025-10-11","time":"20h","price":"Prix Libre","desc":"SOUL BREAKER (thrash old school) + SEVERED SOUL (death metal/Pamiers)","artist":"SOUL BREAKER (thrash old school) + SEVERED SOUL","youtube_video_id":"","bandcamp_url":"","bandcamp_embed_url":""}]}},{"type":"Feature","id":"toulouse-distorama-chapelle-des-carmelites","geometry":{"type":"Point","coordinates":[1.4432711,43.607489]},"properties":{"name":"Chapelle Des Carmélites","category":"Concert Bar","icon":"fa-music","address":"Chapelle Des Carmélites Toulouse","logo":"","events":[{"date":"2025-10-11","time":"19h","price":"10€/7€ solidaire","desc":"Spéciale ambient/expé → AGRAFUZZ + AO AMRITA + CCTEMPLE + INDIGOBLUE + ZELEZNA","artist":"Spéciale ambient/expé → AGRAFUZZ + AO AMRITA + CCTEMPLE + INDIGOBLUE + ZELEZNA","youtube_video_id":"","bandcamp_url":"","bandcamp_embed_url":""}]}},{"type":"Feature","id":"toulouse-distorama-axis-musique","geometry":{"type":"Point","coordinates":[1.3974931,43.5472325]},"properties":{"name":"Axis Music","category":"Concert Bar","icon":"fa-music","address":"7 impasse Boudeville 31100 Toulouse","logo":"","events":[{"date":"2025-10-11","time":"","price":"20h- Prix Libre","desc":"HØRD (electro darkwave) + MARK OF THE SPHINX (deathwave/death rk) + AUGUST ANGST (gothic dreamgaze)","artist":"HØRD (electro darkwave) + MARK OF THE SPHINX (deathwave/death rk) + AUGUST ANGST","youtube_video_id":"Hu8FDQ48gfs","bandcamp_url":"https://markofthesphinx.bandcamp.com/album/fracture","bandcamp_embed_url":""}]}},{"type":"Feature","id":"toulouse-distorama-le-cameleon","geometry":{"type":"Point","coordinates":[1.433005,43.599585]},"properties":{"name":"Le Caméléon","category":"Concert Bar","icon":"fa-music","address":"19 rue Pont Saint Pierre 31300 Toulouse","logo":"","events":[{"date":"2025-10-11","time":"20h","price":"??€","desc":"SEIJIRO MURAYAMA & DAVID EYGUESIER (duo improvisation)","artist":"SEIJIRO MURAYAMA & DAVID EYGUESIER","youtube_video_id":"","bandcamp_url":"","bandcamp_embed_url":""}]}}]}