{"type":"FeatureCollection","features":[{"type":"Feature","id":"toulouse-distorama-bistrot-ducoin","geometry":{"type":"Point","coordinates":[1.4559708,43.6090065]},"properties":{"name":"Bistrot Ducoin","category":"Concert Bar","icon":"fa-music","address":"40 rue du Général Jean Compans 31500 Toulouse","logo":"bistrot_ducoin.jpg","events":[{"date":"2025-12-18","time":"19h30","price":"Prix Libre","desc":"Blues Au Coin Du Zinc","artist":"Blues Au Coin Du Zinc"}]}},{"type":"Feature","id":"toulouse-distorama-le-ravelin","geometry":{"type":"Point","coordinates":[1.4282089,43.599082]},"properties":{"name":"Le Ravelin","category":"Concert Bar","icon":"fa-music","address":"6 place du Ravelin 31300 Toulouse","logo":"le_ravelin.png","events":[{"date":"2025-12-18","time":"","price":"Présentation 18h / Concerts 20h","desc":"Présentation Du Livre De Llcool Jo \"LE FUTUR A DE LA MÉMOIRE \" + MAGICIEN WINDOWS (synth & teaser) + JÉRÔME SAGE ( honte de la chanson française)","artist":"Présentation Du Livre De Llcool Jo \"LE FUTUR A DE LA MÉMOIRE \" + MAGICIEN WINDOWS (synth & teaser) + JÉRÔME SAGE"}]}},{"type":"Feature","id":"toulouse-distorama-dalidaark","geometry":{"type":"Point","coordinates":[1.4318769,43.5988684]},"properties":{"name":"Dalidaark","category":"Concert Bar","icon":"fa-music","address":"39 rue Réclusane 31300 Toulouse","logo":"dalidaark.png","events":[{"date":"2025-12-18","time":"20h","price":"Gratuit","desc":"LES SHAKIRAL (Chorale féministe)","artist":"LES SHAKIRAL"}]}},{"type":"Feature","id":"toulouse-distorama-le-dada","geometry":{"type":"Point","coordinates":[1.4383337,43.6123398]},"properties":{"name":"Le Dada","category":"Concert Bar","icon":"fa-music","address":"27 avenue Honoré Serres 31000 Toulouse","logo":"","events":[{"date":"2025-12-18","time":"20h","price":"5€","desc":"WILD WOMEN (haunted dance pk) + KAVALIERS KASQUES (naive coldwave)","artist":"WILD WOMEN (haunted dance pk) + KAVALIERS KASQUES"}]}}]}