{"type":"FeatureCollection","features":[{"type":"Feature","id":"toulouse-distorama-les-halles-de-la-cartoucherie","geometry":{"type":"Point","coordinates":[1.4073706,43.5997655]},"properties":{"name":"La Cabane","category":"Concert Bar","icon":"🎵","address":"La Cabane Toulouse","logo":"","events":[{"time":"","price":"11h- Gratuit","desc":"Festival SYNCHRO → Video Game Concert avec 1UP COLLECTIF (gameboy & machines)","artist":""},{"time":"20h","price":"Gratuit","desc":"Festival SYNCHRO → Ciné-Concert \"French Westerns\" avec SPACE BUCKET (electro pk)","artist":""}]}}]}