{"type":"FeatureCollection","features":[{"type":"Feature","id":"toulouse-distorama-radio-fmr","geometry":{"type":"Point","coordinates":[1.4487374,43.6153004]},"properties":{"name":"Radio FMR","category":"Radio","icon":"📻","address":"9 boulevard des Minimes 31200 Toulouse","logo":"radio_fmr.png","events":[{"time":"19h","price":"Gratuit","desc":"Vernissage de Shile","artist":""}]}},{"type":"Feature","id":"toulouse-distorama-bistrot-ducoin","geometry":{"type":"Point","coordinates":[1.4559708,43.6090065]},"properties":{"name":"Bistrot Ducoin","category":"Concert Bar","icon":"🎵","address":"40 rue du Général Jean Compans 31500 Toulouse","logo":"bistrot_ducoin.jpg","events":[{"time":"21h","price":"Prix Libre","desc":"JUST SMILE (festif)","artist":"JUST SMILE"}]}},{"type":"Feature","id":"toulouse-distorama-la-mecanique-des-fluides","geometry":{"type":"Point","coordinates":[1.4537749,43.6002765]},"properties":{"name":"La Mécanique des Fluides","category":"Concert Bar","icon":"🎵","address":"1 rue Riquet 31000 Toulouse","logo":"mecanique_des_fluides.png","events":[{"time":"20h","price":"Prix Libre","desc":"DEVOLUTION (black/death) + HADETH (death melodique)","artist":"DEVOLUTION (black/death) + HADETH"}]}},{"type":"Feature","id":"toulouse-distorama-boudu-pont","geometry":{"type":"Point","coordinates":[1.4363272,43.5988936]},"properties":{"name":"Boudu pont","category":"Concert Bar","icon":"🎵","address":"1 rue de la République 31300 Toulouse","logo":"","events":[{"time":"21h","price":"Gratuit","desc":"FUNAMBULE DUO (jazz soul pop)","artist":"FUNAMBULE DUO"}]}},{"type":"Feature","id":"toulouse-distorama-le-ravelin","geometry":{"type":"Point","coordinates":[1.4282089,43.599082]},"properties":{"name":"Le Ravelin","category":"Concert Bar","icon":"🎵","address":"6 place du Ravelin 31300 Toulouse","logo":"le_ravelin.png","events":[{"time":"20h","price":"Prix Libre","desc":"SPARTAK METHANOL (rk surf)","artist":"SPARTAK METHANOL"}]}},{"type":"Feature","id":"toulouse-distorama-the-petit-london","geometry":{"type":"Point","coordinates":[1.4538883,43.6008176]},"properties":{"name":"The Petit London","category":"Concert Bar","icon":"🎵","address":"7 rue Pierre-Paul Riquet 31000 Toulouse","logo":"","events":[{"time":"22h","price":"Gratuit","desc":"DJ KONSTROY (postpk darkwave ebm)","artist":"DJ KONSTROY"}]}}]}