{"type":"FeatureCollection","features":[{"type":"Feature","id":"toulouse-distorama-le-poinconneur","geometry":{"type":"Point","coordinates":[1.4544142,43.617283]},"properties":{"name":"Le Poinçonneur","category":"Concert Bar","icon":"fa-music","address":"19bis rue du Faubourg Bonnefoy 31500 Toulouse","logo":"","events":[{"date":"2025-11-24","time":"","price":"","desc":"Expo linos et eaux fortes etc par Delphine Klos (→ 8 déc)","artist":""}]}},{"type":"Feature","id":"toulouse-distorama-radio-fmr","geometry":{"type":"Point","coordinates":[1.4487374,43.6153004]},"properties":{"name":"Radio FMR","category":"Radio","icon":"fa-tower-broadcast","address":"9 boulevard des Minimes 31200 Toulouse","logo":"radio_fmr.png","events":[{"date":"2025-11-24","time":"20h","price":"Prix Libre","desc":"DON D'AS (indie rk /Rennes)","artist":"DON D'AS"}]}}]}