{"type":"FeatureCollection","features":[{"type":"Feature","id":"toulouse-distorama-bistrot-ducoin","geometry":{"type":"Point","coordinates":[1.4559708,43.6090065]},"properties":{"name":"Bistrot Ducoin","category":"Concert Bar","icon":"🎵","address":"40 rue du Général Jean Compans 31500 Toulouse","logo":"bistrot_ducoin.jpg","events":[{"date":"2025-09-04","time":"19h30","price":"Prix Libre","desc":"ZÈBRE (pop rk cover)","artist":"ZÈBRE"},{"date":"2025-09-05","time":"21h","price":"Prix Libre","desc":"KING KONG BLUES (rk'n'roll sauvage )","artist":"KING KONG BLUES"},{"date":"2025-09-11","time":"19h","price":"Prix Libre","desc":"WATKIN SHARKEY + MIKE CARLEY des têtes raides (folk)","artist":"WATKIN SHARKEY + MIKE CARLEY des têtes raides"},{"date":"2025-09-12","time":"19h","price":"Prix Libre","desc":"SOL ALEGRIA (musique cubaine) fête de quartier","artist":"SOL ALEGRIA (musique cubaine) fête de quartier"},{"date":"2025-09-16","time":"19h","price":"","desc":"Vernissage Fifigrot JO dessins comiques de l'actualité","artist":""},{"date":"2025-09-18","time":"20h30","price":"Prix Libre","desc":"GURU ANANAS (pop progressive)","artist":"GURU ANANAS"},{"date":"2025-09-25","time":"19h30","price":"Prix Libre","desc":"Blues au coin du Zinc","artist":"Blues au coin du Zinc"},{"date":"2025-09-26","time":"21h","price":"Prix Libre","desc":"RÔTI BONDAGE (pk)","artist":"RÔTI BONDAGE"}]}},{"type":"Feature","id":"toulouse-distorama-gloria","geometry":{"type":"Point","coordinates":[1.4439408,43.6014516]},"properties":{"name":"Gloria","category":"Concert Bar","icon":"🎵","address":"4 rue Peyras 31000 Toulouse","logo":"","events":[{"date":"2025-09-04","time":"19h30","price":"Prix Libre","desc":"Vernissage Expo « MAX DHUM » + BUSY PITCH & ARNAUD BEYNEY","artist":""},{"date":"2025-09-13","time":"19h30","price":"Gratuit","desc":"Gloria fête sa deuxième bougie ! Dj set, free food & drinks","artist":"Gloria fête sa deuxième bougie ! Dj set, free food & drinks"},{"date":"2025-09-19","time":"21h","price":"Gratuit","desc":"Blind Test Musical avec Julien","artist":"Blind Test Musical avec Julien"},{"date":"2025-09-25","time":"21h","price":"Gratuit","desc":"Quizz « Super héros » by Oncle Joe","artist":"Quizz « Super héros » by Oncle Joe"}]}},{"type":"Feature","id":"toulouse-distorama-le-cameleon","geometry":{"type":"Point","coordinates":[1.433005,43.599585]},"properties":{"name":"Le Caméléon","category":"Concert Bar","icon":"🎵","address":"19 rue Pont Saint Pierre 31300 Toulouse","logo":"","events":[{"date":"2025-09-04","time":"20h","price":"3/5/7€","desc":"Soirée de soutien à Mones Nehad et sa famille : ROBINE ARNAUD + ADA + DJSET JULIA HENDERSON + cantine vegan","artist":""}]}},{"type":"Feature","id":"toulouse-distorama-la-mecanique-des-fluides","geometry":{"type":"Point","coordinates":[1.4537749,43.6002765]},"properties":{"name":"La Mécanique des Fluides","category":"Concert Bar","icon":"🎵","address":"1 rue Riquet 31000 Toulouse","logo":"","events":[{"date":"2025-09-05","time":"19h30","price":"Prix Libre","desc":"CHECK POINT (turbo egg pk/Aus) + LAS GRIMAS (synth pk/Marseille)","artist":"CHECK POINT (turbo egg pk/Aus) + LAS GRIMAS"},{"date":"2025-09-09","time":"20h","price":"5/7€","desc":"OSSUARY (death metal/USA) + ASCENDING DIVERS (solo drone)","artist":"OSSUARY (death metal/USA) + ASCENDING DIVERS"},{"date":"2025-09-12","time":"20h","price":"5€+","desc":"LVZ SILENCIOZA (indus/Argentine) + FLORALIS (anarcho indus/UK)","artist":"LVZ SILENCIOZA (indus/Argentine) + FLORALIS"},{"date":"2025-09-13","time":"22h","price":"Gratuit","desc":"DJ Set CHIC TYPE CHOC et BELLADONNA","artist":"DJ Set CHIC TYPE CHOC et BELLADONNA"},{"date":"2025-09-26","time":"","price":"20h- Prix Libre","desc":"VANR (math rk) + CLEM (grg folk)","artist":"VANR (math rk) + CLEM"},{"date":"2025-09-29","time":"20h","price":"Prix Libre","desc":"DERRUMBE (hxc pk/Berlin) + YAPA (pk rk/Tls)","artist":"DERRUMBE (hxc pk/Berlin) + YAPA"}]}},{"type":"Feature","id":"toulouse-distorama-le-dada","geometry":{"type":"Point","coordinates":[1.4383337,43.6123398]},"properties":{"name":"Le Dada","category":"Concert Bar","icon":"🎵","address":"27 avenue Honoré Serres 31000 Toulouse","logo":"","events":[{"date":"2025-09-05","time":"21h","price":"5€","desc":"LAURA BOLT (live + guitare voix) + MARIE DEBACK (DJ set expérimental) + SUKKUBE (DJ set techno)","artist":"LAURA BOLT (live + guitare voix) + MARIE DEBACK (DJ set expérimental) + SUKKUBE"},{"date":"2025-09-11","time":"20h","price":"3/5/7€","desc":"TENDRESSE VIOLENCE (pk wave) + GUT BUGS (egg pk) + DJ LOUTRE RAGE (dark wave)","artist":"TENDRESSE VIOLENCE (pk wave) + GUT BUGS (egg pk) + DJ LOUTRE RAGE"},{"date":"2025-09-13","time":"19h","price":"5€","desc":"VINCIANE (modular techno) + 1KA (modular EBM) + DJ set","artist":"VINCIANE (modular techno) + 1KA (modular EBM) + DJ set"}]}},{"type":"Feature","id":"toulouse-distorama-boudu-pont","geometry":{"type":"Point","coordinates":[1.4363272,43.5988936]},"properties":{"name":"Boudu pont","category":"Concert Bar","icon":"🎵","address":"1 rue de la République 31300 Toulouse","logo":"","events":[{"date":"2025-09-06","time":"19h","price":"Prix Libre","desc":"Release party → SINCE","artist":"Release party → SINCE"},{"date":"2025-09-09","time":"20h30","price":"Prix Libre","desc":"Vernissage SHILE (live painting dj set)","artist":""},{"date":"2025-09-11","time":"20h30","price":"Prix Libre","desc":"LIGNE ROUGE (emo 90s - post-pk) + BY A DAMN SIGHT (rk indé/NZ) + NO DRAMA (indie pk)","artist":"LIGNE ROUGE (emo 90s - post-pk) + BY A DAMN SIGHT (rk indé/NZ) + NO DRAMA"},{"date":"2025-09-19","time":"20h30","price":"Prix Libre","desc":"Le Passage - Soirée d'ouverture (scène émergente hip hop)","artist":""},{"date":"2025-09-26","time":"20h30","price":"Prix Libre","desc":"GROOVE STEADY SOUND SYSTEM and guest soirée 'Over the Bridge' (reggae)","artist":""}]}},{"type":"Feature","id":"toulouse-distorama-axis-musique","geometry":{"type":"Point","coordinates":[1.3974931,43.5472325]},"properties":{"name":"Axis Music","category":"Concert Bar","icon":"🎵","address":"7 impasse Boudeville 31100 Toulouse","logo":"","events":[{"date":"2025-09-06","time":"20h","price":"8€","desc":"TALES OF BLOOD + OLDSKULL + DELIVER THE SUFFERING (death metal)","artist":"TALES OF BLOOD + OLDSKULL + DELIVER THE SUFFERING"}]}},{"type":"Feature","id":"toulouse-distorama-le-ravelin","geometry":{"type":"Point","coordinates":[1.4282089,43.599082]},"properties":{"name":"Le Ravelin","category":"Concert Bar","icon":"🎵","address":"6 place du Ravelin 31300 Toulouse","logo":"le_ravelin.png","events":[{"date":"2025-09-08","time":"20h","price":"5€","desc":"MICENBIERE (chansons pk/Lot) + SILLY WALK (power trio)","artist":"MICENBIERE (chansons pk/Lot) + SILLY WALK"},{"date":"2025-09-11","time":"19h30","price":"6€","desc":"THE SHAZZAMS (grg-rk-psych-pk-pop/UK+Can+Fr) + VAN RUIN (grg rk/Aus)","artist":"THE SHAZZAMS (grg-rk-psych-pk-pop/UK+Can+Fr) + VAN RUIN"},{"date":"2025-09-12","time":"20h","price":"5€","desc":"FWK (stoner) + LE BARON DE VINCÈSE (math rk exp)","artist":"FWK (stoner) + LE BARON DE VINCÈSE"},{"date":"2025-09-13","time":"20h","price":"Prix Libre","desc":"LUMPEN (hxc/Es) + UP RIGHT (hxc)","artist":"LUMPEN (hxc/Es) + UP RIGHT"},{"date":"2025-09-15","time":"19h","price":"Prix Libre","desc":"LES MANOS DE FILIPPI (pk engagé) + MAWRO (hip hip alternatif)","artist":"LES MANOS DE FILIPPI (pk engagé) + MAWRO"},{"date":"2025-09-19","time":"20h","price":"Prix Libre","desc":"MARELL (indir rk) + guest","artist":"MARELL (indir rk) + guest"},{"date":"2025-09-20","time":"19h30","price":"5€","desc":"Soirée CBGB → FANATIKS + DAMN IT + HOP HOP HOP (grg)","artist":""},{"date":"2025-09-26","time":"20h","price":"Prix Libre","desc":"REGLEMENT (synth pk) + MERRY CRISIS (indus)","artist":"REGLEMENT (synth pk) + MERRY CRISIS"},{"date":"2025-09-27","time":"20h","price":"5€","desc":"PSYCHOGARDEN + CHIHUAS OF DEPTHS (stoner/psyche)","artist":"PSYCHOGARDEN + CHIHUAS OF DEPTHS"}]}},{"type":"Feature","id":"toulouse-distorama-l-engrenage","geometry":{"type":"Point","coordinates":[1.4880684,43.6274411]},"properties":{"name":"L'Engrenage","category":"Concert Bar","icon":"🎵","address":"14 rue Louis Renault 31130 Balma","logo":"","events":[{"date":"2025-09-13","time":"19h","price":"15€","desc":"Soirée Drag’n’roll : RADICAL KITTEN (rrriot pk) + ALBACORE (pk) + Drags shows + DJset VICKY TRIX","artist":""}]}},{"type":"Feature","id":"toulouse-distorama-dalidaark","geometry":{"type":"Point","coordinates":[1.4318769,43.5988684]},"properties":{"name":"Dalidaark","category":"Concert Bar","icon":"🎵","address":"39 rue Réclusane 31300 Toulouse","logo":"dalidaark.png","events":[{"date":"2025-09-27","time":"20h","price":"Gratuit","desc":"LES REMPLAÇANTS (pk/Lyon) + GUT BUGS (egg pk)","artist":"LES REMPLAÇANTS (pk/Lyon) + GUT BUGS"}]}},{"type":"Feature","id":"toulouse-distorama-l-autan","geometry":{"type":"Point","coordinates":[1.43883,43.6117922]},"properties":{"name":"L'Autan","category":"Concert Bar","icon":"🎵","address":"58 boulevard d'Arcole 31000 Toulouse","logo":"","events":[{"date":"2025-09-27","time":"20h","price":"Prix Libre","desc":"IRON LUNGS (stoner pk) + FWK (prog stoner)","artist":"IRON LUNGS (stoner pk) + FWK"}]}}]}