{"type":"FeatureCollection","features":[{"type":"Feature","id":"toulouse-distorama-la-mecanique-des-fluides","geometry":{"type":"Point","coordinates":[1.4537749,43.6002765]},"properties":{"name":"La Mécanique des Fluides","category":"Concert Bar","icon":"🎵","address":"1 rue Riquet 31000 Toulouse","logo":"","events":[{"date":"2025-12-13","time":"21h","price":"Gratuit","desc":"SATURNALES PAR NEON KULT (DJ set cyberpk/electro pk/dark electro)","artist":"SATURNALES PAR NEON KULT"}]}},{"type":"Feature","id":"toulouse-distorama-radio-fmr","geometry":{"type":"Point","coordinates":[1.4487374,43.6153004]},"properties":{"name":"Radio FMR","category":"Radio","icon":"📻","address":"9 boulevard des Minimes 31200 Toulouse","logo":"radio_fmr.png","events":[{"date":"2025-12-13","time":"19h","price":"Prix Libre","desc":"ACAB Party → PHK (pk, rap) + LES RENTIERS (pk, rap hxc) + SILLY WALK (pk rk) ET KONTROLL TEK (electro pk)","artist":"ACAB Party → PHK (pk, rap) + LES RENTIERS (pk, rap hxc) + SILLY WALK (pk rk) ET KONTROLL TEK"}]}},{"type":"Feature","id":"toulouse-distorama-dalidaark","geometry":{"type":"Point","coordinates":[1.4318769,43.5988684]},"properties":{"name":"Dalidaark","category":"Concert Bar","icon":"🎵","address":"39 rue Réclusane 31300 Toulouse","logo":"dalidaark.png","events":[{"date":"2025-12-13","time":"20h","price":"Gratuit","desc":"HININ (post pk) + TRAIT D’UNION + MONDE MODERNE","artist":"HININ (post pk) + TRAIT D’UNION + MONDE MODERNE"}]}},{"type":"Feature","id":"toulouse-distorama-le-ravelin","geometry":{"type":"Point","coordinates":[1.4282089,43.599082]},"properties":{"name":"Le Ravelin","category":"Concert Bar","icon":"🎵","address":"6 place du Ravelin 31300 Toulouse","logo":"le_ravelin.png","events":[{"date":"2025-12-13","time":"19h30","price":"5€","desc":"MOTORMOUTH (Bxl, skate pk dégénéré)+ LES CROTALES (grg hxc)","artist":"MOTORMOUTH (Bxl, skate pk dégénéré)+ LES CROTALES"}]}},{"type":"Feature","id":"toulouse-distorama-boudu-pont","geometry":{"type":"Point","coordinates":[1.4363272,43.5988936]},"properties":{"name":"Boudu pont","category":"Concert Bar","icon":"🎵","address":"1 rue de la République 31300 Toulouse","logo":"","events":[{"date":"2025-12-13","time":"22h","price":"Gratuit","desc":"Quiz Culture Générale, Musical + BOOTYSHAKE","artist":"Quiz Culture Générale, Musical + BOOTYSHAKE"}]}},{"type":"Feature","id":"toulouse-distorama-litle-o-clock","geometry":{"type":"Point","coordinates":[1.5208073,43.6444525]},"properties":{"name":"Little O'Clock","category":"Concert Bar","icon":"🎵","address":"75 allée Jean Jaurès 31000 Toulouse","logo":"","events":[{"date":"2025-12-13","time":"20h","price":"Prix Libre","desc":"MEMENTO MORI (Metalcore) - DAMN HIT (Hardcore pk) - MR MAD MOOSE (Stoner)","artist":"MEMENTO MORI (Metalcore) - DAMN HIT (Hardcore pk) - MR MAD MOOSE"}]}}]}