{"type":"FeatureCollection","features":[{"type":"Feature","id":"toulouse-distorama-boudu-pont","geometry":{"type":"Point","coordinates":[1.4363272,43.5988936]},"properties":{"name":"Boudu pont","category":"Concert Bar","icon":"fa-music","address":"1 rue de la République 31300 Toulouse","logo":"","events":[{"date":"2025-10-12","time":"19h","price":"Gratuit","desc":"MATHIS ET MARKUS (duo accordéon / saxophone, jazz sur son 31)","artist":"MATHIS ET MARKUS","youtube_video_id":"","bandcamp_url":"","bandcamp_embed_url":""}]}},{"type":"Feature","id":"toulouse-distorama-le-winger","geometry":{"type":"Point","coordinates":[1.4516526,43.6108151]},"properties":{"name":"Le Winger","category":"Concert Bar","icon":"fa-music","address":"68 rue de Bayard 31000 Toulouse","logo":"","events":[{"date":"2025-10-12","time":"16h","price":"6/8€","desc":"FAZE (hxc/Canada) + ARDAN (post pk) + NOHZ (pk hxc)","artist":"FAZE (hxc/Canada) + ARDAN (post pk) + NOHZ","youtube_video_id":"","bandcamp_url":"","bandcamp_embed_url":""}]}}]}