{"type":"FeatureCollection","features":[{"type":"Feature","id":"toulouse-distorama-le-ravelin","geometry":{"type":"Point","coordinates":[1.4282089,43.599082]},"properties":{"name":"Le Ravelin","category":"Concert Bar","icon":"🎵","address":"6 place du Ravelin 31300 Toulouse","logo":"le_ravelin.png","events":[{"date":"2025-09-11","time":"19h30","price":"6€","desc":"THE SHAZZAMS (grg-rk-psych-pk-pop/UK+Can+Fr) + VAN RUIN (grg rk/Aus)","artist":"THE SHAZZAMS (grg-rk-psych-pk-pop/UK+Can+Fr) + VAN RUIN"}]}},{"type":"Feature","id":"toulouse-distorama-bistrot-ducoin","geometry":{"type":"Point","coordinates":[1.4559708,43.6090065]},"properties":{"name":"Bistrot Ducoin","category":"Concert Bar","icon":"🎵","address":"40 rue du Général Jean Compans 31500 Toulouse","logo":"bistrot_ducoin.jpg","events":[{"date":"2025-09-11","time":"19h","price":"Prix Libre","desc":"WATKIN SHARKEY + MIKE CARLEY des têtes raides (folk)","artist":"WATKIN SHARKEY + MIKE CARLEY des têtes raides"}]}},{"type":"Feature","id":"toulouse-distorama-boudu-pont","geometry":{"type":"Point","coordinates":[1.4363272,43.5988936]},"properties":{"name":"Boudu pont","category":"Concert Bar","icon":"🎵","address":"1 rue de la République 31300 Toulouse","logo":"","events":[{"date":"2025-09-11","time":"20h30","price":"Prix Libre","desc":"LIGNE ROUGE (emo 90s - post-pk) + BY A DAMN SIGHT (rk indé/NZ) + NO DRAMA (indie pk)","artist":"LIGNE ROUGE (emo 90s - post-pk) + BY A DAMN SIGHT (rk indé/NZ) + NO DRAMA"}]}},{"type":"Feature","id":"toulouse-distorama-le-dada","geometry":{"type":"Point","coordinates":[1.4383337,43.6123398]},"properties":{"name":"Le Dada","category":"Concert Bar","icon":"🎵","address":"27 avenue Honoré Serres 31000 Toulouse","logo":"","events":[{"date":"2025-09-11","time":"20h","price":"3/5/7€","desc":"TENDRESSE VIOLENCE (pk wave) + GUT BUGS (egg pk) + DJ LOUTRE RAGE (dark wave)","artist":"TENDRESSE VIOLENCE (pk wave) + GUT BUGS (egg pk) + DJ LOUTRE RAGE"}]}}]}