{"type":"FeatureCollection","features":[{"type":"Feature","id":"toulouse-distorama-theatre-de-la-cite-le-studio","geometry":{"type":"Point","coordinates":[1.4495094,43.6040582]},"properties":{"name":"Théâtre De La Cité","category":"Concert Bar","icon":"fa-music","address":"1 rue Pierre Baudis 31000 Toulouse","logo":"","events":[{"date":"2025-12-04","time":"19h","price":"Gratuit (sur réservation)","desc":"Festival Synchro → Ciné-Concert \"CONTE CRUEL\" avec NICO SENTENAC, FRANÇOIS REMIGI ET DIDIER DELRIEUX (drone)","artist":""}]}},{"type":"Feature","id":"toulouse-distorama-bistrot-ducoin","geometry":{"type":"Point","coordinates":[1.4559708,43.6090065]},"properties":{"name":"Bistrot Ducoin","category":"Concert Bar","icon":"fa-music","address":"40 rue du Général Jean Compans 31500 Toulouse","logo":"bistrot_ducoin.jpg","events":[{"date":"2025-12-04","time":"19h30","price":"Prix Libre","desc":"TWO SEASONS (reprise de standards)","artist":"TWO SEASONS"}]}},{"type":"Feature","id":"toulouse-distorama-le-rex","geometry":{"type":"Point","coordinates":[1.438322,43.6119889]},"properties":{"name":"Le Rex","category":"Concert Bar","icon":"fa-music","address":"Le Rex Toulouse","logo":"","events":[{"date":"2025-12-04","time":"19h30","price":"22€ (100 places gratos de 19h30 à 20h)","desc":"Festival Setmana Santa → SELOFAN (darkwave, post-pk/GR) + WILLIAM BLEAK (darkwave, ebm/DE)","artist":""}]}},{"type":"Feature","id":"toulouse-distorama-betty-pop-s","geometry":{"type":"Point","coordinates":[1.4285574,43.5988092]},"properties":{"name":"Betty Pop's","category":"Concert Bar","icon":"fa-music","address":"Place du Ravelin 31300 Toulouse","logo":"","events":[{"date":"2025-12-04","time":"22h","price":"Gratuit","desc":"Festival Setmana Santa → AFTER SELOFAN : WALLIE (goth rk, darkwave) + KONSTROY (darkwave, post-pk)","artist":""}]}},{"type":"Feature","id":"toulouse-distorama-le-dada","geometry":{"type":"Point","coordinates":[1.4383337,43.6123398]},"properties":{"name":"Le Dada","category":"Concert Bar","icon":"fa-music","address":"27 avenue Honoré Serres 31000 Toulouse","logo":"","events":[{"date":"2025-12-04","time":"20h","price":"5/7/9 euros","desc":"DAS KINN (synthpk, kraut, EBM) + CUT FACE (darkwave et breakbeats)","artist":"DAS KINN (synthpk, kraut, EBM) + CUT FACE"}]}}]}