{"type":"FeatureCollection","features":[{"type":"Feature","id":"toulouse-distorama-bistrot-ducoin","geometry":{"type":"Point","coordinates":[1.4559708,43.6090065]},"properties":{"name":"Bistrot Ducoin","category":"Concert Bar","icon":"fa-music","address":"40 rue du Général Jean Compans 31500 Toulouse","logo":"bistrot_ducoin.jpg","events":[{"date":"2025-10-02","time":"19h30","price":"Prix Libre","desc":"L'EMBUSCADE MASTER PILS (engagé et enragé)","artist":"L'EMBUSCADE MASTER PILS","youtube_video_id":"uxg-BFLRJD4","bandcamp_url":"","bandcamp_embed_url":""},{"date":"2025-10-03","time":"21h","price":"Prix Libre","desc":"2 BEERS + BULLSHIT (pk)","artist":"2 BEERS + BULLSHIT","youtube_video_id":"","bandcamp_url":"","bandcamp_embed_url":""},{"date":"2025-10-09","time":"19h30","price":"Prix Libre","desc":"TESS AND JOHN (blues fk rk)","artist":"TESS AND JOHN","youtube_video_id":"9OzG7irdAE4","bandcamp_url":"","bandcamp_embed_url":""},{"date":"2025-10-10","time":"21h","price":"Prix Libre","desc":"THE SPOUTS (grg pk)","artist":"THE SPOUTS","youtube_video_id":"","bandcamp_url":"","bandcamp_embed_url":""},{"date":"2025-10-16","time":"19h30","price":"Prix Libre","desc":"SMUGGLERS (pk)","artist":"SMUGGLERS","youtube_video_id":"","bandcamp_url":"","bandcamp_embed_url":""},{"date":"2025-10-17","time":"20h30","price":"Prix Libre","desc":"ALBACORE (pk noise)","artist":"ALBACORE","youtube_video_id":"","bandcamp_url":"","bandcamp_embed_url":""},{"date":"2025-10-23","time":"19h30","price":"Prix Libre","desc":"ZÉBU (chanson française)","artist":"ZÉBU","youtube_video_id":"","bandcamp_url":"","bandcamp_embed_url":""},{"date":"2025-10-24","time":"21h","price":"Prix Libre","desc":"FWK (stoner prog)","artist":"FWK","youtube_video_id":"","bandcamp_url":"","bandcamp_embed_url":""},{"date":"2025-10-30","time":"19h30","price":"Prix Libre","desc":"Blues Au Coin Du Zinc","artist":"Blues Au Coin Du Zinc","youtube_video_id":"","bandcamp_url":"","bandcamp_embed_url":""},{"date":"2025-10-31","time":"21h","price":"Prix Libre","desc":"ROSES SUBSTANCE (rk stoner)","artist":"ROSES SUBSTANCE","youtube_video_id":"","bandcamp_url":"","bandcamp_embed_url":""}]}},{"type":"Feature","id":"toulouse-distorama-boudu-pont","geometry":{"type":"Point","coordinates":[1.4363272,43.5988936]},"properties":{"name":"Boudu pont","category":"Concert Bar","icon":"fa-music","address":"1 rue de la République 31300 Toulouse","logo":"","events":[{"date":"2025-10-03","time":"20h30","price":"Gratuit","desc":"Le Passage → Scène Émergente Hip Hop","artist":"Le Passage → Scène Émergente Hip Hop","youtube_video_id":"","bandcamp_url":"","bandcamp_embed_url":""},{"date":"2025-10-10","time":"","price":"21h- Gratuit","desc":"BUBBLEGUM CORAIL + COUR DE RÉCRÉ (duo synthwave)","artist":"BUBBLEGUM CORAIL + COUR DE RÉCRÉ","youtube_video_id":"dSoc2BFGBXc","bandcamp_url":"","bandcamp_embed_url":""},{"date":"2025-10-11","time":"","price":"22h- Gratuit","desc":"BLIND TEST + BOOTISHAKE","artist":"BLIND TEST + BOOTISHAKE","youtube_video_id":"","bandcamp_url":"","bandcamp_embed_url":""},{"date":"2025-10-12","time":"19h","price":"Gratuit","desc":"MATHIS ET MARKUS (duo accordéon / saxophone, jazz sur son 31)","artist":"MATHIS ET MARKUS","youtube_video_id":"","bandcamp_url":"","bandcamp_embed_url":""},{"date":"2025-10-17","time":"","price":"21h- Gratuit","desc":"THE BIOLOGISTS + KAUTSA (reggae roots / uk dub / electro dub)","artist":"THE BIOLOGISTS + KAUTSA","youtube_video_id":"","bandcamp_url":"","bandcamp_embed_url":""}]}},{"type":"Feature","id":"toulouse-distorama-la-mecanique-des-fluides","geometry":{"type":"Point","coordinates":[1.4537647,43.6072494]},"properties":{"name":"La Mécanique des Fluides","category":"Concert Bar","icon":"fa-music","address":"1 rue Riquet 31000 Toulouse","logo":"","events":[{"date":"2025-10-03","time":"20h","price":"Prix Libre","desc":"SNAKE EAT SNAKE (EMB) + LARSOVICH (postpk minimal wave)","artist":"SNAKE EAT SNAKE (EMB) + LARSOVICH","youtube_video_id":"","bandcamp_url":"","bandcamp_embed_url":""},{"date":"2025-10-10","time":"20h","price":"Prix Libre","desc":"MY OWN PRIVATE ALASKA (metal/rk)","artist":"MY OWN PRIVATE ALASKA","youtube_video_id":"10BlbmdGCFE","bandcamp_url":"","bandcamp_embed_url":""},{"date":"2025-10-11","time":"20h","price":"Prix Libre","desc":"SOUL BREAKER (thrash old school) + SEVERED SOUL (death metal/Pamiers)","artist":"SOUL BREAKER (thrash old school) + SEVERED SOUL","youtube_video_id":"","bandcamp_url":"","bandcamp_embed_url":""},{"date":"2025-10-13","time":"19h30","price":"Prix Libre","desc":"SINKS (noise rk, CZ) + NO DRAMA (Indie/emo/pk, Tls)","artist":"SINKS (noise rk, CZ) + NO DRAMA","youtube_video_id":"","bandcamp_url":"","bandcamp_embed_url":""},{"date":"2025-10-16","time":"20h","price":"Prix Libre","desc":"Live Machines par FABULATOR (hypnotic tek) + MLT (modular tek) + SBTP (tek house)","artist":"Live Machines par FABULATOR (hypnotic tek) + MLT (modular tek) + SBTP","youtube_video_id":"5L4OmBgLLGc","bandcamp_url":"","bandcamp_embed_url":""},{"date":"2025-10-17","time":"20h","price":"5/7€","desc":"GRAVE KULT (evil speed metal pk/Nantes) + LISIEUX (dark fk)","artist":"GRAVE KULT (evil speed metal pk/Nantes) + LISIEUX","youtube_video_id":"","bandcamp_url":"","bandcamp_embed_url":""},{"date":"2025-10-18","time":"20h","price":"Prix Libre","desc":"MIASMES (black n' roll) + LAME (black/death)","artist":"MIASMES (black n' roll) + LAME","youtube_video_id":"Mrdus7Qucik","bandcamp_url":"","bandcamp_embed_url":""},{"date":"2025-10-23","time":"20h","price":"3/5/7€","desc":"OCCULT HAND ORDER (hard psych post doom/Lyon) + ORCHIDÉE COSMIQUE (fuzz noise ambient/Chambéry)","artist":"OCCULT HAND ORDER (hard psych post doom/Lyon) + ORCHIDÉE COSMIQUE","youtube_video_id":"XD--pRHY-lw","bandcamp_url":"","bandcamp_embed_url":""},{"date":"2025-10-24","time":"20h","price":"3/5/7€","desc":"IMPLODERS (hxc pk, Toronto) + HIVER LUCIDE (black metal ambient)","artist":"IMPLODERS (hxc pk, Toronto) + HIVER LUCIDE","youtube_video_id":"","bandcamp_url":"","bandcamp_embed_url":""},{"date":"2025-10-25","time":"20h","price":"3/5/7€","desc":"LITIGE (pk/Lyon) + SHADOW TIDES (pk)","artist":"LITIGE (pk/Lyon) + SHADOW TIDES","youtube_video_id":"MDds3np3BNE","bandcamp_url":"","bandcamp_embed_url":""},{"date":"2025-10-29","time":"19h30","price":"5/7€","desc":"LONG HOURS (lofi nowave/Aus) + UNDER 45 (postpk/Lyon) + LOVATARAXX (dark minimal synth/Lyon)","artist":"LONG HOURS (lofi nowave/Aus) + UNDER 45 (postpk/Lyon) + LOVATARAXX","youtube_video_id":"","bandcamp_url":"","bandcamp_embed_url":""},{"date":"2025-10-31","time":"","price":"22H","desc":"SOIRÉE HALLOWEEN DJ set LES TAZ UNIS + guest","artist":"","youtube_video_id":"","bandcamp_url":"","bandcamp_embed_url":""}]}},{"type":"Feature","id":"toulouse-distorama-le-ravelin","geometry":{"type":"Point","coordinates":[1.4282089,43.599082]},"properties":{"name":"Le Ravelin","category":"Concert Bar","icon":"fa-music","address":"6 place du Ravelin 31300 Toulouse","logo":"le_ravelin.png","events":[{"date":"2025-10-03","time":"20h","price":"5€","desc":"YGGL (grunge/shoegaze) + MARTY WENT BACK (pop pk/grunge)","artist":"YGGL (grunge/shoegaze) + MARTY WENT BACK","youtube_video_id":"yPK8QtVjMF0","bandcamp_url":"","bandcamp_embed_url":""},{"date":"2025-10-04","time":"20h","price":"3/5/7/9/11€","desc":"TUF (transe bricolée) + TRUNK (impro flûte,trompette,batterie)","artist":"TUF (transe bricolée) + TRUNK","youtube_video_id":"","bandcamp_url":"","bandcamp_embed_url":""},{"date":"2025-10-09","time":"20h","price":"5€","desc":"GIVERZZ (wavy grg/beach pk) + DEW FALL (shoegaze/alt rk)","artist":"GIVERZZ (wavy grg/beach pk) + DEW FALL","youtube_video_id":"","bandcamp_url":"","bandcamp_embed_url":""},{"date":"2025-10-10","time":"20h","price":"Prix Libre","desc":"ORGANIZED VACATION (rk psyche) + ROTI BONDAGE (pk)","artist":"ORGANIZED VACATION (rk psyche) + ROTI BONDAGE","youtube_video_id":"","bandcamp_url":"","bandcamp_embed_url":""},{"date":"2025-10-11","time":"20h","price":"5€","desc":"THE VACUUMS (rk psyche) + MINERVES (pop grg)","artist":"THE VACUUMS (rk psyche) + MINERVES","youtube_video_id":"","bandcamp_url":"","bandcamp_embed_url":""},{"date":"2025-10-15","time":"20h","price":"5€ +","desc":"SUMSKI (kraut pop tropical expé/Zagreb) + BRUIT DE LA PASSION (pop pk)","artist":"SUMSKI (kraut pop tropical expé/Zagreb) + BRUIT DE LA PASSION","youtube_video_id":"","bandcamp_url":"","bandcamp_embed_url":""},{"date":"2025-10-17","time":"19h30","price":"8€","desc":"XYZ (IAN SVENONIUS + MEMPHIS ELECTRONIC) + DESTINATION LONELY (release party)","artist":"XYZ (IAN SVENONIUS + MEMPHIS ELECTRONIC) + DESTINATION LONELY","youtube_video_id":"K-2G3rvPK5k","bandcamp_url":"","bandcamp_embed_url":""},{"date":"2025-10-18","time":"20h","price":"5€+","desc":"FUNGAS (psych pk grg/Aus) + FUZZERLODE (psych grg Tls/Lyon)","artist":"FUNGAS (psych pk grg/Aus) + FUZZERLODE","youtube_video_id":"hSTA8tQCUuA","bandcamp_url":"","bandcamp_embed_url":""},{"date":"2025-10-22","time":"20h","price":"5€","desc":"WEEZY FORD (indie fk Us) + VEMBERLAIN (indie)","artist":"WEEZY FORD (indie fk Us) + VEMBERLAIN","youtube_video_id":"Me-jO-CgMLs","bandcamp_url":"","bandcamp_embed_url":""},{"date":"2025-10-23","time":"20h","price":"5€ suggérés","desc":"MAGASIN DE GUITARES (heavy pop) + PETIT BUREAU (pk plaqué pop)","artist":"MAGASIN DE GUITARES (heavy pop) + PETIT BUREAU","youtube_video_id":"","bandcamp_url":"","bandcamp_embed_url":""},{"date":"2025-10-30","time":"20h","price":"5€ suggérés","desc":"CATALOGUE (post pk revival) + BANKSTER","artist":"CATALOGUE (post pk revival) + BANKSTER","youtube_video_id":"","bandcamp_url":"","bandcamp_embed_url":""},{"date":"2025-10-31","time":"20h","price":"5/7€","desc":"PERVITIN (grg swamp) + guest","artist":"PERVITIN (grg swamp) + guest","youtube_video_id":"","bandcamp_url":"","bandcamp_embed_url":""}]}},{"type":"Feature","id":"toulouse-distorama-gloria","geometry":{"type":"Point","coordinates":[1.4439408,43.6014516]},"properties":{"name":"Gloria","category":"Concert Bar","icon":"fa-music","address":"4 rue Peyras 31000 Toulouse","logo":"","events":[{"date":"2025-10-03","time":"19h30","price":"Prix Libre","desc":"JAKAARLO (musique sénégalaise)","artist":"JAKAARLO","youtube_video_id":"","bandcamp_url":"","bandcamp_embed_url":""},{"date":"2025-10-09","time":"19h","price":"Gratuit","desc":"Vernissage Exposition (du 03/10 au 04/11) « CLAIRE GONTAUD »","artist":"","youtube_video_id":"","bandcamp_url":"","bandcamp_embed_url":""},{"date":"2025-10-17","time":"21h","price":"Gratuit","desc":"Blind Test","artist":"Blind Test","youtube_video_id":"","bandcamp_url":"","bandcamp_embed_url":""},{"date":"2025-10-19","time":"20h","price":"5€","desc":"NICK WHEELDON (indie fk) + PRETTY INSIDE SOLO (fk)","artist":"NICK WHEELDON (indie fk) + PRETTY INSIDE SOLO","youtube_video_id":"DmrqU5pSBnU","bandcamp_url":"","bandcamp_embed_url":""},{"date":"2025-10-25","time":"20h","price":"Prix Libre","desc":"THOMAS PRADIER + THOMAS BOUDINEAU \"LE FLEGMATIC\"","artist":"THOMAS PRADIER + THOMAS BOUDINEAU \"LE FLEGMATIC\"","youtube_video_id":"TvnlwisFkXE","bandcamp_url":"","bandcamp_embed_url":""},{"date":"2025-10-30","time":"20h","price":"Prix Libre","desc":"MARC SENS","artist":"MARC SENS","youtube_video_id":"","bandcamp_url":"","bandcamp_embed_url":""}]}},{"type":"Feature","id":"toulouse-distorama-le-taquin","geometry":{"type":"Point","coordinates":[1.4278744,43.6059002]},"properties":{"name":"Le Taquin","category":"Concert Bar","icon":"fa-music","address":"23 rue des Amidonniers 31300 Toulouse","logo":"","events":[{"date":"2025-10-03","time":"21h","price":"9/5€","desc":"CALAMITY (solo flûte harshnoisejazz) + MARLBORO BLED (jazzcore)","artist":"CALAMITY (solo flûte harshnoisejazz) + MARLBORO BLED","youtube_video_id":"","bandcamp_url":"","bandcamp_embed_url":""}]}},{"type":"Feature","id":"toulouse-distorama-the-petit-london","geometry":{"type":"Point","coordinates":[1.4538883,43.6008176]},"properties":{"name":"The Petit London","category":"Concert Bar","icon":"fa-music","address":"7 rue Pierre-Paul Riquet 31000 Toulouse","logo":"","events":[{"date":"2025-10-03","time":"22h","price":"Gratuit","desc":"KONSTROY (résidence darkwave)","artist":"KONSTROY","youtube_video_id":"","bandcamp_url":"https://bandcamp.com/konstroy","bandcamp_embed_url":""}]}},{"type":"Feature","id":"toulouse-distorama-labo-des-arts","geometry":{"type":"Point","coordinates":[1.4652089,43.6055126]},"properties":{"name":"Labo Des Arts","category":"Concert Bar","icon":"fa-music","address":"8 rue Clément 31500 Toulouse","logo":"","events":[{"date":"2025-10-03","time":"","price":"19H30","desc":"WORDS OF SARA RELEASE PARTY (fk) + KIERAN THORPE (fk)","artist":"WORDS OF SARA RELEASE PARTY (fk) + KIERAN THORPE","youtube_video_id":"","bandcamp_url":"","bandcamp_embed_url":""},{"date":"2025-10-25","time":"","price":"19H30","desc":"SPINN (indie rk/UK) + VICE KILLER (indie rk/UK)","artist":"SPINN (indie rk/UK) + VICE KILLER","youtube_video_id":"XK0Reb_TaIU","bandcamp_url":"","bandcamp_embed_url":""},{"date":"2025-10-28","time":"","price":"19H30","desc":"DAIISTAR (shoegaze/US) + SNAKES IN THE BOOT (post pk)","artist":"DAIISTAR (shoegaze/US) + SNAKES IN THE BOOT","youtube_video_id":"h2dJmN9tJJE","bandcamp_url":"","bandcamp_embed_url":""}]}},{"type":"Feature","id":"toulouse-distorama-little-o-clock","geometry":{"type":"Point","coordinates":[1.5208073,43.6444525]},"properties":{"name":"Little O'Clock","category":"Concert Bar","icon":"fa-music","address":"75 allée Jean Jaurès 31000 Toulouse","logo":"","events":[{"date":"2025-10-03","time":"21h","price":"Prix Libre","desc":"SPAGHETTICORE (harsh techno live machine) + NADOU LE RDV (dj set techno,trance,tribe) + MISS STRESS (dj set techno)","artist":"SPAGHETTICORE (harsh techno live machine) + NADOU LE RDV (dj set techno,trance,tribe) + MISS STRESS","youtube_video_id":"NpMYJ2DQMCg","bandcamp_url":"","bandcamp_embed_url":""},{"date":"2025-10-17","time":"20h30","price":"Gratuit","desc":"ANIIMA (modern metal) + WAY FOR NOTHING (post rk)","artist":"ANIIMA (modern metal) + WAY FOR NOTHING","youtube_video_id":"","bandcamp_url":"","bandcamp_embed_url":""},{"date":"2025-10-21","time":"20h","price":"Prix Libre","desc":"BARIMORE (post hxc) + LOSING PATIENCE (metal HxC)","artist":"BARIMORE (post hxc) + LOSING PATIENCE","youtube_video_id":"-D0C-pp-HBY","bandcamp_url":"","bandcamp_embed_url":""}]}},{"type":"Feature","id":"toulouse-distorama-les-pavillons-sauvages","geometry":{"type":"Point","coordinates":[1.430478,43.6167308]},"properties":{"name":"Les Pavillons Sauvages","category":"Concert Bar","icon":"fa-music","address":"Avenue Jean Dagnaux 31200 Toulouse","logo":"","events":[{"date":"2025-10-04","time":"20h","price":"Prix Libre","desc":"JAZZ PRANK (math rk) + MONDO CANE (post rk/noise)","artist":"JAZZ PRANK (math rk) + MONDO CANE","youtube_video_id":"","bandcamp_url":"","bandcamp_embed_url":""}]}},{"type":"Feature","id":"toulouse-distorama-le-winger","geometry":{"type":"Point","coordinates":[1.4516526,43.6108151]},"properties":{"name":"Le Winger","category":"Concert Bar","icon":"fa-music","address":"68 rue de Bayard 31000 Toulouse","logo":"","events":[{"date":"2025-10-05","time":"18h","price":"Prix Libre","desc":"PARNEPAR (post pk/Zagreb) + DRIM (coldwave)","artist":"PARNEPAR (post pk/Zagreb) + DRIM","youtube_video_id":"du0IIO1gbUE","bandcamp_url":"","bandcamp_embed_url":""},{"date":"2025-10-12","time":"16h","price":"6/8€","desc":"FAZE (hxc/Canada) + ARDAN (post pk) + NOHZ (pk hxc)","artist":"FAZE (hxc/Canada) + ARDAN (post pk) + NOHZ","youtube_video_id":"3oY4sKBPWno","bandcamp_url":"","bandcamp_embed_url":""}]}},{"type":"Feature","id":"toulouse-distorama-le-dada","geometry":{"type":"Point","coordinates":[1.4383337,43.6123398]},"properties":{"name":"Le Dada","category":"Concert Bar","icon":"fa-music","address":"27 avenue Honoré Serres 31000 Toulouse","logo":"","events":[{"date":"2025-10-06","time":"20h30","price":"5€ adh","desc":"Les Vidéophages (Projection de courts-métrages) → Ce mois-ci, on partage nos pépites !","artist":"","youtube_video_id":"","bandcamp_url":"","bandcamp_embed_url":""},{"date":"2025-10-16","time":"20h","price":"7/10 €","desc":"SAD MADONA (synth cold wave) + ALICE KEAN (post pk/dark wave) + KONSTROY (dark wave DJ set)","artist":"SAD MADONA (synth cold wave) + ALICE KEAN (post pk/dark wave) + KONSTROY","youtube_video_id":"","bandcamp_url":"https://bandcamp.com/konstroy","bandcamp_embed_url":""},{"date":"2025-10-17","time":"19h22","price":"3/5/7€","desc":"DEEP TRISKELL + UNTEL + BEAR BONES LAY LOW + JAZZOUX + DJ ANITA DYNAMITA","artist":"DEEP TRISKELL + UNTEL + BEAR BONES LAY LOW + JAZZOUX + DJ ANITA DYNAMITA","youtube_video_id":"k5tDa0v1NUo","bandcamp_url":"","bandcamp_embed_url":""},{"date":"2025-10-24","time":"20h","price":"8/10€","desc":"COSEY MUELLER (synthwave/Berlin) + F.R.B (krautdance) + DJ set Oversink (post body music / pkwave)","artist":"COSEY MUELLER (synthwave/Berlin) + F.R.B (krautdance) + DJ set Oversink","youtube_video_id":"pp_NrFb_3m4","bandcamp_url":"","bandcamp_embed_url":""}]}},{"type":"Feature","id":"toulouse-distorama-l-engrenage-balma","geometry":{"type":"Point","coordinates":[1.4880684,43.6274411]},"properties":{"name":"L'Engrenage","category":"Concert Bar","icon":"fa-music","address":"14 rue Louis Renault 31130 Balma","logo":"","events":[{"date":"2025-10-10","time":"21h","price":"5/7€","desc":"NO SELF + KIBOSH + COLD STRESS + INSTINCT (hxc/pk)","artist":"NO SELF + KIBOSH + COLD STRESS + INSTINCT","youtube_video_id":"","bandcamp_url":"","bandcamp_embed_url":""}]}},{"type":"Feature","id":"toulouse-distorama-dalidaark","geometry":{"type":"Point","coordinates":[1.4318769,43.5988684]},"properties":{"name":"Dalidaark","category":"Concert Bar","icon":"fa-music","address":"39 rue Réclusane 31300 Toulouse","logo":"dalidaark.png","events":[{"date":"2025-10-11","time":"20h","price":"Gratuit","desc":"FAUNA NOVA (coldwave/kraut rk)","artist":"FAUNA NOVA","youtube_video_id":"","bandcamp_url":"","bandcamp_embed_url":""},{"date":"2025-10-16","time":"20h","price":"Gratos","desc":"INCIRRINA (dark minimal synth duo/Athens)","artist":"INCIRRINA","youtube_video_id":"9JNidLyAXEc","bandcamp_url":"","bandcamp_embed_url":""},{"date":"2025-10-25","time":"20h","price":"Gratuit","desc":"Soirée Drag And Cult (spectacle drag et music)","artist":"","youtube_video_id":"","bandcamp_url":"","bandcamp_embed_url":""},{"date":"2025-10-27","time":"20h30","price":"Gratuit","desc":"VANTRE (noise-rk/math-rk) + NARCISSE NOUGAT (math-rk)","artist":"VANTRE (noise-rk/math-rk) + NARCISSE NOUGAT","youtube_video_id":"cpEcuQo8gn0","bandcamp_url":"","bandcamp_embed_url":""}]}},{"type":"Feature","id":"toulouse-distorama-chapelle-des-carmelites","geometry":{"type":"Point","coordinates":[1.4432711,43.607489]},"properties":{"name":"Chapelle Des Carmélites","category":"Concert Bar","icon":"fa-music","address":"Chapelle Des Carmélites Toulouse","logo":"","events":[{"date":"2025-10-11","time":"19h","price":"10€/7€ solidaire","desc":"Spéciale ambient/expé → AGRAFUZZ + AO AMRITA + CCTEMPLE + INDIGOBLUE + ZELEZNA","artist":"Spéciale ambient/expé → AGRAFUZZ + AO AMRITA + CCTEMPLE + INDIGOBLUE + ZELEZNA","youtube_video_id":"-ihTlDAnYs8","bandcamp_url":"","bandcamp_embed_url":""}]}},{"type":"Feature","id":"toulouse-distorama-axis-musique","geometry":{"type":"Point","coordinates":[1.3974931,43.5472325]},"properties":{"name":"Axis Music","category":"Concert Bar","icon":"fa-music","address":"7 impasse Boudeville 31100 Toulouse","logo":"","events":[{"date":"2025-10-11","time":"","price":"20h- Prix Libre","desc":"HØRD (electro darkwave) + MARK OF THE SPHINX (deathwave/death rk) + AUGUST ANGST (gothic dreamgaze)","artist":"HØRD (electro darkwave) + MARK OF THE SPHINX (deathwave/death rk) + AUGUST ANGST","youtube_video_id":"xiNz3kxRXyU","bandcamp_url":"","bandcamp_embed_url":""}]}},{"type":"Feature","id":"toulouse-distorama-le-cameleon","geometry":{"type":"Point","coordinates":[1.433005,43.599585]},"properties":{"name":"Le Caméléon","category":"Concert Bar","icon":"fa-music","address":"19 rue Pont Saint Pierre 31300 Toulouse","logo":"","events":[{"date":"2025-10-11","time":"20h","price":"??€","desc":"SEIJIRO MURAYAMA & DAVID EYGUESIER (duo improvisation)","artist":"SEIJIRO MURAYAMA & DAVID EYGUESIER","youtube_video_id":"","bandcamp_url":"","bandcamp_embed_url":""},{"date":"2025-10-14","time":"21h","price":"3/5/7€","desc":"SIR RICHARD BISHOP (solo guitare) + MR BISHOP (solo percu/sax)","artist":"SIR RICHARD BISHOP (solo guitare) + MR BISHOP","youtube_video_id":"","bandcamp_url":"","bandcamp_embed_url":""}]}},{"type":"Feature","id":"toulouse-distorama-le-poinconneur","geometry":{"type":"Point","coordinates":[1.4544142,43.617283]},"properties":{"name":"Le Poinçonneur","category":"Concert Bar","icon":"fa-music","address":"19bis rue du Faubourg Bonnefoy 31500 Toulouse","logo":"","events":[{"date":"2025-10-15","time":"18h30","price":"Gratos","desc":"CONFITURE LIBRE (jam d'impro)","artist":"CONFITURE LIBRE","youtube_video_id":"","bandcamp_url":"","bandcamp_embed_url":""},{"date":"2025-10-29","time":"18h","price":"Gratuit","desc":"Vernissage expo MALAUGURIO par MATTEO FALONE ( illu, print, zine, schlass) + guest live ambient-groove de Barbarie","artist":"","youtube_video_id":"","bandcamp_url":"","bandcamp_embed_url":""}]}},{"type":"Feature","id":"toulouse-distorama-ipn","geometry":{"type":"Point","coordinates":[1.4495423,43.6159627]},"properties":{"name":"IPN","category":"Concert Bar","icon":"fa-music","address":"30 rue des Jumeaux 31000 Toulouse","logo":"","events":[{"date":"2025-10-23","time":"19h","price":"PAF 6€ + 1€ adhésion","desc":"RELEASE PARTY : ROD-R + CCTEMPLE + DEUCE","artist":"RELEASE PARTY : ROD-R + CCTEMPLE + DEUCE","youtube_video_id":"-ihTlDAnYs8","bandcamp_url":"","bandcamp_embed_url":""}]}},{"type":"Feature","id":"toulouse-distorama-la-cabane","geometry":{"type":"Point","coordinates":[1.4073706,43.5997655]},"properties":{"name":"La Cabane","category":"Concert Bar","icon":"fa-music","address":"La Cabane Toulouse","logo":"","events":[{"date":"2025-10-24","time":"20h","price":"14/28€","desc":"Soirée La Meute → UZI FREYJA + Cabaret Drag LA MADONE + DJ Set LW2","artist":"","youtube_video_id":"","bandcamp_url":"","bandcamp_embed_url":""}]}},{"type":"Feature","id":"toulouse-distorama-studio-rimshot-10-chemin-de-fondeyre-31200","geometry":{"type":"Point","coordinates":[1.4235741,43.6367163]},"properties":{"name":"Studio Rimshot","category":"Studio","icon":"fa-microphone","address":"10 chemin de Fondeyre 31200 Toulouse","logo":"","events":[{"date":"2025-10-24","time":"20h","price":"Prix Libre","desc":"SPIRALPARK (rk psyché)","artist":"SPIRALPARK","youtube_video_id":"","bandcamp_url":"","bandcamp_embed_url":""}]}},{"type":"Feature","id":"toulouse-distorama-cacahuete","geometry":{"type":"Point","coordinates":[1.4328833,43.5987868]},"properties":{"name":"Cacahuète","category":"Concert Bar","icon":"fa-music","address":"21 place de l'Estrapade 31300 Toulouse","logo":"","events":[{"date":"2025-10-30","time":"20h","price":"Prix Libre","desc":"THE SOBERS - acoustic tour (pk rk)","artist":"THE SOBERS - acoustic tour","youtube_video_id":"","bandcamp_url":"","bandcamp_embed_url":""}]}},{"type":"Feature","id":"toulouse-distorama-betty-pop-s","geometry":{"type":"Point","coordinates":[1.4285574,43.5988092]},"properties":{"name":"Betty Pop's","category":"Concert Bar","icon":"fa-music","address":"Place du Ravelin 31300 Toulouse","logo":"","events":[{"date":"2025-10-31","time":"21h","price":"Gratuit","desc":"KONSTROY (Halloween DJ set)","artist":"KONSTROY","youtube_video_id":"","bandcamp_url":"https://bandcamp.com/konstroy","bandcamp_embed_url":""}]}}]}