{"type":"FeatureCollection","features":[{"type":"Feature","id":"toulouse-distorama-le-ravelin","geometry":{"type":"Point","coordinates":[1.4282089,43.599082]},"properties":{"name":"Le Ravelin","category":"Concert Bar","icon":"🎵","address":"6 place du Ravelin 31300 Toulouse","logo":"le_ravelin.png","events":[{"time":"20h","price":"3/5/7/9/11€","desc":"TUF (transe bricolée) + TRUNK (impro flûte,trompette,batterie)","artist":"TUF (transe bricolée) + TRUNK"}]}},{"type":"Feature","id":"toulouse-distorama-les-pavillons-sauvages","geometry":{"type":"Point","coordinates":[1.430478,43.6167308]},"properties":{"name":"Les Pavillons Sauvages","category":"Concert Bar","icon":"🎵","address":"Avenue Jean Dagnaux 31200 Toulouse","logo":"","events":[{"time":"20h","price":"Prix Libre","desc":"JAZZ PRANK (math rk) + MONDO CANE (post rk/noise)","artist":"JAZZ PRANK (math rk) + MONDO CANE"}]}}]}