{"type":"FeatureCollection","features":[{"type":"Feature","id":"toulouse-distorama-le-ravelin","geometry":{"type":"Point","coordinates":[1.4282089,43.599082]},"properties":{"name":"Le Ravelin","category":"Concert Bar","icon":"🎵","address":"6 place du Ravelin 31300 Toulouse","logo":"le_ravelin.png","events":[{"time":"20h","price":"5€+","desc":"THE COVIDS (pk rk/Amsterdam) + THE TENSIONS (grg pk/Mont-de-Marsan)","artist":"THE COVIDS (pk rk/Amsterdam) + THE TENSIONS"}]}},{"type":"Feature","id":"toulouse-distorama-le-dada","geometry":{"type":"Point","coordinates":[1.4383337,43.6123398]},"properties":{"name":"Le Dada","category":"Concert Bar","icon":"🎵","address":"27 avenue Honoré Serres 31000 Toulouse","logo":"","events":[{"time":"20h30","price":"7/10€","desc":"Festival Setmana Santa → TWIN NOIR (synth-pk, post-pk/DE) + FRED RAJA (ebm, dark electronics) + DJ","artist":""}]}}]}