{"type":"FeatureCollection","features":[{"type":"Feature","id":"toulouse-distorama-boudu-pont","geometry":{"type":"Point","coordinates":[1.4363272,43.5988936]},"properties":{"name":"Boudu pont","category":"Concert Bar","icon":"🎵","address":"1 rue de la République 31300 Toulouse","logo":"","events":[{"date":"2025-10-03","time":"20h30","price":"Gratuit","desc":"Le Passage → Scène Émergente Hip Hop","artist":"Le Passage → Scène Émergente Hip Hop"}]}},{"type":"Feature","id":"toulouse-distorama-la-mecanique-des-fluides","geometry":{"type":"Point","coordinates":[1.4537749,43.6002765]},"properties":{"name":"La Mécanique des Fluides","category":"Concert Bar","icon":"🎵","address":"1 rue Riquet 31000 Toulouse","logo":"","events":[{"date":"2025-10-03","time":"20h","price":"Prix Libre","desc":"SNAKE EAT SNAKE (EMB) + LARSOVICH (postpk minimal wave)","artist":"SNAKE EAT SNAKE (EMB) + LARSOVICH"}]}},{"type":"Feature","id":"toulouse-distorama-le-ravelin","geometry":{"type":"Point","coordinates":[1.4282089,43.599082]},"properties":{"name":"Le Ravelin","category":"Concert Bar","icon":"🎵","address":"6 place du Ravelin 31300 Toulouse","logo":"le_ravelin.png","events":[{"date":"2025-10-03","time":"20h","price":"5€","desc":"YGGL (grunge/shoegaze) + MARTY WENT BACK (pop pk/grunge)","artist":"YGGL (grunge/shoegaze) + MARTY WENT BACK"}]}},{"type":"Feature","id":"toulouse-distorama-gloria","geometry":{"type":"Point","coordinates":[1.4439408,43.6014516]},"properties":{"name":"Gloria","category":"Concert Bar","icon":"🎵","address":"4 rue Peyras 31000 Toulouse","logo":"","events":[{"date":"2025-10-03","time":"19h30","price":"Prix Libre","desc":"JAKAARLO (musique sénégalaise)","artist":"JAKAARLO"}]}},{"type":"Feature","id":"toulouse-distorama-bistrot-ducoin","geometry":{"type":"Point","coordinates":[1.4559708,43.6090065]},"properties":{"name":"Bistrot Ducoin","category":"Concert Bar","icon":"🎵","address":"40 rue du Général Jean Compans 31500 Toulouse","logo":"bistrot_ducoin.jpg","events":[{"date":"2025-10-03","time":"21h","price":"Prix Libre","desc":"2 BEERS + BULLSHIT (pk)","artist":"2 BEERS + BULLSHIT"}]}},{"type":"Feature","id":"toulouse-distorama-le-taquin","geometry":{"type":"Point","coordinates":[1.4278744,43.6059002]},"properties":{"name":"Le Taquin","category":"Concert Bar","icon":"🎵","address":"23 rue des Amidonniers 31300 Toulouse","logo":"","events":[{"date":"2025-10-03","time":"21h","price":"9/5€","desc":"CALAMITY (solo flûte harshnoisejazz) + MARLBORO BLED (jazzcore)","artist":"CALAMITY (solo flûte harshnoisejazz) + MARLBORO BLED"}]}},{"type":"Feature","id":"toulouse-distorama-the-petit-london","geometry":{"type":"Point","coordinates":[1.4538883,43.6008176]},"properties":{"name":"The Petit London","category":"Concert Bar","icon":"🎵","address":"7 rue Pierre-Paul Riquet 31000 Toulouse","logo":"","events":[{"date":"2025-10-03","time":"22h","price":"Gratuit","desc":"KONSTROY (résidence darkwave)","artist":"KONSTROY"}]}},{"type":"Feature","id":"toulouse-distorama-labo-des-arts","geometry":{"type":"Point","coordinates":[1.4652089,43.6055126]},"properties":{"name":"Labo Des Arts","category":"Concert Bar","icon":"🎵","address":"8 rue Clément 31500 Toulouse","logo":"","events":[{"date":"2025-10-03","time":"","price":"19H30","desc":"WORDS OF SARA RELEASE PARTY (fk) + KIERAN THORPE (fk)","artist":"WORDS OF SARA RELEASE PARTY (fk) + KIERAN THORPE"}]}},{"type":"Feature","id":"toulouse-distorama-little-o-clock","geometry":{"type":"Point","coordinates":[1.5208073,43.6444525]},"properties":{"name":"Little O'Clock","category":"Concert Bar","icon":"🎵","address":"75 allée Jean Jaurès 31000 Toulouse","logo":"","events":[{"date":"2025-10-03","time":"21h","price":"Prix Libre","desc":"SPAGHETTICORE (harsh techno live machine) + NADOU LE RDV (dj set techno,trance,tribe) + MISS STRESS (dj set techno)","artist":"SPAGHETTICORE (harsh techno live machine) + NADOU LE RDV (dj set techno,trance,tribe) + MISS STRESS"}]}}]}