{"type":"FeatureCollection","features":[{"type":"Feature","id":"toulouse-distorama-le-ravelin","geometry":{"type":"Point","coordinates":[1.4282089,43.599082]},"properties":{"name":"Le Ravelin","category":"Concert Bar","icon":"fa-music","address":"6 place du Ravelin 31300 Toulouse","logo":"le_ravelin.png","events":[{"date":"2025-12-27","time":"20h","price":"Prix Libre","desc":"JACK & LOS DESTRIPADORES","artist":"JACK & LOS DESTRIPADORES","youtube_video_id":"","bandcamp_url":"","bandcamp_embed_url":""}]}},{"type":"Feature","id":"toulouse-distorama-boudu-pont","geometry":{"type":"Point","coordinates":[1.4363272,43.5988936]},"properties":{"name":"Boudu pont","category":"Concert Bar","icon":"fa-music","address":"1 rue de la République 31300 Toulouse","logo":"","events":[{"date":"2025-12-27","time":"22h","price":"Gratuit","desc":"BLIND TEST + BOOTYSHAKE","artist":"BLIND TEST + BOOTYSHAKE","youtube_video_id":"","bandcamp_url":"","bandcamp_embed_url":""}]}}]}