{"type":"FeatureCollection","features":[{"type":"Feature","id":"toulouse-distorama-le-winger","geometry":{"type":"Point","coordinates":[1.4516526,43.6108151]},"properties":{"name":"Le Winger","category":"Concert Bar","icon":"fa-music","address":"68 rue de Bayard 31000 Toulouse","logo":"","events":[{"date":"2025-10-05","time":"18h","price":"Prix Libre","desc":"PARNEPAR (post pk/Zagreb) + DRIM (coldwave)","artist":"PARNEPAR (post pk/Zagreb) + DRIM","youtube_video_id":"","bandcamp_url":"","bandcamp_embed_url":""}]}}]}