{"type":"FeatureCollection","features":[{"type":"Feature","id":"toulouse-distorama-flashback-cafe","geometry":{"type":"Point","coordinates":[1.4228928,43.6088839]},"properties":{"name":"Flashback Café","category":"Concert Bar","icon":"fa-music","address":"Allée de Brienne 31000 Toulouse","logo":"","events":[{"date":"2025-12-01","time":"20h","price":"Gratuit","desc":"Festival Synchro → Ciné-Concert \"FANTASTIC MUETS !\" avec EMILY MENER (synth pk)","artist":"","youtube_video_id":"","bandcamp_url":"","bandcamp_embed_url":""}]}},{"type":"Feature","id":"toulouse-distorama-le-dada","geometry":{"type":"Point","coordinates":[1.4383337,43.6123398]},"properties":{"name":"Le Dada","category":"Concert Bar","icon":"fa-music","address":"27 avenue Honoré Serres 31000 Toulouse","logo":"","events":[{"date":"2025-12-01","time":"21h","price":"Prix Libre","desc":"Festival Setmana Santa → DARKRAD (dark ambient) + UNDER/STANDING (ambient, noise, post-pk)","artist":"","youtube_video_id":"","bandcamp_url":"","bandcamp_embed_url":""},{"date":"2025-12-03","time":"20h30","price":"7/10€","desc":"Festival Setmana Santa → TWIN NOIR (synth-pk, post-pk/DE) + FRED RAJA (ebm, dark electronics) + DJ","artist":"","youtube_video_id":"","bandcamp_url":"","bandcamp_embed_url":""},{"date":"2025-12-04","time":"20h","price":"5/7/9 euros","desc":"DAS KINN (synthpk, kraut, EBM) + CUT FACE (darkwave et breakbeats)","artist":"DAS KINN (synthpk, kraut, EBM) + CUT FACE","youtube_video_id":"","bandcamp_url":"","bandcamp_embed_url":""},{"date":"2025-12-08","time":"20h30","price":"5€ adhésion annuelle","desc":"LES VIDÉOPHAGES (projection de courts-métrages)","artist":"","youtube_video_id":"","bandcamp_url":"","bandcamp_embed_url":""},{"date":"2025-12-10","time":"20h","price":"5/7/9€","desc":"ALIENS TEARS (darkwave / post pk/Tours) + AL/CE (new wave)","artist":"ALIENS TEARS (darkwave / post pk/Tours) + AL/CE","youtube_video_id":"hA94FPtO0kA","bandcamp_url":"","bandcamp_embed_url":""},{"date":"2025-12-11","time":"20h","price":"3/5/7 €","desc":"OZIBUT (dark dance weirdo, Bretagne) + SONS OF ACHAB (local dark electro)","artist":"OZIBUT (dark dance weirdo, Bretagne) + SONS OF ACHAB","youtube_video_id":"yuKPpIW-3JE","bandcamp_url":"","bandcamp_embed_url":""},{"date":"2025-12-18","time":"20h","price":"5€","desc":"WILD WOMEN (haunted dance pk) + KAVALIERS KASQUES (naive coldwave)","artist":"WILD WOMEN (haunted dance pk) + KAVALIERS KASQUES","youtube_video_id":"pLWR5xlmtUI","bandcamp_url":"","bandcamp_embed_url":""}]}},{"type":"Feature","id":"toulouse-distorama-theatre-de-la-cite-le-studio","geometry":{"type":"Point","coordinates":[1.4495094,43.6040582]},"properties":{"name":"Théâtre De La Cité","category":"Concert Bar","icon":"fa-music","address":"1 rue Pierre Baudis 31000 Toulouse","logo":"","events":[{"date":"2025-12-02","time":"19h","price":"Gratuit (sur réservation)","desc":"Festival Synchro → Ciné-Concert \"FLEUR DE LOTUS\" avec BARNABAIE (dream-pop folk)","artist":"","youtube_video_id":"","bandcamp_url":"","bandcamp_embed_url":""},{"date":"2025-12-03","time":"19h","price":"Gratuit (sur réservation)","desc":"Festival Synchro → Ciné-Concert \"SPORTMIX\" avec LES MONTÉS PIÉTONS (jazz rk)","artist":"","youtube_video_id":"","bandcamp_url":"","bandcamp_embed_url":""},{"date":"2025-12-04","time":"19h","price":"Gratuit (sur réservation)","desc":"Festival Synchro → Ciné-Concert \"CONTE CRUEL\" avec NICO SENTENAC, FRANÇOIS REMIGI ET DIDIER DELRIEUX (drone)","artist":"","youtube_video_id":"","bandcamp_url":"","bandcamp_embed_url":""},{"date":"2025-12-05","time":"19h","price":"Gratuit (sur réservation)","desc":"Festival Synchro → Ciné-Concert \"LOT IN SODOM\" avec ELIZABETH VOGLER (rituel vocal)","artist":"","youtube_video_id":"","bandcamp_url":"","bandcamp_embed_url":""},{"date":"2025-12-06","time":"19h","price":"Gratuit (sur réservation)","desc":"Festival Synchro → Ciné-Concert \"JÉSUS SUPERSTAR\" avec RAPHAËL HOWSON (claviers, machines)","artist":"","youtube_video_id":"","bandcamp_url":"","bandcamp_embed_url":""}]}},{"type":"Feature","id":"toulouse-distorama-bistrot-ducoin","geometry":{"type":"Point","coordinates":[1.4559708,43.6090065]},"properties":{"name":"Bistrot Ducoin","category":"Concert Bar","icon":"fa-music","address":"40 rue du Général Jean Compans 31500 Toulouse","logo":"bistrot_ducoin.jpg","events":[{"date":"2025-12-02","time":"19h","price":"Gratuit","desc":"Vernissage AURÉLIEN LAFON ET MAYA REQUI + DÉGUSTATION VIN SENTOUT","artist":"","youtube_video_id":"","bandcamp_url":"","bandcamp_embed_url":""},{"date":"2025-12-04","time":"19h30","price":"Prix Libre","desc":"TWO SEASONS (reprise de standards)","artist":"TWO SEASONS","youtube_video_id":"","bandcamp_url":"","bandcamp_embed_url":""},{"date":"2025-12-05","time":"21h","price":"Prix Libre","desc":"KAKAPHENIA 12 (karaoké battle)","artist":"KAKAPHENIA 12","youtube_video_id":"","bandcamp_url":"","bandcamp_embed_url":""},{"date":"2025-12-11","time":"19h30","price":"Prix Libre","desc":"NO NOISE NO REDUCTION (trio sax)","artist":"NO NOISE NO REDUCTION","youtube_video_id":"ERhdXjy1Px4","bandcamp_url":"","bandcamp_embed_url":""},{"date":"2025-12-12","time":"21h","price":"Prix Libre","desc":"SILLY WALK (pk)","artist":"SILLY WALK","youtube_video_id":"","bandcamp_url":"","bandcamp_embed_url":""},{"date":"2025-12-18","time":"19h30","price":"Prix Libre","desc":"Blues Au Coin Du Zinc","artist":"Blues Au Coin Du Zinc","youtube_video_id":"","bandcamp_url":"","bandcamp_embed_url":""},{"date":"2025-12-19","time":"21h","price":"Prix Libre","desc":"Soirée Le Père Noël Est Une Ordure (Débile!) + DJ ZOMBI","artist":"","youtube_video_id":"","bandcamp_url":"","bandcamp_embed_url":""}]}},{"type":"Feature","id":"toulouse-distorama-american-cosmograph","geometry":{"type":"Point","coordinates":[1.4467818,43.6039842]},"properties":{"name":"American Cosmograph","category":"Cinema","icon":"fa-film","address":"24 rue Montardy 31000 Toulouse","logo":"american_cosmograph.jpg","events":[{"date":"2025-12-02","time":"20h30","price":"8€ ou abonnement","desc":"Ciné-club Girls Don't Cry → Projection Documentaire Trans Memoria + Discussion","artist":"","youtube_video_id":"","bandcamp_url":"","bandcamp_embed_url":""}]}},{"type":"Feature","id":"toulouse-distorama-le-ravelin","geometry":{"type":"Point","coordinates":[1.4282089,43.599082]},"properties":{"name":"Le Ravelin","category":"Concert Bar","icon":"fa-music","address":"6 place du Ravelin 31300 Toulouse","logo":"le_ravelin.png","events":[{"date":"2025-12-02","time":"20h","price":"5€+","desc":"LOONS (post hxc-shoegaze/Mtp) + AVALON BLOOM (shoegaze, post pk, dream pop/Mtp)","artist":"LOONS (post hxc-shoegaze/Mtp) + AVALON BLOOM","youtube_video_id":"t8vosdKv52U","bandcamp_url":"","bandcamp_embed_url":""},{"date":"2025-12-03","time":"20h","price":"5€+","desc":"THE COVIDS (pk rk/Amsterdam) + THE TENSIONS (grg pk/Mont-de-Marsan)","artist":"THE COVIDS (pk rk/Amsterdam) + THE TENSIONS","youtube_video_id":"qx7ul0mw2us","bandcamp_url":"","bandcamp_embed_url":""},{"date":"2025-12-05","time":"20h","price":"7€","desc":"STEREOÏD + PATROL (heavy pk)","artist":"STEREOÏD + PATROL","youtube_video_id":"","bandcamp_url":"","bandcamp_embed_url":""},{"date":"2025-12-07","time":"","price":"Journée","desc":"Fripes And Spritz N°7","artist":"Fripes And Spritz N°7","youtube_video_id":"","bandcamp_url":"","bandcamp_embed_url":""},{"date":"2025-12-12","time":"19h","price":"Prix Libre","desc":"LES RENTIERS (pk/rap hxc) + TOTO SADYK (rap hxc)","artist":"LES RENTIERS (pk/rap hxc) + TOTO SADYK","youtube_video_id":"T7sQ602k8oI","bandcamp_url":"https://lesrentiers.bandcamp.com/","bandcamp_embed_url":""},{"date":"2025-12-13","time":"19h30","price":"5€","desc":"MOTORMOUTH (Bxl, skate pk dégénéré)+ LES CROTALES (grg hxc)","artist":"MOTORMOUTH (Bxl, skate pk dégénéré)+ LES CROTALES","youtube_video_id":"KnrhGLV7Uno","bandcamp_url":"","bandcamp_embed_url":""},{"date":"2025-12-18","time":"","price":"Présentation 18h / Concerts 20h","desc":"Présentation Du Livre De Llcool Jo \"LE FUTUR A DE LA MÉMOIRE \" + MAGICIEN WINDOWS (synth & teaser) + JÉRÔME SAGE ( honte de la chanson française)","artist":"Présentation Du Livre De Llcool Jo \"LE FUTUR A DE LA MÉMOIRE \" + MAGICIEN WINDOWS (synth & teaser) + JÉRÔME SAGE","youtube_video_id":"","bandcamp_url":"","bandcamp_embed_url":""},{"date":"2025-12-19","time":"19h","price":"5€","desc":"GATTACA + KATAPOLA (psyche pop folk)","artist":"GATTACA + KATAPOLA","youtube_video_id":"","bandcamp_url":"","bandcamp_embed_url":""},{"date":"2025-12-26","time":"20h","price":"??€","desc":"BELLUM (?)","artist":"BELLUM","youtube_video_id":"","bandcamp_url":"","bandcamp_embed_url":""},{"date":"2025-12-27","time":"20h","price":"Prix Libre","desc":"JACK & LOS DESTRIPADORES","artist":"JACK & LOS DESTRIPADORES","youtube_video_id":"","bandcamp_url":"","bandcamp_embed_url":""}]}},{"type":"Feature","id":"toulouse-distorama-le-rex","geometry":{"type":"Point","coordinates":[1.438322,43.6119889]},"properties":{"name":"Le Rex","category":"Concert Bar","icon":"fa-music","address":"Le Rex Toulouse","logo":"","events":[{"date":"2025-12-04","time":"19h30","price":"22€ (100 places gratos de 19h30 à 20h)","desc":"Festival Setmana Santa → SELOFAN (darkwave, post-pk/GR) + WILLIAM BLEAK (darkwave, ebm/DE)","artist":"","youtube_video_id":"","bandcamp_url":"","bandcamp_embed_url":""}]}},{"type":"Feature","id":"toulouse-distorama-betty-pop-s","geometry":{"type":"Point","coordinates":[1.4285574,43.5988092]},"properties":{"name":"Betty Pop's","category":"Concert Bar","icon":"fa-music","address":"Place du Ravelin 31300 Toulouse","logo":"","events":[{"date":"2025-12-04","time":"22h","price":"Gratuit","desc":"Festival Setmana Santa → AFTER SELOFAN : WALLIE (goth rk, darkwave) + KONSTROY (darkwave, post-pk)","artist":"","youtube_video_id":"","bandcamp_url":"","bandcamp_embed_url":""}]}},{"type":"Feature","id":"toulouse-distorama-boudu-pont","geometry":{"type":"Point","coordinates":[1.4363272,43.5988936]},"properties":{"name":"Boudu pont","category":"Concert Bar","icon":"fa-music","address":"1 rue de la République 31300 Toulouse","logo":"","events":[{"date":"2025-12-05","time":"21h","price":"Gratuit","desc":"COLLECTIF CABANE, DJ SET (house /techno)","artist":"COLLECTIF CABANE, DJ SET","youtube_video_id":"","bandcamp_url":"","bandcamp_embed_url":""},{"date":"2025-12-06","time":"21h","price":"Gratuit","desc":"ÉTÉ LILA ET DJ SET LATINO HOUSE (soirée latino samba)","artist":"","youtube_video_id":"","bandcamp_url":"","bandcamp_embed_url":""},{"date":"2025-12-12","time":"21h","price":"Gratuit","desc":"DJ SET, CHEMICAL DISTRICT (funky hip-hop, UK grg, d’n’b)","artist":"DJ SET, CHEMICAL DISTRICT","youtube_video_id":"","bandcamp_url":"","bandcamp_embed_url":""},{"date":"2025-12-13","time":"22h","price":"Gratuit","desc":"Quiz Culture Générale, Musical + BOOTYSHAKE","artist":"Quiz Culture Générale, Musical + BOOTYSHAKE","youtube_video_id":"","bandcamp_url":"","bandcamp_embed_url":""},{"date":"2025-12-14","time":"18h","price":"Gratuit","desc":"ALICE (poésie chantée et piano)","artist":"ALICE","youtube_video_id":"","bandcamp_url":"","bandcamp_embed_url":""},{"date":"2025-12-16","time":"20h30","price":"Gratuit","desc":"Jam Irlandaise","artist":"Jam Irlandaise","youtube_video_id":"","bandcamp_url":"","bandcamp_embed_url":""},{"date":"2025-12-19","time":"21h","price":"Gratuit","desc":"MOYA DUO \"JINGLE BELLS RK\" (jazzy rk)","artist":"MOYA DUO \"JINGLE BELLS RK\"","youtube_video_id":"","bandcamp_url":"","bandcamp_embed_url":""},{"date":"2025-12-20","time":"22h","price":"Gratuit","desc":"KARAOKÉ + BOOTYSHAKE","artist":"KARAOKÉ + BOOTYSHAKE","youtube_video_id":"","bandcamp_url":"","bandcamp_embed_url":""},{"date":"2025-12-26","time":"21h","price":"Gratuit","desc":"DUBMWASSA, DJ SET, (tropical bass, dub step, uk grg)","artist":"DUBMWASSA, DJ SET,","youtube_video_id":"","bandcamp_url":"","bandcamp_embed_url":""},{"date":"2025-12-27","time":"22h","price":"Gratuit","desc":"BLIND TEST + BOOTYSHAKE","artist":"BLIND TEST + BOOTYSHAKE","youtube_video_id":"","bandcamp_url":"","bandcamp_embed_url":""},{"date":"2025-12-31","time":"21h","price":"Gratuit","desc":"DJ Set \"AU BOUDU SOUND\" (bass music, reggae, drum 'n' bass)","artist":"DJ Set \"AU BOUDU SOUND\"","youtube_video_id":"","bandcamp_url":"","bandcamp_embed_url":""}]}},{"type":"Feature","id":"toulouse-distorama-gloria","geometry":{"type":"Point","coordinates":[1.4439408,43.6014516]},"properties":{"name":"Gloria","category":"Concert Bar","icon":"fa-music","address":"4 rue Peyras 31000 Toulouse","logo":"","events":[{"date":"2025-12-05","time":"19h","price":"Gratuit","desc":"Vernissage Expo “JEUX 2 MAUX” (jusqu’au 30/12) D’AXEL SANDRI","artist":"","youtube_video_id":"","bandcamp_url":"","bandcamp_embed_url":""},{"date":"2025-12-19","time":"21h","price":"Gratuit","desc":"Blind Test","artist":"Blind Test","youtube_video_id":"","bandcamp_url":"","bandcamp_embed_url":""}]}},{"type":"Feature","id":"toulouse-distorama-thirsty-monk","geometry":{"type":"Point","coordinates":[1.4538991,43.6090951]},"properties":{"name":"The Thirsty Monk","category":"Concert Bar","icon":"fa-music","address":"Allées Jean Jaurès 31000 Toulouse","logo":"","events":[{"date":"2025-12-05","time":"19h30","price":"Gratuit","desc":"NICOLAS WOILET (blues/grunge) + ZAPOÏ (stoner/grg)","artist":"NICOLAS WOILET (blues/grunge) + ZAPOÏ","youtube_video_id":"c__89LFRB7I","bandcamp_url":"","bandcamp_embed_url":""}]}},{"type":"Feature","id":"toulouse-distorama-le-winger","geometry":{"type":"Point","coordinates":[1.4516526,43.6108151]},"properties":{"name":"Le Winger","category":"Concert Bar","icon":"fa-music","address":"68 rue de Bayard 31000 Toulouse","logo":"","events":[{"date":"2025-12-05","time":"20h","price":"Prix Libre","desc":"HELLTHORN (black metal pk/Berlin) + CORPS VIDÉS (powerviolence)","artist":"HELLTHORN (black metal pk/Berlin) + CORPS VIDÉS","youtube_video_id":"0ljD8UeYikQ","bandcamp_url":"","bandcamp_embed_url":""},{"date":"2025-12-06","time":"19h30","price":"5€","desc":"IRON LUNGS (stoner-pk) + PRESIDENT BUTCHER (stoner pk'n'roll)","artist":"IRON LUNGS (stoner-pk) + PRESIDENT BUTCHER","youtube_video_id":"","bandcamp_url":"","bandcamp_embed_url":""}]}},{"type":"Feature","id":"toulouse-distorama-le-chorus","geometry":{"type":"Point","coordinates":[1.428844,43.5852109]},"properties":{"name":"Le Chorus","category":"Concert Bar","icon":"fa-music","address":"Le Chorus Toulouse","logo":"","events":[{"date":"2025-12-05","time":"20h30","price":"18/22€","desc":"Festival Setmana Santa → THIS ETERNAL DECAY (post-pk, indus goth/IT) + MORWAN (eastern post-pk/UK) + NIGHT IN ATHENS (coldwave, synth/GR-GB)","artist":"","youtube_video_id":"","bandcamp_url":"","bandcamp_embed_url":""}]}},{"type":"Feature","id":"toulouse-distorama-le-ravelin-sent-le-sapin","geometry":{"type":"Point","coordinates":[1.4282089,43.599082]},"properties":{"name":"Le Ravelin","category":"Concert Bar","icon":"fa-music","address":"6 place du Ravelin 31300 Toulouse","logo":"","events":[{"date":"2025-12-06","time":"","price":"Marché de 11h à 18h / Concerts 20h","desc":"Marché Du Noël Des Créateur·rices + BIG KITTY (pop sensation) + FOGGY TAPES (sativa rk)","artist":"","youtube_video_id":"","bandcamp_url":"","bandcamp_embed_url":""}]}},{"type":"Feature","id":"toulouse-distorama-metronum","geometry":{"type":"Point","coordinates":[1.4506,43.6415]},"properties":{"name":"Le Metronum","category":"Concert Bar","icon":"fa-music","address":"Rond-Point de Mondonville 31200 Toulouse","logo":"","events":[{"date":"2025-12-06","time":"20h","price":"20/25€","desc":"Festival Setmana Santa → CLAN OF XYMOX (goth-rk, darkwave/NL) + DARKWAYS (darkwave, synth/ES)","artist":"","youtube_video_id":"","bandcamp_url":"","bandcamp_embed_url":""}]}},{"type":"Feature","id":"toulouse-distorama-atelier-velpo-23-rue-joseph-vie-31300","geometry":{"type":"Point","coordinates":[1.4321547,43.5976369]},"properties":{"name":"Atelier Velpo","category":"Concert Bar","icon":"fa-music","address":"23 rue Joseph Vié 31300 Toulouse","logo":"","events":[{"date":"2025-12-06","time":"","price":"19h (aussi Dim 07/12 de 11h à 19h)","desc":"Expo-marché De Créateur·rices + TOMBOLA + CONCERTS: RUBEN&PAUL (jazz) ET DANGER ZOO (chanson nonchalante)","artist":"","youtube_video_id":"","bandcamp_url":"","bandcamp_embed_url":""},{"date":"2025-12-07","time":"","price":"11h à 19h","desc":"Expo-marché De Créateur·rices (microédition, illustrations, bijoux) + Tombola + Concerts → RUBEN & PAUL (jazz) + DANGER ZOO (chanson nonchalante) - Buvette et petite cantine","artist":"","youtube_video_id":"","bandcamp_url":"","bandcamp_embed_url":""}]}},{"type":"Feature","id":"toulouse-distorama-axis-musique","geometry":{"type":"Point","coordinates":[1.3974931,43.5472325]},"properties":{"name":"Axis Music","category":"Concert Bar","icon":"fa-music","address":"7 impasse Boudeville 31100 Toulouse","logo":"","events":[{"date":"2025-12-06","time":"20h","price":"10€","desc":"TV MVLO (Portugal) + SCORCHED EARTH + SEVERED SOUL (death metal)","artist":"TV MVLO (Portugal) + SCORCHED EARTH + SEVERED SOUL","youtube_video_id":"","bandcamp_url":"","bandcamp_embed_url":""}]}},{"type":"Feature","id":"toulouse-distorama-le-cameleon","geometry":{"type":"Point","coordinates":[1.433005,43.599585]},"properties":{"name":"Le Caméléon","category":"Concert Bar","icon":"fa-music","address":"19 rue Pont Saint Pierre 31300 Toulouse","logo":"","events":[{"date":"2025-12-06","time":"19h30","price":"Prix Libre","desc":"MARIE BAXERRES (synth-voice) + MIROIR ɿIOɿIM (poetic noise ambiant) + STRIE (perf de non-lieu)","artist":"MARIE BAXERRES (synth-voice) + MIROIR ɿIOɿIM (poetic noise ambiant) + STRIE","youtube_video_id":"DxSioT2b_nE","bandcamp_url":"","bandcamp_embed_url":""}]}},{"type":"Feature","id":"toulouse-distorama-dalidaark","geometry":{"type":"Point","coordinates":[1.4318769,43.5988684]},"properties":{"name":"Dalidaark","category":"Concert Bar","icon":"fa-music","address":"39 rue Réclusane 31300 Toulouse","logo":"dalidaark.png","events":[{"date":"2025-12-09","time":"21h","price":"Gratuit","desc":"RUMEUR (emo/post/hxc)","artist":"RUMEUR","youtube_video_id":"","bandcamp_url":"","bandcamp_embed_url":""},{"date":"2025-12-13","time":"20h","price":"Gratuit","desc":"HININ (post pk) + TRAIT D’UNION + MONDE MODERNE","artist":"HININ (post pk) + TRAIT D’UNION + MONDE MODERNE","youtube_video_id":"","bandcamp_url":"","bandcamp_embed_url":""},{"date":"2025-12-18","time":"20h","price":"Gratuit","desc":"LES SHAKIRAL (Chorale féministe)","artist":"LES SHAKIRAL","youtube_video_id":"","bandcamp_url":"","bandcamp_embed_url":""},{"date":"2025-12-20","time":"20h","price":"Gratuit","desc":"Soirée Drag n Cult (drag shows)","artist":"","youtube_video_id":"","bandcamp_url":"","bandcamp_embed_url":""}]}},{"type":"Feature","id":"toulouse-distorama-la-mecanique-des-fluides","geometry":{"type":"Point","coordinates":[1.4537647,43.6072494]},"properties":{"name":"La Mécanique des Fluides","category":"Concert Bar","icon":"fa-music","address":"1 rue Riquet 31000 Toulouse","logo":"","events":[{"date":"2025-12-12","time":"19h","price":"Prix Libre","desc":"A TERRE (pk hxc/Pays Basque) + BLOD (sludge/doom/Bdx)","artist":"A TERRE (pk hxc/Pays Basque) + BLOD","youtube_video_id":"","bandcamp_url":"","bandcamp_embed_url":""},{"date":"2025-12-13","time":"21h","price":"Gratuit","desc":"SATURNALES PAR NEON KULT (DJ set cyberpk/electro pk/dark electro)","artist":"SATURNALES PAR NEON KULT","youtube_video_id":"","bandcamp_url":"","bandcamp_embed_url":""}]}},{"type":"Feature","id":"toulouse-distorama-the-petit-london","geometry":{"type":"Point","coordinates":[1.4538883,43.6008176]},"properties":{"name":"The Petit London","category":"Concert Bar","icon":"fa-music","address":"7 rue Pierre-Paul Riquet 31000 Toulouse","logo":"","events":[{"date":"2025-12-12","time":"22h","price":"Gratuit","desc":"KONSTROY (darkwave, ebm)","artist":"KONSTROY","youtube_video_id":"","bandcamp_url":"https://bandcamp.com/konstroy","bandcamp_embed_url":""}]}},{"type":"Feature","id":"toulouse-distorama-radio-fmr","geometry":{"type":"Point","coordinates":[1.4487374,43.6153004]},"properties":{"name":"Radio FMR","category":"Radio","icon":"fa-tower-broadcast","address":"9 boulevard des Minimes 31200 Toulouse","logo":"radio_fmr.png","events":[{"date":"2025-12-13","time":"19h","price":"Prix Libre","desc":"ACAB Party → PHK (pk, rap) + LES RENTIERS (pk, rap hxc) + SILLY WALK (pk rk) ET KONTROLL TEK (electro pk)","artist":"ACAB Party → PHK (pk, rap) + LES RENTIERS (pk, rap hxc) + SILLY WALK (pk rk) ET KONTROLL TEK","youtube_video_id":"T7sQ602k8oI","bandcamp_url":"https://lesrentiers.bandcamp.com/","bandcamp_embed_url":""}]}},{"type":"Feature","id":"toulouse-distorama-litle-o-clock","geometry":{"type":"Point","coordinates":[1.5208073,43.6444525]},"properties":{"name":"Little O'Clock","category":"Concert Bar","icon":"fa-music","address":"75 allée Jean Jaurès 31000 Toulouse","logo":"","events":[{"date":"2025-12-13","time":"20h","price":"Prix Libre","desc":"MEMENTO MORI (Metalcore) - DAMN HIT (Hardcore pk) - MR MAD MOOSE (Stoner)","artist":"MEMENTO MORI (Metalcore) - DAMN HIT (Hardcore pk) - MR MAD MOOSE","youtube_video_id":"","bandcamp_url":"","bandcamp_embed_url":""}]}},{"type":"Feature","id":"toulouse-distorama-little-o-clock","geometry":{"type":"Point","coordinates":[1.5208073,43.6444525]},"properties":{"name":"Little O'Clock","category":"Concert Bar","icon":"fa-music","address":"75 allée Jean Jaurès 31000 Toulouse","logo":"","events":[{"date":"2025-12-20","time":"20h","price":"Prix Libre","desc":"THROUGH (stoner/doom) + CHIHUAS OF DEPTHS (rk alternatif) + WUOLJA (stoner, barcelone)","artist":"THROUGH (stoner/doom) + CHIHUAS OF DEPTHS (rk alternatif) + WUOLJA","youtube_video_id":"RTItqg9_36A","bandcamp_url":"","bandcamp_embed_url":""}]}}]}