{"type":"FeatureCollection","features":[{"type":"Feature","id":"toulouse-distorama-dalidaark","geometry":{"type":"Point","coordinates":[1.4318769,43.5988684]},"properties":{"name":"Dalidaark","category":"Concert Bar","icon":"fa-music","address":"39 rue Réclusane 31300 Toulouse","logo":"dalidaark.png","events":[{"date":"2025-11-13","time":"20h30","price":"Prix Libre","desc":"SARRAM (dark amb/post rk) + SOPOORIFIC (dark amb/dungeon synth)","artist":"SARRAM (dark amb/post rk) + SOPOORIFIC","youtube_video_id":"","bandcamp_url":"","bandcamp_embed_url":""}]}},{"type":"Feature","id":"toulouse-distorama-bistrot-ducoin","geometry":{"type":"Point","coordinates":[1.4559708,43.6090065]},"properties":{"name":"Bistrot Ducoin","category":"Concert Bar","icon":"fa-music","address":"40 rue du Général Jean Compans 31500 Toulouse","logo":"bistrot_ducoin.jpg","events":[{"date":"2025-11-13","time":"19h30","price":"Prix Libre","desc":"DEAD + ZEAD (poesie sonore)","artist":"DEAD + ZEAD","youtube_video_id":"","bandcamp_url":"","bandcamp_embed_url":""}]}}]}