{"type":"FeatureCollection","features":[{"type":"Feature","id":"toulouse-distorama-la-mecanique-des-fluides","geometry":{"type":"Point","coordinates":[1.4537647,43.6072494]},"properties":{"name":"La Mécanique des Fluides","category":"Concert Bar","icon":"fa-music","address":"1 rue Riquet 31000 Toulouse","logo":"","events":[{"date":"2025-11-15","time":"20h","price":"Prix Libre","desc":"CLEGANE (doom/grunge/Paris) + KAAALBAR (stoner doom/sludge)","artist":"CLEGANE (doom/grunge/Paris) + KAAALBAR","youtube_video_id":"","bandcamp_url":"","bandcamp_embed_url":""}]}},{"type":"Feature","id":"toulouse-distorama-le-winger","geometry":{"type":"Point","coordinates":[1.4516526,43.6108151]},"properties":{"name":"Le Winger","category":"Concert Bar","icon":"fa-music","address":"68 rue de Bayard 31000 Toulouse","logo":"","events":[{"date":"2025-11-15","time":"19h","price":"5/7€ suggérés","desc":"WICCANS (pk hxc/TX) + MAKAI (grindcore) + BTK ABORTERS (pk hxc)","artist":"WICCANS (pk hxc/TX) + MAKAI (grindcore) + BTK ABORTERS","youtube_video_id":"","bandcamp_url":"","bandcamp_embed_url":""}]}},{"type":"Feature","id":"toulouse-distorama-little-o-clock","geometry":{"type":"Point","coordinates":[1.5208073,43.6444525]},"properties":{"name":"Little O'Clock","category":"Concert Bar","icon":"fa-music","address":"75 allée Jean Jaurès 31000 Toulouse","logo":"","events":[{"date":"2025-11-15","time":"21h","price":"Gratuit","desc":"SING TO THE HILLS (karaoké metal pk rk... et pas que, by Pascal Navrant & Napalm Jess)","artist":"SING TO THE HILLS","youtube_video_id":"","bandcamp_url":"","bandcamp_embed_url":""}]}},{"type":"Feature","id":"toulouse-distorama-l-engrenage","geometry":{"type":"Point","coordinates":[1.4880684,43.6274411]},"properties":{"name":"L'Engrenage","category":"Concert Bar","icon":"fa-music","address":"14 rue Louis Renault 31130 Balma","logo":"","events":[{"date":"2025-11-15","time":"20h","price":"5€","desc":"DIRTY 5 (rk) + MONDASHAWAN (stoner) + BADASS MOTHER FUZZERS (grg)","artist":"DIRTY 5 (rk) + MONDASHAWAN (stoner) + BADASS MOTHER FUZZERS","youtube_video_id":"G-W1SORa3ss","bandcamp_url":"","bandcamp_embed_url":""}]}},{"type":"Feature","id":"toulouse-distorama-boudu-pont","geometry":{"type":"Point","coordinates":[1.4363272,43.5988936]},"properties":{"name":"Boudu pont","category":"Concert Bar","icon":"fa-music","address":"1 rue de la République 31300 Toulouse","logo":"","events":[{"date":"2025-11-15","time":"22h","price":"","desc":"Quizz musical","artist":"Quizz musical","youtube_video_id":"","bandcamp_url":"","bandcamp_embed_url":""}]}}]}