{"type":"FeatureCollection","features":[{"type":"Feature","id":"toulouse-distorama-bistrot-ducoin","geometry":{"type":"Point","coordinates":[1.4559708,43.6090065]},"properties":{"name":"Bistrot Ducoin","category":"Concert Bar","icon":"🎵","address":"40 rue du Général Jean Compans 31500 Toulouse","logo":"bistrot_ducoin.jpg","events":[{"time":"19h","price":"Gratuit","desc":"Vernissage AURÉLIEN LAFON ET MAYA REQUI + DÉGUSTATION VIN SENTOUT","artist":""}]}},{"type":"Feature","id":"toulouse-distorama-american-cosmograph","geometry":{"type":"Point","coordinates":[1.4467818,43.6039842]},"properties":{"name":"American Cosmograph","category":"Cinema","icon":"🎬","address":"24 rue Montardy 31000 Toulouse","logo":"american_cosmograph.jpg","events":[{"time":"20h30","price":"8€ ou abonnement","desc":"Ciné-club Girls Don't Cry → Projection Documentaire Trans Memoria + Discussion","artist":""}]}},{"type":"Feature","id":"toulouse-distorama-le-ravelin","geometry":{"type":"Point","coordinates":[1.4282089,43.599082]},"properties":{"name":"Le Ravelin","category":"Concert Bar","icon":"🎵","address":"6 place du Ravelin 31300 Toulouse","logo":"le_ravelin.png","events":[{"time":"20h","price":"5€+","desc":"LOONS (post hxc-shoegaze/Mtp) + AVALON BLOOM (shoegaze, post pk, dream pop/Mtp)","artist":"LOONS (post hxc-shoegaze/Mtp) + AVALON BLOOM"}]}}]}