{"type":"FeatureCollection","features":[{"type":"Feature","id":"toulouse-distorama-le-ravelin","geometry":{"type":"Point","coordinates":[1.4282089,43.599082]},"properties":{"name":"Le Ravelin","category":"Concert Bar","icon":"fa-music","address":"6 place du Ravelin 31300 Toulouse","logo":"le_ravelin.png","events":[{"date":"2025-11-07","time":"20h","price":"5€","desc":"CEYLON (indie rk)","artist":"CEYLON","youtube_video_id":"Eq5a5I-iSGM","bandcamp_url":"","bandcamp_embed_url":""}]}},{"type":"Feature","id":"toulouse-distorama-gloria","geometry":{"type":"Point","coordinates":[1.4439408,43.6014516]},"properties":{"name":"Gloria","category":"Concert Bar","icon":"fa-music","address":"4 rue Peyras 31000 Toulouse","logo":"","events":[{"date":"2025-11-07","time":"19h","price":"Gratuit","desc":"Vernissage expo « Vice caché » de Franeck","artist":"","youtube_video_id":"","bandcamp_url":"","bandcamp_embed_url":""}]}},{"type":"Feature","id":"toulouse-distorama-le-bistrot-du-coin","geometry":{"type":"Point","coordinates":[1.4559708,43.6090065]},"properties":{"name":"Bistrot Ducoin","category":"Concert Bar","icon":"fa-music","address":"40 rue du Général Jean Compans 31500 Toulouse","logo":"","events":[{"date":"2025-11-07","time":"20h","price":"Prix Libre","desc":"GARONA (rk) + IRON LUNGS (stoner pk)","artist":"GARONA (rk) + IRON LUNGS","youtube_video_id":"nnwq6oScWkM","bandcamp_url":"","bandcamp_embed_url":""}]}},{"type":"Feature","id":"toulouse-distorama-boudu-pont","geometry":{"type":"Point","coordinates":[1.4363272,43.5988936]},"properties":{"name":"Boudu pont","category":"Concert Bar","icon":"fa-music","address":"1 rue de la République 31300 Toulouse","logo":"","events":[{"date":"2025-11-07","time":"21h","price":"Gratuit","desc":"MAEVE + LIEP (indie pop/dream pop/brit pop rk)","artist":"MAEVE + LIEP","youtube_video_id":"","bandcamp_url":"","bandcamp_embed_url":""}]}},{"type":"Feature","id":"toulouse-distorama-la-mecanique-des-fluides","geometry":{"type":"Point","coordinates":[1.4537749,43.6002765]},"properties":{"name":"La Mécanique des Fluides","category":"Concert Bar","icon":"fa-music","address":"1 rue Riquet 31000 Toulouse","logo":"","events":[{"date":"2025-11-07","time":"20h","price":"Prix Libre","desc":"WORMSAND (sludge/grunge)","artist":"WORMSAND","youtube_video_id":"","bandcamp_url":"","bandcamp_embed_url":""}]}},{"type":"Feature","id":"toulouse-distorama-le-dada","geometry":{"type":"Point","coordinates":[1.4383337,43.6123398]},"properties":{"name":"Le Dada","category":"Concert Bar","icon":"fa-music","address":"27 avenue Honoré Serres 31000 Toulouse","logo":"","events":[{"date":"2025-11-07","time":"21h","price":"7/10€","desc":"ECHOBERYL (darkwave ebm) + ELEGANT BLITZ (electro pop synth-wave)","artist":"ECHOBERYL (darkwave ebm) + ELEGANT BLITZ","youtube_video_id":"_B6cQFW8e5A","bandcamp_url":"","bandcamp_embed_url":""}]}},{"type":"Feature","id":"toulouse-distorama-le-motor","geometry":{"type":"Point","coordinates":[1.4502034,43.6225201]},"properties":{"name":"Le Motor","category":"Concert Bar","icon":"fa-music","address":"Le Motor Toulouse","logo":"","events":[{"date":"2025-11-07","time":"19h","price":"Prix Libre","desc":"PRECIPICE (pk hxc/Nantes) + NOHZ (blackened pk) + BLACK DROSERA (powerviolence)","artist":"PRECIPICE (pk hxc/Nantes) + NOHZ (blackened pk) + BLACK DROSERA","youtube_video_id":"BQVlp6vhbzs","bandcamp_url":"","bandcamp_embed_url":""}]}},{"type":"Feature","id":"toulouse-distorama-l-engrenage","geometry":{"type":"Point","coordinates":[1.4880684,43.6274411]},"properties":{"name":"L'Engrenage","category":"Concert Bar","icon":"fa-music","address":"14 rue Louis Renault 31130 Balma","logo":"","events":[{"date":"2025-11-07","time":"18h","price":"10€ (pass 2 jrs 15€)","desc":"Festival  → MAGESÄR (Metalcore) + MUFFDIVER (Heavy Southern rk) + LEAHTAN (Metal) + DJ METALUS","artist":"","youtube_video_id":"","bandcamp_url":"","bandcamp_embed_url":""}]}}]}