{"type":"FeatureCollection","features":[{"type":"Feature","id":"toulouse-distorama-la-mecanique-des-fluides","geometry":{"type":"Point","coordinates":[1.4537749,43.6002765]},"properties":{"name":"La Mécanique des Fluides","category":"Concert Bar","icon":"🎵","address":"1 rue Riquet 31000 Toulouse","logo":"mecanique_des_fluides.png","events":[{"time":"19h30","price":"5/7€","desc":"LONG HOURS (lofi nowave/Aus) + UNDER 45 (postpk/Lyon) + LOVATARAXX (dark minimal synth/Lyon)","artist":"LONG HOURS (lofi nowave/Aus) + UNDER 45 (postpk/Lyon) + LOVATARAXX"}]}},{"type":"Feature","id":"toulouse-distorama-le-poinconneur","geometry":{"type":"Point","coordinates":[1.4544142,43.617283]},"properties":{"name":"Le Poinçonneur","category":"Concert Bar","icon":"🎵","address":"19bis rue du Faubourg Bonnefoy 31500 Toulouse","logo":"","events":[{"time":"18h","price":"Gratuit","desc":"Vernissage expo MALAUGURIO par MATTEO FALONE ( illu, print, zine, schlass) + guest live ambient-groove de Barbarie","artist":""}]}}]}