{"type":"FeatureCollection","features":[{"type":"Feature","id":"toulouse-distorama-la-mecanique-des-fluides","geometry":{"type":"Point","coordinates":[1.4537749,43.6002765]},"properties":{"name":"La Mécanique des Fluides","category":"Concert Bar","icon":"🎵","address":"1 rue Riquet 31000 Toulouse","logo":"","events":[{"time":"20h","price":"Prix Libre","desc":"SLUTY FIXX (glam/Mtp) + EVIL PHOENIX (hard rk)","artist":"SLUTY FIXX (glam/Mtp) + EVIL PHOENIX"}]}},{"type":"Feature","id":"toulouse-distorama-le-ravelin","geometry":{"type":"Point","coordinates":[1.4282089,43.599082]},"properties":{"name":"Le Ravelin","category":"Concert Bar","icon":"🎵","address":"6 place du Ravelin 31300 Toulouse","logo":"le_ravelin.png","events":[{"time":"20h","price":"Prix Libre","desc":"PFFF… (post-blues) + NO CUNT ACT (grg pk)","artist":"PFFF… (post-blues) + NO CUNT ACT"}]}},{"type":"Feature","id":"toulouse-distorama-american-cosmograph","geometry":{"type":"Point","coordinates":[1.4467818,43.6039842]},"properties":{"name":"American Cosmograph","category":"Cinema","icon":"🎬","address":"24 rue Montardy 31000 Toulouse","logo":"american_cosmograph.jpg","events":[{"time":"","price":"8€ ou carnet d'abonnement","desc":"Le Decolonial Film Festival → Projection documentaire Les Rivières à 17h30 + rencontre / projection film LYD à 20h30 + rencontre","artist":""}]}},{"type":"Feature","id":"toulouse-distorama-labo-des-arts","geometry":{"type":"Point","coordinates":[1.4652089,43.6055126]},"properties":{"name":"Labo Des Arts","category":"Concert Bar","icon":"🎵","address":"8 rue Clément 31500 Toulouse","logo":"","events":[{"time":"19h30","price":"11€","desc":"THE DARTS (rk grg/US) + SPACE BUCKET (electro pk)","artist":"THE DARTS (rk grg/US) + SPACE BUCKET"}]}},{"type":"Feature","id":"toulouse-distorama-boudu-pont","geometry":{"type":"Point","coordinates":[1.4363272,43.5988936]},"properties":{"name":"Boudu pont","category":"Concert Bar","icon":"🎵","address":"1 rue de la République 31300 Toulouse","logo":"","events":[{"time":"22h","price":"","desc":"Karaoké + Bootyshake","artist":"Karaoké + Bootyshake"}]}},{"type":"Feature","id":"toulouse-distorama-local-piquemil","geometry":{"type":"Point","coordinates":[1.4324351,43.5992796]},"properties":{"name":"Local Piquemil","category":"Concert Bar","icon":"🎵","address":"6 rue Piquemil 31300 Toulouse","logo":"","events":[{"time":"19h","price":"Prix Libre","desc":"Soirée de soutien à la campagne de financement : AQUA BB x TUTO (rap naïf) + DITA VON TEARS (dj set hyperpop/trance)","artist":""}]}}]}