{"type":"FeatureCollection","features":[{"type":"Feature","id":"toulouse-distorama-le-ravelin","geometry":{"type":"Point","coordinates":[1.4282089,43.599082]},"properties":{"name":"Le Ravelin","category":"Concert Bar","icon":"🎵","address":"6 place du Ravelin 31300 Toulouse","logo":"le_ravelin.png","events":[{"time":"20h","price":"8€","desc":"SUNDAY PANIC + APRIL FOOLS (post pk)","artist":"SUNDAY PANIC + APRIL FOOLS"}]}},{"type":"Feature","id":"toulouse-distorama-les-abattoirs","geometry":{"type":"Point","coordinates":[1.4291799,43.6012421]},"properties":{"name":"Les Abattoirs","category":"Concert Bar","icon":"🎵","address":"Allée Charles Malpel 31300 Toulouse","logo":"","events":[{"time":"20h","price":"10/7/5€","desc":"Festival SYNCHRO → Ciné-concert \"L'Auberge rouge\" avec ARIES MOND (electro)","artist":""}]}},{"type":"Feature","id":"toulouse-distorama-la-mecanique-des-fluides","geometry":{"type":"Point","coordinates":[1.4537749,43.6002765]},"properties":{"name":"La Mécanique des Fluides","category":"Concert Bar","icon":"🎵","address":"1 rue Riquet 31000 Toulouse","logo":"","events":[{"time":"20h","price":"Gratuit","desc":"Mécanique Oscillatoires → Live Machines par REDROWEN (electro groove) + ZOON (noise to minimal tech) + BVNTU (techno)","artist":"Mécanique Oscillatoires → Live Machines par REDROWEN (electro groove) + ZOON (noise to minimal tech) + BVNTU"}]}},{"type":"Feature","id":"toulouse-distorama-boudu-pont","geometry":{"type":"Point","coordinates":[1.4363272,43.5988936]},"properties":{"name":"Boudu pont","category":"Concert Bar","icon":"🎵","address":"1 rue de la République 31300 Toulouse","logo":"","events":[{"time":"22h","price":"","desc":"Blind Test","artist":"Blind Test"}]}}]}