{"type":"FeatureCollection","features":[{"type":"Feature","id":"toulouse-distorama-le-dada","geometry":{"type":"Point","coordinates":[1.4383337,43.6123398]},"properties":{"name":"Le Dada","category":"Concert Bar","icon":"fa-music","address":"27 avenue Honoré Serres 31000 Toulouse","logo":"","events":[{"date":"2025-12-10","time":"20h","price":"5/7/9€","desc":"ALIENS TEARS (darkwave / post pk/Tours) + AL/CE (new wave)","artist":"ALIENS TEARS (darkwave / post pk/Tours) + AL/CE","youtube_video_id":"","bandcamp_url":"","bandcamp_embed_url":""}]}}]}