{"type":"FeatureCollection","features":[{"type":"Feature","id":"toulouse-distorama-betty-pop-s","geometry":{"type":"Point","coordinates":[1.4285574,43.5988092]},"properties":{"name":"Betty Pop's","category":"Concert Bar","icon":"fa-music","address":"Place du Ravelin 31300 Toulouse","logo":"","events":[{"date":"2025-11-04","time":"20h","price":"Prix Libre","desc":"DENNIS JAGARD - Ten Foot Pole acoustic tour (pk rk)","artist":"DENNIS JAGARD - Ten Foot Pole acoustic tour","youtube_video_id":"","bandcamp_url":"","bandcamp_embed_url":""}]}}]}