{"type":"FeatureCollection","features":[{"type":"Feature","id":"toulouse-distorama-bistrot-ducoin","geometry":{"type":"Point","coordinates":[1.4559708,43.6090065]},"properties":{"name":"Bistrot Ducoin","category":"Concert Bar","icon":"🎵","address":"40 rue du Général Jean Compans 31500 Toulouse","logo":"bistrot_ducoin.jpg","events":[{"date":"2025-10-23","time":"19h30","price":"Prix Libre","desc":"ZÉBU (chanson française)","artist":"ZÉBU"}]}},{"type":"Feature","id":"toulouse-distorama-le-ravelin","geometry":{"type":"Point","coordinates":[1.4282089,43.599082]},"properties":{"name":"Le Ravelin","category":"Concert Bar","icon":"🎵","address":"6 place du Ravelin 31300 Toulouse","logo":"le_ravelin.png","events":[{"date":"2025-10-23","time":"20h","price":"5€ suggérés","desc":"MAGASIN DE GUITARES (heavy pop) + PETIT BUREAU (pk plaqué pop)","artist":"MAGASIN DE GUITARES (heavy pop) + PETIT BUREAU"}]}},{"type":"Feature","id":"toulouse-distorama-la-mecanique-des-fluides","geometry":{"type":"Point","coordinates":[1.4537749,43.6002765]},"properties":{"name":"La Mécanique des Fluides","category":"Concert Bar","icon":"🎵","address":"1 rue Riquet 31000 Toulouse","logo":"","events":[{"date":"2025-10-23","time":"20h","price":"3/5/7€","desc":"OCCULT HAND ORDER (hard psych post doom/Lyon) + ORCHIDÉE COSMIQUE (fuzz noise ambient/Chambéry)","artist":"OCCULT HAND ORDER (hard psych post doom/Lyon) + ORCHIDÉE COSMIQUE"}]}},{"type":"Feature","id":"toulouse-distorama-ipn","geometry":{"type":"Point","coordinates":[1.4495423,43.6159627]},"properties":{"name":"IPN","category":"Concert Bar","icon":"🎵","address":"30 rue des Jumeaux 31000 Toulouse","logo":"","events":[{"date":"2025-10-23","time":"19h","price":"PAF 6€ + 1€ adhésion","desc":"RELEASE PARTY : ROD-R + CCTEMPLE + DEUCE","artist":"RELEASE PARTY : ROD-R + CCTEMPLE + DEUCE"}]}}]}