{"type":"FeatureCollection","features":[{"type":"Feature","id":"toulouse-distorama-bistrot-ducoin","geometry":{"type":"Point","coordinates":[1.4559708,43.6090065]},"properties":{"name":"Bistrot Ducoin","category":"Concert Bar","icon":"fa-music","address":"40 rue du Général Jean Compans 31500 Toulouse","logo":"bistrot_ducoin.jpg","events":[{"date":"2025-12-11","time":"19h30","price":"Prix Libre","desc":"NO NOISE NO REDUCTION (trio sax)","artist":"NO NOISE NO REDUCTION"}]}},{"type":"Feature","id":"toulouse-distorama-le-dada","geometry":{"type":"Point","coordinates":[1.4383337,43.6123398]},"properties":{"name":"Le Dada","category":"Concert Bar","icon":"fa-music","address":"27 avenue Honoré Serres 31000 Toulouse","logo":"","events":[{"date":"2025-12-11","time":"20h","price":"3/5/7 €","desc":"OZIBUT (dark dance weirdo, Bretagne) + SONS OF ACHAB (local dark electro)","artist":"OZIBUT (dark dance weirdo, Bretagne) + SONS OF ACHAB"}]}}]}