{"type":"FeatureCollection","features":[{"type":"Feature","id":"toulouse-distorama-la-mecanique-des-fluides","geometry":{"type":"Point","coordinates":[1.4537749,43.6002765]},"properties":{"name":"La Mécanique des Fluides","category":"Concert Bar","icon":"🎵","address":"1 rue Riquet 31000 Toulouse","logo":"mecanique_des_fluides.png","events":[{"time":"20h","price":"Prix Libre","desc":"MY OWN PRIVATE ALASKA (metal/rk)","artist":"MY OWN PRIVATE ALASKA"}]}},{"type":"Feature","id":"toulouse-distorama-bistrot-ducoin","geometry":{"type":"Point","coordinates":[1.4559708,43.6090065]},"properties":{"name":"Bistrot Ducoin","category":"Concert Bar","icon":"🎵","address":"40 rue du Général Jean Compans 31500 Toulouse","logo":"bistrot_ducoin.jpg","events":[{"time":"21h","price":"Prix Libre","desc":"THE SPOUTS (grg pk)","artist":"THE SPOUTS"}]}},{"type":"Feature","id":"toulouse-distorama-boudu-pont","geometry":{"type":"Point","coordinates":[1.4363272,43.5988936]},"properties":{"name":"Boudu pont","category":"Concert Bar","icon":"🎵","address":"1 rue de la République 31300 Toulouse","logo":"","events":[{"time":"","price":"21h- Gratuit","desc":"BUBBLEGUM CORAIL + COUR DE RÉCRÉ (duo synthwave)","artist":"BUBBLEGUM CORAIL + COUR DE RÉCRÉ"}]}},{"type":"Feature","id":"toulouse-distorama-le-ravelin","geometry":{"type":"Point","coordinates":[1.4282089,43.599082]},"properties":{"name":"Le Ravelin","category":"Concert Bar","icon":"🎵","address":"6 place du Ravelin 31300 Toulouse","logo":"le_ravelin.png","events":[{"time":"20h","price":"Prix Libre","desc":"ORGANIZED VACATION (rk psyche) + ROTI BONDAGE (pk)","artist":"ORGANIZED VACATION (rk psyche) + ROTI BONDAGE"}]}},{"type":"Feature","id":"toulouse-distorama-l-engrenage-balma","geometry":{"type":"Point","coordinates":[1.4880684,43.6274411]},"properties":{"name":"L'Engrenage","category":"Concert Bar","icon":"🎵","address":"14 rue Louis Renault 31130 Balma","logo":"","events":[{"time":"21h","price":"5/7€","desc":"NO SELF + KIBOSH + COLD STRESS + INSTINCT (hxc/pk)","artist":"NO SELF + KIBOSH + COLD STRESS + INSTINCT"}]}}]}