{"type":"FeatureCollection","features":[{"type":"Feature","id":"toulouse-distorama-gloria","geometry":{"type":"Point","coordinates":[1.4439408,43.6014516]},"properties":{"name":"Gloria","category":"Concert Bar","icon":"🎵","address":"4 rue Peyras 31000 Toulouse","logo":"","events":[{"time":"19h","price":"Gratuit","desc":"Vernissage Exposition (du 03/10 au 04/11) « CLAIRE GONTAUD »","artist":""}]}},{"type":"Feature","id":"toulouse-distorama-le-ravelin","geometry":{"type":"Point","coordinates":[1.4282089,43.599082]},"properties":{"name":"Le Ravelin","category":"Concert Bar","icon":"🎵","address":"6 place du Ravelin 31300 Toulouse","logo":"le_ravelin.png","events":[{"time":"20h","price":"5€","desc":"GIVERZZ (wavy grg/beach pk) + DEW FALL (shoegaze/alt rk)","artist":"GIVERZZ (wavy grg/beach pk) + DEW FALL"}]}},{"type":"Feature","id":"toulouse-distorama-bistrot-ducoin","geometry":{"type":"Point","coordinates":[1.4559708,43.6090065]},"properties":{"name":"Bistrot Ducoin","category":"Concert Bar","icon":"🎵","address":"40 rue du Général Jean Compans 31500 Toulouse","logo":"bistrot_ducoin.jpg","events":[{"time":"19h30","price":"Prix Libre","desc":"TESS AND JOHN (blues fk rk)","artist":"TESS AND JOHN"}]}}]}