{"type":"FeatureCollection","features":[{"type":"Feature","id":"toulouse-distorama-dalidaark","geometry":{"type":"Point","coordinates":[1.4318769,43.5988684]},"properties":{"name":"Dalidaark","category":"Concert Bar","icon":"fa-music","address":"39 rue Réclusane 31300 Toulouse","logo":"dalidaark.png","events":[{"date":"2025-11-26","time":"20h","price":"Gratuit","desc":"TENNGER (slowcore) + STRATES (post hxc/noiserk)","artist":"TENNGER (slowcore) + STRATES","youtube_video_id":"","bandcamp_url":"","bandcamp_embed_url":""}]}},{"type":"Feature","id":"toulouse-distorama-la-mecanique-des-fluides","geometry":{"type":"Point","coordinates":[1.4537749,43.6002765]},"properties":{"name":"La Mécanique des Fluides","category":"Concert Bar","icon":"fa-music","address":"1 rue Riquet 31000 Toulouse","logo":"","events":[{"date":"2025-11-26","time":"20h","price":"Prix Libre","desc":"THE YOUNG HEARTS (pk rk) + FOXHOLE (pk rk) + MULTIPLE FACOTORS (rk acoustique)","artist":"THE YOUNG HEARTS (pk rk) + FOXHOLE (pk rk) + MULTIPLE FACOTORS","youtube_video_id":"","bandcamp_url":"","bandcamp_embed_url":""}]}},{"type":"Feature","id":"toulouse-distorama-le-ravelin","geometry":{"type":"Point","coordinates":[1.4282089,43.599082]},"properties":{"name":"Le Ravelin","category":"Concert Bar","icon":"fa-music","address":"6 place du Ravelin 31300 Toulouse","logo":"le_ravelin.png","events":[{"date":"2025-11-26","time":"20h","price":"Prix Libre","desc":"GRRZZZ (post pk indus/Marseille) + GLASGO (post pk)","artist":"GRRZZZ (post pk indus/Marseille) + GLASGO","youtube_video_id":"","bandcamp_url":"","bandcamp_embed_url":""}]}},{"type":"Feature","id":"toulouse-distorama-le-poinconneur","geometry":{"type":"Point","coordinates":[1.4544142,43.617283]},"properties":{"name":"Le Poinçonneur","category":"Concert Bar","icon":"fa-music","address":"19bis rue du Faubourg Bonnefoy 31500 Toulouse","logo":"","events":[{"date":"2025-11-26","time":"19h","price":"Gratuit","desc":"Vernissage exposition de gravures par Delphine Klos (jusqu'au 8 décembre)","artist":"","youtube_video_id":"","bandcamp_url":"","bandcamp_embed_url":""}]}},{"type":"Feature","id":"toulouse-distorama-le-dada","geometry":{"type":"Point","coordinates":[1.4383337,43.6123398]},"properties":{"name":"Le Dada","category":"Concert Bar","icon":"fa-music","address":"27 avenue Honoré Serres 31000 Toulouse","logo":"","events":[{"date":"2025-11-26","time":"20h","price":"5€","desc":"FRONT PAGE LESLIE  + SHITTY SHED + GIL BARTE + ERTT","artist":"FRONT PAGE LESLIE  + SHITTY SHED + GIL BARTE + ERTT","youtube_video_id":"","bandcamp_url":"","bandcamp_embed_url":""}]}}]}