{"type":"FeatureCollection","features":[{"type":"Feature","id":"toulouse-distorama-le-ravelin","geometry":{"type":"Point","coordinates":[1.4282089,43.599082]},"properties":{"name":"Le Ravelin","category":"Concert Bar","icon":"fa-music","address":"6 place du Ravelin 31300 Toulouse","logo":"le_ravelin.png","events":[{"date":"2025-10-18","time":"20h","price":"5€+","desc":"FUNGAS (psych pk grg/Aus) + FUZZERLODE (psych grg Tls/Lyon)","artist":"FUNGAS (psych pk grg/Aus) + FUZZERLODE","youtube_video_id":"hSTA8tQCUuA","bandcamp_url":"","bandcamp_embed_url":""}]}},{"type":"Feature","id":"toulouse-distorama-la-mecanique-des-fluides","geometry":{"type":"Point","coordinates":[1.4537647,43.6072494]},"properties":{"name":"La Mécanique des Fluides","category":"Concert Bar","icon":"fa-music","address":"1 rue Riquet 31000 Toulouse","logo":"","events":[{"date":"2025-10-18","time":"20h","price":"Prix Libre","desc":"MIASMES (black n' roll) + LAME (black/death)","artist":"MIASMES (black n' roll) + LAME","youtube_video_id":"Mrdus7Qucik","bandcamp_url":"","bandcamp_embed_url":""}]}}]}