{"type":"FeatureCollection","features":[{"type":"Feature","id":"toulouse-distorama-le-ravelin","geometry":{"type":"Point","coordinates":[1.4282089,43.599082]},"properties":{"name":"Le Ravelin","category":"Concert Bar","icon":"🎵","address":"6 place du Ravelin 31300 Toulouse","logo":"le_ravelin.png","events":[{"time":"20h","price":"5€","desc":"CHILD OF PANOPTES (60's pop rk psyché/Montpellier) + DJ KLIN (60's/côte basque espagnole)","artist":"CHILD OF PANOPTES (60's pop rk psyché/Montpellier) + DJ KLIN"},{"time":"20h","price":"5€ ou +","desc":"LEMONGRAB (post pk/Berlin) + SPACE BUCKET (electro art pk)","artist":"LEMONGRAB (post pk/Berlin) + SPACE BUCKET"},{"time":"20h","price":"5€","desc":"CEYLON (indie rk)","artist":"CEYLON"},{"time":"20h","price":"Prix Libre","desc":"SPARTAK METHANOL (rk surf)","artist":"SPARTAK METHANOL"},{"time":"19h30","price":"7€","desc":"HOBOKEN DIVISION (kraut blues) + JÉRÔME SAGE ORCHESTRA (oulipop)","artist":"HOBOKEN DIVISION (kraut blues) + JÉRÔME SAGE ORCHESTRA"},{"time":"20h","price":"Prix Libre","desc":"ASTAFFORT MODS + SENSITIVE SKIN (oï sensible)","artist":"ASTAFFORT MODS + SENSITIVE SKIN"},{"time":"20h","price":"5€ ou +","desc":"CRACHE (synth pk/Marseille) + TECHNOPOLICE (poum pk/Marseille)","artist":"CRACHE (synth pk/Marseille) + TECHNOPOLICE"},{"time":"20h","price":"Prix Libre","desc":"PFFF… (post-blues) + NO CUNT ACT (grg pk)","artist":"PFFF… (post-blues) + NO CUNT ACT"},{"time":"20h","price":"Prix Libre","desc":"GRRZZZ (post pk indus/Marseille) + GLASGO (post pk)","artist":"GRRZZZ (post pk indus/Marseille) + GLASGO"},{"time":"20h","price":"Prix Libre","desc":"MARC MINELLI plays the Iggy Pop song book","artist":"MARC MINELLI plays the Iggy Pop song book"},{"time":"20h","price":"8€","desc":"SUNDAY PANIC + APRIL FOOLS (post pk)","artist":"SUNDAY PANIC + APRIL FOOLS"}]}},{"type":"Feature","id":"toulouse-distorama-la-mecanique-des-fluides","geometry":{"type":"Point","coordinates":[1.4537749,43.6002765]},"properties":{"name":"La Mécanique des Fluides","category":"Concert Bar","icon":"🎵","address":"1 rue Riquet 31000 Toulouse","logo":"mecanique_des_fluides.png","events":[{"time":"20h","price":"5/7€ suggérés","desc":"LIQUIDS (pk) + ALLUSION (pk hardcore)","artist":"LIQUIDS (pk) + ALLUSION"},{"time":"20h","price":"Prix Libre","desc":"NYOS (post rk/noise rk)","artist":"NYOS"},{"time":"20h","price":"Prix Libre","desc":"WORMSAND (sludge/grunge)","artist":"WORMSAND"},{"time":"21h","price":"Gratuit","desc":"DJ Set par R.2614 (techno/ebm/dark) + ALICE (dark wave/slow techno/boudoir moderne)","artist":"DJ Set par R.2614 (techno/ebm/dark) + ALICE"},{"time":"20h","price":"Prix Libre","desc":"DEVOLUTION (black/death) + HADETH (death melodique)","artist":"DEVOLUTION (black/death) + HADETH"},{"time":"20h","price":"Prix Libre","desc":"CLEGANE (doom/grunge/Paris) + KAAALBAR (stoner doom/sludge)","artist":"CLEGANE (doom/grunge/Paris) + KAAALBAR"},{"time":"20h","price":"Prix Libre","desc":"SLUTY FIXX (glam/Mtp) + EVIL PHOENIX (hard rk)","artist":"SLUTY FIXX (glam/Mtp) + EVIL PHOENIX"},{"time":"20h","price":"Prix Libre","desc":"THE YOUNG HEARTS (pk rk) + FOXHOLE (pk rk) + MULTIPLE FACOTORS (rk acoustique)","artist":"THE YOUNG HEARTS (pk rk) + FOXHOLE (pk rk) + MULTIPLE FACOTORS"},{"time":"20h","price":"Gratuit","desc":"Mécanique Oscillatoires → Live Machines par REDROWEN (electro groove) + ZOON (noise to minimal tech) + BVNTU (techno)","artist":"Mécanique Oscillatoires → Live Machines par REDROWEN (electro groove) + ZOON (noise to minimal tech) + BVNTU"}]}},{"type":"Feature","id":"toulouse-distorama-the-petit-london","geometry":{"type":"Point","coordinates":[1.4538883,43.6008176]},"properties":{"name":"The Petit London","category":"Concert Bar","icon":"🎵","address":"7 rue Pierre-Paul Riquet 31000 Toulouse","logo":"","events":[{"time":"22h","price":"Gratuit","desc":"AKRAV x HELLISHA SAUVAGE x MISTER T. RECORDS (DJ sets dark disco techno)","artist":"AKRAV x HELLISHA SAUVAGE x MISTER T. RECORDS"},{"time":"22h","price":"Gratuit","desc":"DJ KONSTROY (postpk darkwave ebm)","artist":"DJ KONSTROY"}]}},{"type":"Feature","id":"toulouse-distorama-dalidaark","geometry":{"type":"Point","coordinates":[1.4318769,43.5988684]},"properties":{"name":"Dalidaark","category":"Concert Bar","icon":"🎵","address":"39 rue Réclusane 31300 Toulouse","logo":"dalidaark.png","events":[{"time":"20h","price":"Gratuit","desc":"PÉNICHE (Instrumental / Post-pk / Noise)","artist":"PÉNICHE"},{"time":"20h","price":"Gratuit","desc":"Soirée de La Mour (drag show)","artist":""},{"time":"20h","price":"Gratuit","desc":"NECRØ (dark wave/Lisbon)","artist":"NECRØ"},{"time":"20h30","price":"Prix Libre","desc":"SARRAM (dark amb/post rk) + SOPOORIFIC (dark amb/dungeon synth)","artist":"SARRAM (dark amb/post rk) + SOPOORIFIC"},{"time":"20h","price":"Gratuit","desc":"KHATEŸM (black metal) + SUNWELL (dark love songs)","artist":"KHATEŸM (black metal) + SUNWELL"},{"time":"20h","price":"Gratuit","desc":"TENNGER (slowcore) + STRATES (post hxc/noiserk)","artist":"TENNGER (slowcore) + STRATES"},{"time":"19h30","price":"Gratuit","desc":"FRESHBERRY (kraut gaze) + YES PLEASE! (heavy pop)","artist":"FRESHBERRY (kraut gaze) + YES PLEASE!"}]}},{"type":"Feature","id":"toulouse-distorama-l-engrenage","geometry":{"type":"Point","coordinates":[1.4880684,43.6274411]},"properties":{"name":"L'Engrenage","category":"Concert Bar","icon":"🎵","address":"14 rue Louis Renault 31130 Balma","logo":"","events":[{"time":"20h","price":"10€ préventes/14€ sur place (CB ok)","desc":"MOAAN EXIS (neo indus) + MACHINALIS TARANTULAE (indus dark électro) + DJ SET NÉON KULT (darksynth/ebsm/dark électro)","artist":"MOAAN EXIS (neo indus) + MACHINALIS TARANTULAE (indus dark électro) + DJ SET NÉON KULT"},{"time":"18h","price":"10€ (pass 2 jrs 15€)","desc":"Festival  → MAGESÄR (Metalcore) + MUFFDIVER (Heavy Southern rk) + LEAHTAN (Metal) + DJ METALUS","artist":""},{"time":"18h","price":"10€ (pass 2 jrs 15€)","desc":"Festival Heavy Buddies Nights → WAKE THE DEAD (hxc) + NOT YOUR MOTHER (heavy rk) + SHUT DWN (hxc) + LOU STRUMMER (DJ set)","artist":""},{"time":"20h","price":"5€","desc":"DIRTY 5 (rk) + MONDASHAWAN (stoner) + BADASS MOTHER FUZZERS (grg)","artist":"DIRTY 5 (rk) + MONDASHAWAN (stoner) + BADASS MOTHER FUZZERS"}]}},{"type":"Feature","id":"toulouse-distorama-le-dada","geometry":{"type":"Point","coordinates":[1.4383337,43.6123398]},"properties":{"name":"Le Dada","category":"Concert Bar","icon":"🎵","address":"27 avenue Honoré Serres 31000 Toulouse","logo":"","events":[{"time":"20h30","price":"5€ adhésion annuelle","desc":"Les Vidéophages (Projection de courts-métrages) → « Ce mois-ci, je regarde du réel en XXL »","artist":""},{"time":"21h","price":"7/10€","desc":"ECHOBERYL (darkwave ebm) + ELEGANT BLITZ (electro pop synth-wave)","artist":"ECHOBERYL (darkwave ebm) + ELEGANT BLITZ"},{"time":"20h","price":"5€","desc":"FRONT PAGE LESLIE  + SHITTY SHED + GIL BARTE + ERTT","artist":"FRONT PAGE LESLIE  + SHITTY SHED + GIL BARTE + ERTT"}]}},{"type":"Feature","id":"toulouse-distorama-bistrot-ducoin","geometry":{"type":"Point","coordinates":[1.4559708,43.6090065]},"properties":{"name":"Bistrot Ducoin","category":"Concert Bar","icon":"🎵","address":"40 rue du Général Jean Compans 31500 Toulouse","logo":"bistrot_ducoin.jpg","events":[{"time":"19h30","price":"Prix Libre","desc":"ZÉBU (chansons francaises)","artist":"ZÉBU"},{"time":"19h30","price":"Prix Libre","desc":"DEAD + ZEAD (poesie sonore)","artist":"DEAD + ZEAD"},{"time":"21h","price":"Prix Libre","desc":"JUST SMILE (festif)","artist":"JUST SMILE"},{"time":"19h30","price":"Prix Libre","desc":"BEN MAMPY (calypso)","artist":"BEN MAMPY"},{"time":"21h","price":"Prix Libre","desc":"DAMN HITS + NO FAIR IN MEDECINE (pk)","artist":"DAMN HITS + NO FAIR IN MEDECINE"},{"time":"19h30","price":"Prix Libre","desc":"Blues au coin du zinc (blues)","artist":"Blues au coin du zinc"},{"time":"21h","price":"Prix Libre","desc":"TRIBUTE RATM + MURCIELO Y PARAGNAS (rk metal)","artist":"TRIBUTE RATM + MURCIELO Y PARAGNAS"}]}},{"type":"Feature","id":"toulouse-distorama-labo-des-arts","geometry":{"type":"Point","coordinates":[1.4652089,43.6055126]},"properties":{"name":"Labo Des Arts","category":"Concert Bar","icon":"🎵","address":"8 rue Clément 31500 Toulouse","logo":"","events":[{"time":"19h30","price":"6,80€ à 7,80€","desc":"Release Party → NOVO SKELTER (post pk) + MONDO CANE (post rk)","artist":"Release Party → NOVO SKELTER (post pk) + MONDO CANE"},{"time":"","price":"19H30","desc":"MAGIC MACHINE (rk psyché/AUS) + SUNDAY JUNE (rk psyché/SUI)","artist":"MAGIC MACHINE (rk psyché/AUS) + SUNDAY JUNE"},{"time":"19h30","price":"11€","desc":"THE DARTS (rk grg/US) + SPACE BUCKET (electro pk)","artist":"THE DARTS (rk grg/US) + SPACE BUCKET"}]}},{"type":"Feature","id":"toulouse-distorama-gloria","geometry":{"type":"Point","coordinates":[1.4439408,43.6014516]},"properties":{"name":"Gloria","category":"Concert Bar","icon":"🎵","address":"4 rue Peyras 31000 Toulouse","logo":"","events":[{"time":"19h","price":"Gratuit","desc":"Vernissage expo « Vice caché » de Franeck","artist":""}]}},{"type":"Feature","id":"toulouse-distorama-boudu-pont","geometry":{"type":"Point","coordinates":[1.4363272,43.5988936]},"properties":{"name":"Boudu pont","category":"Concert Bar","icon":"🎵","address":"1 rue de la République 31300 Toulouse","logo":"","events":[{"time":"21h","price":"Gratuit","desc":"MAEVE + LIEP (indie pop/dream pop/brit pop rk)","artist":"MAEVE + LIEP"},{"time":"21h","price":"Gratuit","desc":"Vernissage Clara Conty - 19h + jam session + dj set deep house YADOR LAVEE","artist":""},{"time":"19h","price":"","desc":"Le mafé de tonton, repas sénégalais","artist":"Le mafé de tonton, repas sénégalais"},{"time":"21h","price":"Gratuit","desc":"FUNAMBULE DUO (jazz soul pop)","artist":"FUNAMBULE DUO"},{"time":"22h","price":"","desc":"Quizz musical","artist":"Quizz musical"},{"time":"19h","price":"Gratuit","desc":"MELI DJA (chansons françaises métissées)","artist":"MELI DJA"},{"time":"21h","price":"Gratuit","desc":"MARCO GRANCELLI (musique traditionnelle argentine)","artist":"MARCO GRANCELLI"},{"time":"22h","price":"","desc":"Karaoké + Bootyshake","artist":"Karaoké + Bootyshake"},{"time":"21h","price":"Gratuit","desc":"Festival Bar-Bars → NORMA ET GAËTAN NONCHALANT (folk/chansons à texte)","artist":""},{"time":"22h","price":"","desc":"Blind Test","artist":"Blind Test"}]}},{"type":"Feature","id":"toulouse-distorama-le-winger","geometry":{"type":"Point","coordinates":[1.4516526,43.6108151]},"properties":{"name":"Le Winger","category":"Concert Bar","icon":"🎵","address":"68 rue de Bayard 31000 Toulouse","logo":"","events":[{"time":"19h","price":"5/7€ suggérés","desc":"PHANTASIA (dream pop/NY) + ANGRY DEAD PIRATES (grg rk)","artist":"PHANTASIA (dream pop/NY) + ANGRY DEAD PIRATES"},{"time":"19h","price":"5/7€ suggérés","desc":"WICCANS (pk hxc/TX) + MAKAI (grindcore) + BTK ABORTERS (pk hxc)","artist":"WICCANS (pk hxc/TX) + MAKAI (grindcore) + BTK ABORTERS"}]}},{"type":"Feature","id":"toulouse-distorama-radio-fmr","geometry":{"type":"Point","coordinates":[1.4487374,43.6153004]},"properties":{"name":"Radio FMR","category":"Radio","icon":"📻","address":"9 boulevard des Minimes 31200 Toulouse","logo":"radio_fmr.png","events":[{"time":"19h","price":"Gratuit","desc":"Vernissage de Shile","artist":""},{"time":"20h","price":"Prix Libre","desc":"DON D'AS (indie rk /Rennes)","artist":"DON D'AS"}]}},{"type":"Feature","id":"toulouse-distorama-little-o-clock","geometry":{"type":"Point","coordinates":[1.5208073,43.6444525]},"properties":{"name":"Little O'Clock","category":"Concert Bar","icon":"🎵","address":"75 allée Jean Jaurès 31000 Toulouse","logo":"","events":[{"time":"21h","price":"Gratuit","desc":"SING TO THE HILLS (karaoké metal pk rk... et pas que, by Pascal Navrant & Napalm Jess)","artist":"SING TO THE HILLS"}]}},{"type":"Feature","id":"toulouse-distorama-bar-belfort","geometry":{"type":"Point","coordinates":[1.4527628,43.6057612]},"properties":{"name":"Bar Belfort","category":"Concert Bar","icon":"🎵","address":"9 place Belfort 31000 Toulouse","logo":"","events":[{"time":"19h","price":"Gratuit","desc":"Vernissage → Mikoz + Igor 16382 - Sortie Fanzine « Grafitox »","artist":""}]}},{"type":"Feature","id":"toulouse-distorama-american-cosmograph","geometry":{"type":"Point","coordinates":[1.4467818,43.6039842]},"properties":{"name":"American Cosmograph","category":"Cinema","icon":"🎬","address":"24 rue Montardy 31000 Toulouse","logo":"american_cosmograph.jpg","events":[{"time":"","price":"8€ ou carnet d'abonnement","desc":"Le Decolonial Film Festival → Projection documentaire Les Rivières à 17h30 + rencontre / projection film LYD à 20h30 + rencontre","artist":""}]}},{"type":"Feature","id":"toulouse-distorama-le-poinconneur","geometry":{"type":"Point","coordinates":[1.4544142,43.617283]},"properties":{"name":"Le Poinçonneur","category":"Concert Bar","icon":"🎵","address":"19bis rue du Faubourg Bonnefoy 31500 Toulouse","logo":"","events":[{"time":"","price":"","desc":"Expo linos et eaux fortes etc par Delphine Klos (→ 8 déc)","artist":""},{"time":"19h","price":"Gratuit","desc":"Vernissage exposition de gravures par Delphine Klos (jusqu'au 8 décembre)","artist":""}]}}]}