{"type":"FeatureCollection","features":[{"type":"Feature","id":"toulouse-distorama-bistrot-ducoin","geometry":{"type":"Point","coordinates":[1.4559708,43.6090065]},"properties":{"name":"Bistrot Ducoin","category":"Concert Bar","icon":"fa-music","address":"40 rue du Général Jean Compans 31500 Toulouse","logo":"bistrot_ducoin.jpg","events":[{"date":"2025-09-04","time":"19h30","price":"Prix Libre","desc":"ZÈBRE (pop rk cover)","artist":"ZÈBRE"}]}},{"type":"Feature","id":"toulouse-distorama-gloria","geometry":{"type":"Point","coordinates":[1.4439408,43.6014516]},"properties":{"name":"Gloria","category":"Concert Bar","icon":"fa-music","address":"4 rue Peyras 31000 Toulouse","logo":"","events":[{"date":"2025-09-04","time":"19h30","price":"Prix Libre","desc":"Vernissage Expo « MAX DHUM » + BUSY PITCH & ARNAUD BEYNEY","artist":""}]}},{"type":"Feature","id":"toulouse-distorama-le-cameleon","geometry":{"type":"Point","coordinates":[1.433005,43.599585]},"properties":{"name":"Le Caméléon","category":"Concert Bar","icon":"fa-music","address":"19 rue Pont Saint Pierre 31300 Toulouse","logo":"","events":[{"date":"2025-09-04","time":"20h","price":"3/5/7€","desc":"Soirée de soutien à Mones Nehad et sa famille : ROBINE ARNAUD + ADA + DJSET JULIA HENDERSON + cantine vegan","artist":""}]}}]}