{"type":"FeatureCollection","features":[{"type":"Feature","id":"toulouse-distorama-la-mecanique-des-fluides","geometry":{"type":"Point","coordinates":[1.4537749,43.6002765]},"properties":{"name":"La Mécanique des Fluides","category":"Concert Bar","icon":"fa-music","address":"1 rue Riquet 31000 Toulouse","logo":"","events":[{"date":"2025-09-05","time":"19h30","price":"Prix Libre","desc":"CHECK POINT (turbo egg pk/Aus) + LAS GRIMAS (synth pk/Marseille)","artist":"CHECK POINT (turbo egg pk/Aus) + LAS GRIMAS","youtube_video_id":"","bandcamp_url":"","bandcamp_embed_url":""}]}},{"type":"Feature","id":"toulouse-distorama-bistrot-ducoin","geometry":{"type":"Point","coordinates":[1.4559708,43.6090065]},"properties":{"name":"Bistrot Ducoin","category":"Concert Bar","icon":"fa-music","address":"40 rue du Général Jean Compans 31500 Toulouse","logo":"bistrot_ducoin.jpg","events":[{"date":"2025-09-05","time":"21h","price":"Prix Libre","desc":"KING KONG BLUES (rk'n'roll sauvage )","artist":"KING KONG BLUES","youtube_video_id":"","bandcamp_url":"","bandcamp_embed_url":""}]}},{"type":"Feature","id":"toulouse-distorama-le-dada","geometry":{"type":"Point","coordinates":[1.4383337,43.6123398]},"properties":{"name":"Le Dada","category":"Concert Bar","icon":"fa-music","address":"27 avenue Honoré Serres 31000 Toulouse","logo":"","events":[{"date":"2025-09-05","time":"21h","price":"5€","desc":"LAURA BOLT (live + guitare voix) + MARIE DEBACK (DJ set expérimental) + SUKKUBE (DJ set techno)","artist":"LAURA BOLT (live + guitare voix) + MARIE DEBACK (DJ set expérimental) + SUKKUBE","youtube_video_id":"E-xQrSI_nAg","bandcamp_url":"","bandcamp_embed_url":""}]}}]}