{"type":"FeatureCollection","features":[{"type":"Feature","id":"toulouse-distorama-la-mecanique-des-fluides","geometry":{"type":"Point","coordinates":[1.4537749,43.6002765]},"properties":{"name":"La Mécanique des Fluides","category":"Concert Bar","icon":"🎵","address":"1 rue Riquet 31000 Toulouse","logo":"","events":[{"time":"20h","price":"3/5/7€","desc":"IMPLODERS (hxc pk, Toronto) + HIVER LUCIDE (black metal ambient)","artist":"IMPLODERS (hxc pk, Toronto) + HIVER LUCIDE"}]}},{"type":"Feature","id":"toulouse-distorama-bistrot-ducoin","geometry":{"type":"Point","coordinates":[1.4559708,43.6090065]},"properties":{"name":"Bistrot Ducoin","category":"Concert Bar","icon":"🎵","address":"40 rue du Général Jean Compans 31500 Toulouse","logo":"bistrot_ducoin.jpg","events":[{"time":"21h","price":"Prix Libre","desc":"FWK (stoner prog)","artist":"FWK"}]}},{"type":"Feature","id":"toulouse-distorama-le-dada","geometry":{"type":"Point","coordinates":[1.4383337,43.6123398]},"properties":{"name":"Le Dada","category":"Concert Bar","icon":"🎵","address":"27 avenue Honoré Serres 31000 Toulouse","logo":"","events":[{"time":"20h","price":"8/10€","desc":"COSEY MUELLER (synthwave/Berlin) + F.R.B (krautdance) + DJ set Oversink (post body music / pkwave)","artist":"COSEY MUELLER (synthwave/Berlin) + F.R.B (krautdance) + DJ set Oversink"}]}},{"type":"Feature","id":"toulouse-distorama-la-cabane","geometry":{"type":"Point","coordinates":[1.4073706,43.5997655]},"properties":{"name":"La Cabane","category":"Concert Bar","icon":"🎵","address":"La Cabane Toulouse","logo":"","events":[{"time":"20h","price":"14/28€","desc":"Soirée La Meute → UZI FREYJA + Cabaret Drag LA MADONE + DJ Set LW2","artist":""}]}},{"type":"Feature","id":"toulouse-distorama-studio-rimshot-10-chemin-de-fondeyre-31200","geometry":{"type":"Point","coordinates":[1.4235741,43.6367163]},"properties":{"name":"Studio Rimshot","category":"Studio","icon":"🎙️","address":"10 chemin de Fondeyre 31200 Toulouse","logo":"","events":[{"time":"20h","price":"Prix Libre","desc":"SPIRALPARK (rk psyché)","artist":"SPIRALPARK"}]}}]}