{"type":"FeatureCollection","features":[{"type":"Feature","id":"toulouse-distorama-flashback-cafe","geometry":{"type":"Point","coordinates":[1.4228928,43.6088839]},"properties":{"name":"Flashback Café","category":"Concert Bar","icon":"🎵","address":"Allée de Brienne 31000 Toulouse","logo":"","events":[{"time":"20h","price":"Gratuit","desc":"Festival Synchro → Ciné-Concert \"FANTASTIC MUETS !\" avec EMILY MENER (synth pk)","artist":""}]}},{"type":"Feature","id":"toulouse-distorama-le-dada","geometry":{"type":"Point","coordinates":[1.4383337,43.6123398]},"properties":{"name":"Le Dada","category":"Concert Bar","icon":"🎵","address":"27 avenue Honoré Serres 31000 Toulouse","logo":"","events":[{"time":"21h","price":"Prix Libre","desc":"Festival Setmana Santa → DARKRAD (dark ambient) + UNDER/STANDING (ambient, noise, post-pk)","artist":""}]}}]}