{"type":"FeatureCollection","features":[{"type":"Feature","id":"toulouse-distorama-la-mecanique-des-fluides","geometry":{"type":"Point","coordinates":[1.4537749,43.6002765]},"properties":{"name":"La Mécanique des Fluides","category":"Concert Bar","icon":"fa-music","address":"1 rue Riquet 31000 Toulouse","logo":"","events":[{"date":"2025-09-09","time":"20h","price":"5/7€","desc":"OSSUARY (death metal/USA) + ASCENDING DIVERS (solo drone)","artist":"OSSUARY (death metal/USA) + ASCENDING DIVERS"}]}},{"type":"Feature","id":"toulouse-distorama-boudu-pont","geometry":{"type":"Point","coordinates":[1.4363272,43.5988936]},"properties":{"name":"Boudu pont","category":"Concert Bar","icon":"fa-music","address":"1 rue de la République 31300 Toulouse","logo":"","events":[{"date":"2025-09-09","time":"20h30","price":"Prix Libre","desc":"Vernissage SHILE (live painting dj set)","artist":""}]}}]}