{"type":"FeatureCollection","features":[{"type":"Feature","id":"toulouse-distorama-boudu-pont","geometry":{"type":"Point","coordinates":[1.4363272,43.5988936]},"properties":{"name":"Boudu pont","category":"Concert Bar","icon":"🎵","address":"1 rue de la République 31300 Toulouse","logo":"","events":[{"time":"21h","price":"Gratuit","desc":"ÉTÉ LILA ET DJ SET LATINO HOUSE (soirée latino samba)","artist":""}]}},{"type":"Feature","id":"toulouse-distorama-le-winger","geometry":{"type":"Point","coordinates":[1.4516526,43.6108151]},"properties":{"name":"Le Winger","category":"Concert Bar","icon":"🎵","address":"68 rue de Bayard 31000 Toulouse","logo":"","events":[{"time":"19h30","price":"5€","desc":"IRON LUNGS (stoner-pk) + PRESIDENT BUTCHER (stoner pk'n'roll)","artist":"IRON LUNGS (stoner-pk) + PRESIDENT BUTCHER"}]}},{"type":"Feature","id":"toulouse-distorama-axis-musique","geometry":{"type":"Point","coordinates":[1.3974931,43.5472325]},"properties":{"name":"Axis Music","category":"Concert Bar","icon":"🎵","address":"7 impasse Boudeville 31100 Toulouse","logo":"","events":[{"time":"20h","price":"10€","desc":"TV MVLO (Portugal) + SCORCHED EARTH + SEVERED SOUL (death metal)","artist":"TV MVLO (Portugal) + SCORCHED EARTH + SEVERED SOUL"}]}},{"type":"Feature","id":"toulouse-distorama-le-cameleon","geometry":{"type":"Point","coordinates":[1.433005,43.599585]},"properties":{"name":"Le Caméléon","category":"Concert Bar","icon":"🎵","address":"19 rue Pont Saint Pierre 31300 Toulouse","logo":"","events":[{"time":"19h30","price":"Prix Libre","desc":"MARIE BAXERRES (synth-voice) + MIROIR ɿIOɿIM (poetic noise ambiant) + STRIE (perf de non-lieu)","artist":"MARIE BAXERRES (synth-voice) + MIROIR ɿIOɿIM (poetic noise ambiant) + STRIE"}]}}]}