{"type":"FeatureCollection","features":[{"type":"Feature","id":"toulouse-distorama-le-ravelin","geometry":{"type":"Point","coordinates":[1.4282089,43.599082]},"properties":{"name":"Le Ravelin","category":"Concert Bar","icon":"🎵","address":"6 place du Ravelin 31300 Toulouse","logo":"le_ravelin.png","events":[{"date":"2025-10-31","time":"20h","price":"5/7€","desc":"PERVITIN (grg swamp) + guest","artist":"PERVITIN (grg swamp) + guest"}]}},{"type":"Feature","id":"toulouse-distorama-la-mecanique-des-fluides","geometry":{"type":"Point","coordinates":[1.4537749,43.6002765]},"properties":{"name":"La Mécanique des Fluides","category":"Concert Bar","icon":"🎵","address":"1 rue Riquet 31000 Toulouse","logo":"","events":[{"date":"2025-10-31","time":"","price":"22H","desc":"SOIRÉE HALLOWEEN DJ set LES TAZ UNIS + guest","artist":""}]}},{"type":"Feature","id":"toulouse-distorama-bistrot-ducoin","geometry":{"type":"Point","coordinates":[1.4559708,43.6090065]},"properties":{"name":"Bistrot Ducoin","category":"Concert Bar","icon":"🎵","address":"40 rue du Général Jean Compans 31500 Toulouse","logo":"bistrot_ducoin.jpg","events":[{"date":"2025-10-31","time":"21h","price":"Prix Libre","desc":"ROSES SUBSTANCE (rk stoner)","artist":"ROSES SUBSTANCE"}]}},{"type":"Feature","id":"toulouse-distorama-betty-pop-s","geometry":{"type":"Point","coordinates":[1.4285574,43.5988092]},"properties":{"name":"Betty Pop's","category":"Concert Bar","icon":"🎵","address":"Place du Ravelin 31300 Toulouse","logo":"","events":[{"date":"2025-10-31","time":"21h","price":"Gratuit","desc":"KONSTROY (Halloween DJ set)","artist":"KONSTROY"}]}}]}