{"type":"FeatureCollection","features":[{"type":"Feature","id":"toulouse-distorama-le-ravelin","geometry":{"type":"Point","coordinates":[1.4282089,43.599082]},"properties":{"name":"Le Ravelin","category":"Concert Bar","icon":"fa-music","address":"6 place du Ravelin 31300 Toulouse","logo":"le_ravelin.png","events":[{"date":"2025-09-12","time":"20h","price":"5€","desc":"FWK (stoner) + LE BARON DE VINCÈSE (math rk exp)","artist":"FWK (stoner) + LE BARON DE VINCÈSE","youtube_video_id":"y8zTFbPQzxE","bandcamp_url":"","bandcamp_embed_url":""}]}},{"type":"Feature","id":"toulouse-distorama-bistrot-ducoin","geometry":{"type":"Point","coordinates":[1.4559708,43.6090065]},"properties":{"name":"Bistrot Ducoin","category":"Concert Bar","icon":"fa-music","address":"40 rue du Général Jean Compans 31500 Toulouse","logo":"bistrot_ducoin.jpg","events":[{"date":"2025-09-12","time":"19h","price":"Prix Libre","desc":"SOL ALEGRIA (musique cubaine) fête de quartier","artist":"SOL ALEGRIA (musique cubaine) fête de quartier","youtube_video_id":"","bandcamp_url":"","bandcamp_embed_url":""}]}},{"type":"Feature","id":"toulouse-distorama-la-mecanique-des-fluides","geometry":{"type":"Point","coordinates":[1.4537749,43.6002765]},"properties":{"name":"La Mécanique des Fluides","category":"Concert Bar","icon":"fa-music","address":"1 rue Riquet 31000 Toulouse","logo":"","events":[{"date":"2025-09-12","time":"20h","price":"5€+","desc":"LVZ SILENCIOZA (indus/Argentine) + FLORALIS (anarcho indus/UK)","artist":"LVZ SILENCIOZA (indus/Argentine) + FLORALIS","youtube_video_id":"","bandcamp_url":"","bandcamp_embed_url":""}]}}]}