{"type":"FeatureCollection","features":[{"type":"Feature","id":"toulouse-distorama-le-cameleon","geometry":{"type":"Point","coordinates":[1.433005,43.599585]},"properties":{"name":"Le Caméléon","category":"Concert Bar","icon":"fa-music","address":"19 rue Pont Saint Pierre 31300 Toulouse","logo":"","events":[{"date":"2025-10-14","time":"21h","price":"3/5/7€","desc":"SIR RICHARD BISHOP (solo guitare) + MR BISHOP (solo percu/sax)","artist":"SIR RICHARD BISHOP (solo guitare) + MR BISHOP","youtube_video_id":"","bandcamp_url":"","bandcamp_embed_url":""}]}}]}