{"type":"FeatureCollection","features":[{"type":"Feature","id":"toulouse-distorama-gloria","geometry":{"type":"Point","coordinates":[1.4439408,43.6014516]},"properties":{"name":"Gloria","category":"Concert Bar","icon":"fa-music","address":"4 rue Peyras 31000 Toulouse","logo":"","events":[{"date":"2025-10-25","time":"20h","price":"Prix Libre","desc":"THOMAS PRADIER + THOMAS BOUDINEAU \"LE FLEGMATIC\"","artist":"THOMAS PRADIER + THOMAS BOUDINEAU \"LE FLEGMATIC\"","youtube_video_id":"TvnlwisFkXE","bandcamp_url":"","bandcamp_embed_url":""}]}},{"type":"Feature","id":"toulouse-distorama-la-mecanique-des-fluides","geometry":{"type":"Point","coordinates":[1.4537647,43.6072494]},"properties":{"name":"La Mécanique des Fluides","category":"Concert Bar","icon":"fa-music","address":"1 rue Riquet 31000 Toulouse","logo":"","events":[{"date":"2025-10-25","time":"20h","price":"3/5/7€","desc":"LITIGE (pk/Lyon) + SHADOW TIDES (pk)","artist":"LITIGE (pk/Lyon) + SHADOW TIDES","youtube_video_id":"MDds3np3BNE","bandcamp_url":"","bandcamp_embed_url":""}]}},{"type":"Feature","id":"toulouse-distorama-dalidaark","geometry":{"type":"Point","coordinates":[1.4318769,43.5988684]},"properties":{"name":"Dalidaark","category":"Concert Bar","icon":"fa-music","address":"39 rue Réclusane 31300 Toulouse","logo":"dalidaark.png","events":[{"date":"2025-10-25","time":"20h","price":"Gratuit","desc":"Soirée Drag And Cult (spectacle drag et music)","artist":"","youtube_video_id":"","bandcamp_url":"","bandcamp_embed_url":""}]}},{"type":"Feature","id":"toulouse-distorama-labo-des-arts","geometry":{"type":"Point","coordinates":[1.4652089,43.6055126]},"properties":{"name":"Labo Des Arts","category":"Concert Bar","icon":"fa-music","address":"8 rue Clément 31500 Toulouse","logo":"","events":[{"date":"2025-10-25","time":"","price":"19H30","desc":"SPINN (indie rk/UK) + VICE KILLER (indie rk/UK)","artist":"SPINN (indie rk/UK) + VICE KILLER","youtube_video_id":"XK0Reb_TaIU","bandcamp_url":"","bandcamp_embed_url":""}]}}]}