{"type":"FeatureCollection","features":[{"type":"Feature","id":"toulouse-distorama-le-ravelin","geometry":{"type":"Point","coordinates":[1.4282089,43.599082]},"properties":{"name":"Le Ravelin","category":"Concert Bar","icon":"🎵","address":"6 place du Ravelin 31300 Toulouse","logo":"le_ravelin.png","events":[{"time":"20h","price":"5€ +","desc":"SUMSKI (kraut pop tropical expé/Zagreb) + BRUIT DE LA PASSION (pop pk)","artist":"SUMSKI (kraut pop tropical expé/Zagreb) + BRUIT DE LA PASSION"}]}},{"type":"Feature","id":"toulouse-distorama-le-poinconneur","geometry":{"type":"Point","coordinates":[1.4544142,43.617283]},"properties":{"name":"Le Poinçonneur","category":"Concert Bar","icon":"🎵","address":"19bis rue du Faubourg Bonnefoy 31500 Toulouse","logo":"","events":[{"time":"18h30","price":"Gratos","desc":"CONFITURE LIBRE (jam d'impro)","artist":"CONFITURE LIBRE"}]}}]}