{"type":"FeatureCollection","features":[{"type":"Feature","id":"toulouse-distorama-dalidaark","geometry":{"type":"Point","coordinates":[1.4318769,43.5988684]},"properties":{"name":"Dalidaark","category":"Concert Bar","icon":"fa-music","address":"39 rue Réclusane 31300 Toulouse","logo":"dalidaark.png","events":[{"date":"2025-09-27","time":"20h","price":"Gratuit","desc":"LES REMPLAÇANTS (pk/Lyon) + GUT BUGS (egg pk)","artist":"LES REMPLAÇANTS (pk/Lyon) + GUT BUGS","youtube_video_id":"","bandcamp_url":"","bandcamp_embed_url":""}]}},{"type":"Feature","id":"toulouse-distorama-le-ravelin","geometry":{"type":"Point","coordinates":[1.4282089,43.599082]},"properties":{"name":"Le Ravelin","category":"Concert Bar","icon":"fa-music","address":"6 place du Ravelin 31300 Toulouse","logo":"le_ravelin.png","events":[{"date":"2025-09-27","time":"20h","price":"5€","desc":"PSYCHOGARDEN + CHIHUAS OF DEPTHS (stoner/psyche)","artist":"PSYCHOGARDEN + CHIHUAS OF DEPTHS","youtube_video_id":"","bandcamp_url":"","bandcamp_embed_url":""}]}},{"type":"Feature","id":"toulouse-distorama-l-autan","geometry":{"type":"Point","coordinates":[1.43883,43.6117922]},"properties":{"name":"L'Autan","category":"Concert Bar","icon":"fa-music","address":"58 boulevard d'Arcole 31000 Toulouse","logo":"","events":[{"date":"2025-09-27","time":"20h","price":"Prix Libre","desc":"IRON LUNGS (stoner pk) + FWK (prog stoner)","artist":"IRON LUNGS (stoner pk) + FWK","youtube_video_id":"","bandcamp_url":"","bandcamp_embed_url":""}]}}]}