{"type":"FeatureCollection","features":[{"type":"Feature","id":"toulouse-distorama-le-ravelin","geometry":{"type":"Point","coordinates":[1.4282089,43.599082]},"properties":{"name":"Le Ravelin","category":"Concert Bar","icon":"🎵","address":"6 place du Ravelin 31300 Toulouse","logo":"le_ravelin.png","events":[{"date":"2025-09-13","time":"20h","price":"Prix Libre","desc":"LUMPEN (hxc/Es) + UP RIGHT (hxc)","artist":"LUMPEN (hxc/Es) + UP RIGHT"}]}},{"type":"Feature","id":"toulouse-distorama-gloria","geometry":{"type":"Point","coordinates":[1.4439408,43.6014516]},"properties":{"name":"Gloria","category":"Concert Bar","icon":"🎵","address":"4 rue Peyras 31000 Toulouse","logo":"","events":[{"date":"2025-09-13","time":"19h30","price":"Gratuit","desc":"Gloria fête sa deuxième bougie ! Dj set, free food & drinks","artist":"Gloria fête sa deuxième bougie ! Dj set, free food & drinks"}]}},{"type":"Feature","id":"toulouse-distorama-le-dada","geometry":{"type":"Point","coordinates":[1.4383337,43.6123398]},"properties":{"name":"Le Dada","category":"Concert Bar","icon":"🎵","address":"27 avenue Honoré Serres 31000 Toulouse","logo":"","events":[{"date":"2025-09-13","time":"19h","price":"5€","desc":"VINCIANE (modular techno) + 1KA (modular EBM) + DJ set","artist":"VINCIANE (modular techno) + 1KA (modular EBM) + DJ set"}]}},{"type":"Feature","id":"toulouse-distorama-la-mecanique-des-fluides","geometry":{"type":"Point","coordinates":[1.4537749,43.6002765]},"properties":{"name":"La Mécanique des Fluides","category":"Concert Bar","icon":"🎵","address":"1 rue Riquet 31000 Toulouse","logo":"","events":[{"date":"2025-09-13","time":"22h","price":"Gratuit","desc":"DJ Set CHIC TYPE CHOC et BELLADONNA","artist":"DJ Set CHIC TYPE CHOC et BELLADONNA"}]}},{"type":"Feature","id":"toulouse-distorama-l-engrenage","geometry":{"type":"Point","coordinates":[1.4880684,43.6274411]},"properties":{"name":"L'Engrenage","category":"Concert Bar","icon":"🎵","address":"14 rue Louis Renault 31130 Balma","logo":"","events":[{"date":"2025-09-13","time":"19h","price":"15€","desc":"Soirée Drag’n’roll : RADICAL KITTEN (rrriot pk) + ALBACORE (pk) + Drags shows + DJset VICKY TRIX","artist":""}]}}]}