{"type":"FeatureCollection","features":[{"type":"Feature","id":"toulouse-distorama-le-ravelin","geometry":{"type":"Point","coordinates":[1.4282089,43.599082]},"properties":{"name":"Le Ravelin","category":"Concert Bar","icon":"🎵","address":"6 place du Ravelin 31300 Toulouse","logo":"le_ravelin.png","events":[{"time":"20h","price":"5€","desc":"CHILD OF PANOPTES (60's pop rk psyché/Montpellier) + DJ KLIN (60's/côte basque espagnole)","artist":"CHILD OF PANOPTES (60's pop rk psyché/Montpellier) + DJ KLIN"}]}},{"type":"Feature","id":"toulouse-distorama-la-mecanique-des-fluides","geometry":{"type":"Point","coordinates":[1.4537749,43.6002765]},"properties":{"name":"La Mécanique des Fluides","category":"Concert Bar","icon":"🎵","address":"1 rue Riquet 31000 Toulouse","logo":"mecanique_des_fluides.png","events":[{"time":"20h","price":"5/7€ suggérés","desc":"LIQUIDS (pk) + ALLUSION (pk hardcore)","artist":"LIQUIDS (pk) + ALLUSION"}]}},{"type":"Feature","id":"toulouse-distorama-bar-obohem","geometry":{"type":"Point","coordinates":[1.4450152,43.5912574]},"properties":{"name":"Bar Ôbohem","category":"Concert Bar","icon":"🎵","address":"Grande Rue Saint-Michel 31000 Toulouse","logo":"","events":[{"time":"20h36","price":"Prix Libre (pas de CB)","desc":"Soirée Puni d'Ordi → LA NOCHE VITA (perf circo bouffon trash) + KONTROLL TEK (tekno pk) + BARREZ VOUS (techno machin.e) + SPATIOSSELET (tribe avec jouets)","artist":""}]}},{"type":"Feature","id":"toulouse-distorama-the-petit-london","geometry":{"type":"Point","coordinates":[1.4538883,43.6008176]},"properties":{"name":"The Petit London","category":"Concert Bar","icon":"🎵","address":"7 rue Pierre-Paul Riquet 31000 Toulouse","logo":"","events":[{"time":"22h","price":"Gratuit","desc":"AKRAV x HELLISHA SAUVAGE x MISTER T. RECORDS (DJ sets dark disco techno)","artist":"AKRAV x HELLISHA SAUVAGE x MISTER T. RECORDS"}]}},{"type":"Feature","id":"toulouse-distorama-dalidaark","geometry":{"type":"Point","coordinates":[1.4318769,43.5988684]},"properties":{"name":"Dalidaark","category":"Concert Bar","icon":"🎵","address":"39 rue Réclusane 31300 Toulouse","logo":"dalidaark.png","events":[{"time":"20h","price":"Gratuit","desc":"PÉNICHE (Instrumental / Post-pk / Noise)","artist":"PÉNICHE"}]}},{"type":"Feature","id":"toulouse-distorama-l-engrenage","geometry":{"type":"Point","coordinates":[1.4880684,43.6274411]},"properties":{"name":"L'Engrenage","category":"Concert Bar","icon":"🎵","address":"14 rue Louis Renault 31130 Balma","logo":"","events":[{"time":"20h","price":"10€ préventes/14€ sur place (CB ok)","desc":"MOAAN EXIS (neo indus) + MACHINALIS TARANTULAE (indus dark électro) + DJ SET NÉON KULT (darksynth/ebsm/dark électro)","artist":"MOAAN EXIS (neo indus) + MACHINALIS TARANTULAE (indus dark électro) + DJ SET NÉON KULT"}]}}]}