{"type":"FeatureCollection","features":[{"type":"Feature","id":"toulouse-distorama-le-ravelin","geometry":{"type":"Point","coordinates":[1.4282089,43.599082]},"properties":{"name":"Le Ravelin","category":"Concert Bar","icon":"🎵","address":"6 place du Ravelin 31300 Toulouse","logo":"le_ravelin.png","events":[{"time":"","price":"Journée","desc":"Fripes And Spritz N°7","artist":"Fripes And Spritz N°7"}]}},{"type":"Feature","id":"toulouse-distorama-atelier-velpo-23-rue-joseph-vie-31300","geometry":{"type":"Point","coordinates":[1.4321547,43.5976369]},"properties":{"name":"Atelier Velpo","category":"Concert Bar","icon":"🎵","address":"23 rue Joseph Vié 31300 Toulouse","logo":"","events":[{"time":"","price":"11h à 19h","desc":"Expo-marché De Créateur·rices (microédition, illustrations, bijoux) + Tombola + Concerts → RUBEN & PAUL (jazz) + DANGER ZOO (chanson nonchalante) - Buvette et petite cantine","artist":""}]}}]}