{"type":"FeatureCollection","features":[{"type":"Feature","id":"toulouse-distorama-little-o-clock","geometry":{"type":"Point","coordinates":[1.5208073,43.6444525]},"properties":{"name":"Little O'Clock","category":"Concert Bar","icon":"fa-music","address":"75 allée Jean Jaurès 31000 Toulouse","logo":"","events":[{"date":"2025-12-20","time":"20h","price":"Prix Libre","desc":"THROUGH (stoner/doom) + CHIHUAS OF DEPTHS (rk alternatif) + WUOLJA (stoner, barcelone)","artist":"THROUGH (stoner/doom) + CHIHUAS OF DEPTHS (rk alternatif) + WUOLJA","youtube_video_id":"RTItqg9_36A","bandcamp_url":"","bandcamp_embed_url":""}]}},{"type":"Feature","id":"toulouse-distorama-dalidaark","geometry":{"type":"Point","coordinates":[1.4318769,43.5988684]},"properties":{"name":"Dalidaark","category":"Concert Bar","icon":"fa-music","address":"39 rue Réclusane 31300 Toulouse","logo":"dalidaark.png","events":[{"date":"2025-12-20","time":"20h","price":"Gratuit","desc":"Soirée Drag n Cult (drag shows)","artist":"","youtube_video_id":"","bandcamp_url":"","bandcamp_embed_url":""}]}},{"type":"Feature","id":"toulouse-distorama-boudu-pont","geometry":{"type":"Point","coordinates":[1.4363272,43.5988936]},"properties":{"name":"Boudu pont","category":"Concert Bar","icon":"fa-music","address":"1 rue de la République 31300 Toulouse","logo":"","events":[{"date":"2025-12-20","time":"22h","price":"Gratuit","desc":"KARAOKÉ + BOOTYSHAKE","artist":"KARAOKÉ + BOOTYSHAKE","youtube_video_id":"","bandcamp_url":"","bandcamp_embed_url":""}]}}]}