{"type":"FeatureCollection","features":[{"type":"Feature","id":"toulouse-distorama-dalidaark","geometry":{"type":"Point","coordinates":[1.4318769,43.5988684]},"properties":{"name":"Dalidaark","category":"Concert Bar","icon":"🎵","address":"39 rue Réclusane 31300 Toulouse","logo":"dalidaark.png","events":[{"time":"20h","price":"Gratuit","desc":"KHATEŸM (black metal) + SUNWELL (dark love songs)","artist":"KHATEŸM (black metal) + SUNWELL"}]}},{"type":"Feature","id":"toulouse-distorama-bistrot-ducoin","geometry":{"type":"Point","coordinates":[1.4559708,43.6090065]},"properties":{"name":"Bistrot Ducoin","category":"Concert Bar","icon":"🎵","address":"40 rue du Général Jean Compans 31500 Toulouse","logo":"bistrot_ducoin.jpg","events":[{"time":"19h30","price":"Prix Libre","desc":"BEN MAMPY (calypso)","artist":"BEN MAMPY"}]}},{"type":"Feature","id":"toulouse-distorama-labo-des-arts","geometry":{"type":"Point","coordinates":[1.4652089,43.6055126]},"properties":{"name":"Labo Des Arts","category":"Concert Bar","icon":"🎵","address":"8 rue Clément 31500 Toulouse","logo":"","events":[{"time":"","price":"19H30","desc":"MAGIC MACHINE (rk psyché/AUS) + SUNDAY JUNE (rk psyché/SUI)","artist":"MAGIC MACHINE (rk psyché/AUS) + SUNDAY JUNE"}]}},{"type":"Feature","id":"toulouse-distorama-le-ravelin","geometry":{"type":"Point","coordinates":[1.4282089,43.599082]},"properties":{"name":"Le Ravelin","category":"Concert Bar","icon":"🎵","address":"6 place du Ravelin 31300 Toulouse","logo":"le_ravelin.png","events":[{"time":"20h","price":"5€ ou +","desc":"CRACHE (synth pk/Marseille) + TECHNOPOLICE (poum pk/Marseille)","artist":"CRACHE (synth pk/Marseille) + TECHNOPOLICE"}]}}]}