{"type":"FeatureCollection","features":[{"type":"Feature","id":"toulouse-distorama-la-mecanique-des-fluides","geometry":{"type":"Point","coordinates":[1.4537749,43.6002765]},"properties":{"name":"La Mécanique des Fluides","category":"Concert Bar","icon":"fa-music","address":"1 rue Riquet 31000 Toulouse","logo":"","events":[{"date":"2025-09-29","time":"20h","price":"Prix Libre","desc":"DERRUMBE (hxc pk/Berlin) + YAPA (pk rk/Tls)","artist":"DERRUMBE (hxc pk/Berlin) + YAPA","youtube_video_id":"","bandcamp_url":"","bandcamp_embed_url":""}]}}]}