{"type":"FeatureCollection","features":[{"type":"Feature","id":"toulouse-distorama-boudu-pont","geometry":{"type":"Point","coordinates":[1.4363272,43.5988936]},"properties":{"name":"Boudu pont","category":"Concert Bar","icon":"🎵","address":"1 rue de la République 31300 Toulouse","logo":"","events":[{"time":"21h","price":"Gratuit","desc":"MARCO GRANCELLI (musique traditionnelle argentine)","artist":"MARCO GRANCELLI"}]}},{"type":"Feature","id":"toulouse-distorama-bistrot-ducoin","geometry":{"type":"Point","coordinates":[1.4559708,43.6090065]},"properties":{"name":"Bistrot Ducoin","category":"Concert Bar","icon":"🎵","address":"40 rue du Général Jean Compans 31500 Toulouse","logo":"bistrot_ducoin.jpg","events":[{"time":"21h","price":"Prix Libre","desc":"DAMN HITS + NO FAIR IN MEDECINE (pk)","artist":"DAMN HITS + NO FAIR IN MEDECINE"}]}},{"type":"Feature","id":"toulouse-distorama-bar-belfort","geometry":{"type":"Point","coordinates":[1.4527628,43.6057612]},"properties":{"name":"Bar Belfort","category":"Concert Bar","icon":"🎵","address":"9 place Belfort 31000 Toulouse","logo":"","events":[{"time":"19h","price":"Gratuit","desc":"Vernissage → Mikoz + Igor 16382 - Sortie Fanzine « Grafitox »","artist":""}]}}]}