{"type":"FeatureCollection","features":[{"type":"Feature","id":"toulouse-distorama-boudu-pont","geometry":{"type":"Point","coordinates":[1.4363272,43.5988936]},"properties":{"name":"Boudu pont","category":"Concert Bar","icon":"fa-music","address":"1 rue de la République 31300 Toulouse","logo":"","events":[{"date":"2025-09-06","time":"19h","price":"Prix Libre","desc":"Release party → SINCE","artist":"Release party → SINCE","youtube_video_id":"","bandcamp_url":"","bandcamp_embed_url":""}]}},{"type":"Feature","id":"toulouse-distorama-axis-musique","geometry":{"type":"Point","coordinates":[1.3974931,43.5472325]},"properties":{"name":"Axis Music","category":"Concert Bar","icon":"fa-music","address":"7 impasse Boudeville 31100 Toulouse","logo":"","events":[{"date":"2025-09-06","time":"20h","price":"8€","desc":"TALES OF BLOOD + OLDSKULL + DELIVER THE SUFFERING (death metal)","artist":"TALES OF BLOOD + OLDSKULL + DELIVER THE SUFFERING","youtube_video_id":"8kA562gTff8","bandcamp_url":"","bandcamp_embed_url":""}]}}]}