{"type":"FeatureCollection","features":[{"type":"Feature","id":"toulouse-distorama-le-ravelin","geometry":{"type":"Point","coordinates":[1.4282089,43.599082]},"properties":{"name":"Le Ravelin","category":"Concert Bar","icon":"fa-music","address":"6 place du Ravelin 31300 Toulouse","logo":"le_ravelin.png","events":[{"date":"2025-11-27","time":"20h","price":"Prix Libre","desc":"MARC MINELLI plays the Iggy Pop song book","artist":"MARC MINELLI plays the Iggy Pop song book","youtube_video_id":"","bandcamp_url":"","bandcamp_embed_url":""}]}},{"type":"Feature","id":"toulouse-distorama-dalidaark","geometry":{"type":"Point","coordinates":[1.4318769,43.5988684]},"properties":{"name":"Dalidaark","category":"Concert Bar","icon":"fa-music","address":"39 rue Réclusane 31300 Toulouse","logo":"dalidaark.png","events":[{"date":"2025-11-27","time":"19h30","price":"Gratuit","desc":"FRESHBERRY (kraut gaze) + YES PLEASE! (heavy pop)","artist":"FRESHBERRY (kraut gaze) + YES PLEASE!","youtube_video_id":"","bandcamp_url":"","bandcamp_embed_url":""}]}},{"type":"Feature","id":"toulouse-distorama-bistrot-ducoin","geometry":{"type":"Point","coordinates":[1.4559708,43.6090065]},"properties":{"name":"Bistrot Ducoin","category":"Concert Bar","icon":"fa-music","address":"40 rue du Général Jean Compans 31500 Toulouse","logo":"bistrot_ducoin.jpg","events":[{"date":"2025-11-27","time":"19h30","price":"Prix Libre","desc":"Blues au coin du zinc (blues)","artist":"Blues au coin du zinc","youtube_video_id":"DtH8ajkSaj4","bandcamp_url":"","bandcamp_embed_url":""}]}}]}