{"type":"FeatureCollection","features":[{"type":"Feature","id":"toulouse-distorama-dalidaark","geometry":{"type":"Point","coordinates":[1.4318769,43.5988684]},"properties":{"name":"Dalidaark","category":"Concert Bar","icon":"🎵","address":"39 rue Réclusane 31300 Toulouse","logo":"dalidaark.png","events":[{"time":"20h","price":"Gratuit","desc":"NECRØ (dark wave/Lisbon)","artist":"NECRØ"}]}},{"type":"Feature","id":"toulouse-distorama-le-bijou","geometry":{"type":"Point","coordinates":[1.427542,43.584414]},"properties":{"name":"Le Bijou","category":"Concert Bar","icon":"🎵","address":"Le Bijou Toulouse","logo":"","events":[{"time":"","price":"","desc":"Atelier d’initiation à la linogravure avec Delphine Klos","artist":""}]}}]}