{"type":"FeatureCollection","features":[{"type":"Feature","id":"toulouse-distorama-theatre-de-la-cite-le-studio","geometry":{"type":"Point","coordinates":[1.4495094,43.6040582]},"properties":{"name":"Théâtre De La Cité","category":"Concert Bar","icon":"fa-music","address":"1 rue Pierre Baudis 31000 Toulouse","logo":"","events":[{"date":"2025-12-05","time":"19h","price":"Gratuit (sur réservation)","desc":"Festival Synchro → Ciné-Concert \"LOT IN SODOM\" avec ELIZABETH VOGLER (rituel vocal)","artist":"","youtube_video_id":"","bandcamp_url":"","bandcamp_embed_url":""}]}},{"type":"Feature","id":"toulouse-distorama-boudu-pont","geometry":{"type":"Point","coordinates":[1.4363272,43.5988936]},"properties":{"name":"Boudu pont","category":"Concert Bar","icon":"fa-music","address":"1 rue de la République 31300 Toulouse","logo":"","events":[{"date":"2025-12-05","time":"21h","price":"Gratuit","desc":"COLLECTIF CABANE, DJ SET (house /techno)","artist":"COLLECTIF CABANE, DJ SET","youtube_video_id":"","bandcamp_url":"","bandcamp_embed_url":""}]}},{"type":"Feature","id":"toulouse-distorama-bistrot-ducoin","geometry":{"type":"Point","coordinates":[1.4559708,43.6090065]},"properties":{"name":"Bistrot Ducoin","category":"Concert Bar","icon":"fa-music","address":"40 rue du Général Jean Compans 31500 Toulouse","logo":"bistrot_ducoin.jpg","events":[{"date":"2025-12-05","time":"21h","price":"Prix Libre","desc":"KAKAPHENIA 12 (karaoké battle)","artist":"KAKAPHENIA 12","youtube_video_id":"","bandcamp_url":"","bandcamp_embed_url":""}]}},{"type":"Feature","id":"toulouse-distorama-le-ravelin","geometry":{"type":"Point","coordinates":[1.4282089,43.599082]},"properties":{"name":"Le Ravelin","category":"Concert Bar","icon":"fa-music","address":"6 place du Ravelin 31300 Toulouse","logo":"le_ravelin.png","events":[{"date":"2025-12-05","time":"20h","price":"7€","desc":"STEREOÏD + PATROL (heavy pk)","artist":"STEREOÏD + PATROL","youtube_video_id":"","bandcamp_url":"","bandcamp_embed_url":""}]}},{"type":"Feature","id":"toulouse-distorama-gloria","geometry":{"type":"Point","coordinates":[1.4439408,43.6014516]},"properties":{"name":"Gloria","category":"Concert Bar","icon":"fa-music","address":"4 rue Peyras 31000 Toulouse","logo":"","events":[{"date":"2025-12-05","time":"19h","price":"Gratuit","desc":"Vernissage Expo “JEUX 2 MAUX” (jusqu’au 30/12) D’AXEL SANDRI","artist":"","youtube_video_id":"","bandcamp_url":"","bandcamp_embed_url":""}]}},{"type":"Feature","id":"toulouse-distorama-thirsty-monk","geometry":{"type":"Point","coordinates":[1.4538991,43.6090951]},"properties":{"name":"The Thirsty Monk","category":"Concert Bar","icon":"fa-music","address":"Allées Jean Jaurès 31000 Toulouse","logo":"","events":[{"date":"2025-12-05","time":"19h30","price":"Gratuit","desc":"NICOLAS WOILET (blues/grunge) + ZAPOÏ (stoner/grg)","artist":"NICOLAS WOILET (blues/grunge) + ZAPOÏ","youtube_video_id":"c__89LFRB7I","bandcamp_url":"","bandcamp_embed_url":""}]}},{"type":"Feature","id":"toulouse-distorama-le-winger","geometry":{"type":"Point","coordinates":[1.4516526,43.6108151]},"properties":{"name":"Le Winger","category":"Concert Bar","icon":"fa-music","address":"68 rue de Bayard 31000 Toulouse","logo":"","events":[{"date":"2025-12-05","time":"20h","price":"Prix Libre","desc":"HELLTHORN (black metal pk/Berlin) + CORPS VIDÉS (powerviolence)","artist":"HELLTHORN (black metal pk/Berlin) + CORPS VIDÉS","youtube_video_id":"0ljD8UeYikQ","bandcamp_url":"","bandcamp_embed_url":""}]}},{"type":"Feature","id":"toulouse-distorama-le-chorus","geometry":{"type":"Point","coordinates":[1.428844,43.5852109]},"properties":{"name":"Le Chorus","category":"Concert Bar","icon":"fa-music","address":"Le Chorus Toulouse","logo":"","events":[{"date":"2025-12-05","time":"20h30","price":"18/22€","desc":"Festival Setmana Santa → THIS ETERNAL DECAY (post-pk, indus goth/IT) + MORWAN (eastern post-pk/UK) + NIGHT IN ATHENS (coldwave, synth/GR-GB)","artist":"","youtube_video_id":"","bandcamp_url":"","bandcamp_embed_url":""}]}}]}