{"type":"FeatureCollection","features":[{"type":"Feature","id":"toulouse-distorama-l-engrenage","geometry":{"type":"Point","coordinates":[1.4880684,43.6274411]},"properties":{"name":"L'Engrenage","category":"Concert Bar","icon":"fa-music","address":"14 rue Louis Renault 31130 Balma","logo":"","events":[{"date":"2025-11-08","time":"18h","price":"10€ (pass 2 jrs 15€)","desc":"Festival Heavy Buddies Nights → WAKE THE DEAD (hxc) + NOT YOUR MOTHER (heavy rk) + SHUT DWN (hxc) + LOU STRUMMER (DJ set)","artist":"","youtube_video_id":"","bandcamp_url":"","bandcamp_embed_url":""}]}},{"type":"Feature","id":"toulouse-distorama-la-mecanique-des-fluides","geometry":{"type":"Point","coordinates":[1.4537749,43.6002765]},"properties":{"name":"La Mécanique des Fluides","category":"Concert Bar","icon":"fa-music","address":"1 rue Riquet 31000 Toulouse","logo":"","events":[{"date":"2025-11-08","time":"21h","price":"Gratuit","desc":"DJ Set par R.2614 (techno/ebm/dark) + ALICE (dark wave/slow techno/boudoir moderne)","artist":"DJ Set par R.2614 (techno/ebm/dark) + ALICE","youtube_video_id":"","bandcamp_url":"","bandcamp_embed_url":""}]}},{"type":"Feature","id":"toulouse-distorama-dalidaark","geometry":{"type":"Point","coordinates":[1.4318769,43.5988684]},"properties":{"name":"Dalidaark","category":"Concert Bar","icon":"fa-music","address":"39 rue Réclusane 31300 Toulouse","logo":"dalidaark.png","events":[{"date":"2025-11-08","time":"20h","price":"Gratuit","desc":"Soirée de La Mour (drag show)","artist":"","youtube_video_id":"","bandcamp_url":"","bandcamp_embed_url":""}]}},{"type":"Feature","id":"toulouse-distorama-boudu-pont","geometry":{"type":"Point","coordinates":[1.4363272,43.5988936]},"properties":{"name":"Boudu pont","category":"Concert Bar","icon":"fa-music","address":"1 rue de la République 31300 Toulouse","logo":"","events":[{"date":"2025-11-08","time":"21h","price":"Gratuit","desc":"Vernissage Clara Conty - 19h + jam session + dj set deep house YADOR LAVEE","artist":"","youtube_video_id":"","bandcamp_url":"","bandcamp_embed_url":""}]}},{"type":"Feature","id":"toulouse-distorama-le-winger","geometry":{"type":"Point","coordinates":[1.4516526,43.6108151]},"properties":{"name":"Le Winger","category":"Concert Bar","icon":"fa-music","address":"68 rue de Bayard 31000 Toulouse","logo":"","events":[{"date":"2025-11-08","time":"19h","price":"5/7€ suggérés","desc":"PHANTASIA (dream pop/NY) + ANGRY DEAD PIRATES (grg rk)","artist":"PHANTASIA (dream pop/NY) + ANGRY DEAD PIRATES","youtube_video_id":"hCbhZXkbHJg","bandcamp_url":"","bandcamp_embed_url":""}]}},{"type":"Feature","id":"toulouse-distorama-altigone","geometry":{"type":"Point","coordinates":[1.5254987,43.5537408]},"properties":{"name":"Altigone","category":"Concert Bar","icon":"fa-music","address":"Avenue Jean Bellieres Saint-Orens-de-Gameville","logo":"","events":[{"date":"2025-11-08","time":"20h30","price":"20/24€","desc":"CORPUS DELICTI (goth rk) + URGE (post pk) + KONSTROY (darkwave)","artist":"CORPUS DELICTI (goth rk) + URGE (post pk) + KONSTROY","youtube_video_id":"","bandcamp_url":"https://bandcamp.com/konstroy","bandcamp_embed_url":""}]}}]}