{"type":"FeatureCollection","features":[{"type":"Feature","id":"toulouse-distorama-le-ravelin","geometry":{"type":"Point","coordinates":[1.4282089,43.599082]},"properties":{"name":"Le Ravelin","category":"Concert Bar","icon":"fa-music","address":"6 place du Ravelin 31300 Toulouse","logo":"le_ravelin.png","events":[{"date":"2025-09-08","time":"20h","price":"5€","desc":"MICENBIERE (chansons pk/Lot) + SILLY WALK (power trio)","artist":"MICENBIERE (chansons pk/Lot) + SILLY WALK","youtube_video_id":"iV2ViNJFZC8","bandcamp_url":"https://sillywalk.bandcamp.com/","bandcamp_embed_url":""}]}}]}