{"type":"FeatureCollection","features":[{"type":"Feature","id":"toulouse-distorama-le-ravelin","geometry":{"type":"Point","coordinates":[1.4282089,43.599082]},"properties":{"name":"Le Ravelin","category":"Concert Bar","icon":"fa-music","address":"6 place du Ravelin 31300 Toulouse","logo":"le_ravelin.png","events":[{"date":"2026-05-14","time":"20h","price":"5/7/9 €","desc":"FANTÔME JOSEPHA (krautrk post-pk) + KOWAI MONO (electro horror pop) + DJ Set BRUIT BLANC (weirdo pk)","artist":"FANTÔME JOSEPHA (krautrk post-pk) + KOWAI MONO (electro horror pop) + DJ Set BRUIT BLANC","youtube_video_id":"V5TzrYF6Cr8","bandcamp_url":"","bandcamp_embed_url":""}]}},{"type":"Feature","id":"toulouse-distorama-bistrot-ducoin","geometry":{"type":"Point","coordinates":[1.4559708,43.6090065]},"properties":{"name":"Bistrot Ducoin","category":"Concert Bar","icon":"fa-music","address":"40 rue du Général Jean Compans 31500 Toulouse","logo":"bistrot_ducoin.jpg","events":[{"date":"2026-05-14","time":"19h30","price":"Prix Libre","desc":"TWO SEASONS (standard jazz)","artist":"TWO SEASONS","youtube_video_id":"","bandcamp_url":"","bandcamp_embed_url":""}]}},{"type":"Feature","id":"toulouse-distorama-la-mecanique-des-fluides","geometry":{"type":"Point","coordinates":[1.4537749,43.6002765]},"properties":{"name":"La Mécanique des Fluides","category":"Concert Bar","icon":"fa-music","address":"1 rue Riquet 31000 Toulouse","logo":"","events":[{"date":"2026-05-14","time":"20h","price":"3/5€","desc":"ICONOCLAST (oldschool hxc pk, USA) + guest","artist":"ICONOCLAST (oldschool hxc pk, USA) + guest","youtube_video_id":"","bandcamp_url":"","bandcamp_embed_url":""}]}},{"type":"Feature","id":"toulouse-distorama-little-o-clock","geometry":{"type":"Point","coordinates":[1.5208073,43.6444525]},"properties":{"name":"Little O'Clock","category":"Concert Bar","icon":"fa-music","address":"75 allée Jean Jaurès 31000 Toulouse","logo":"","events":[{"date":"2026-05-14","time":"20h","price":"Prix Libre","desc":"NOTHING FOR FREE + DRAW ME A BUTT + LITTLE TRICKS (pk rk)","artist":"NOTHING FOR FREE + DRAW ME A BUTT + LITTLE TRICKS","youtube_video_id":"","bandcamp_url":"","bandcamp_embed_url":""}]}},{"type":"Feature","id":"toulouse-distorama-le-dada","geometry":{"type":"Point","coordinates":[1.4383337,43.6123398]},"properties":{"name":"Le Dada","category":"Concert Bar","icon":"fa-music","address":"27 avenue Honoré Serres 31000 Toulouse","logo":"","events":[{"date":"2026-05-14","time":"20h","price":"5/7€","desc":"I.WOKE.UP.CHINESE (coldwave) + LAURA BOLT (darkpop) + SUKKUBE (dj set)","artist":"I.WOKE.UP.CHINESE (coldwave) + LAURA BOLT (darkpop) + SUKKUBE","youtube_video_id":"5iqgoer8P80","bandcamp_url":"","bandcamp_embed_url":""}]}},{"type":"Feature","id":"toulouse-distorama-boudu-pont","geometry":{"type":"Point","coordinates":[1.4363272,43.5988936]},"properties":{"name":"Boudu pont","category":"Concert Bar","icon":"fa-music","address":"1 rue de la République 31300 Toulouse","logo":"","events":[{"date":"2026-05-14","time":"","price":"18H","desc":"Quizz et afterwork","artist":"Quizz et afterwork","youtube_video_id":"","bandcamp_url":"","bandcamp_embed_url":""}]}}]}