{"type":"FeatureCollection","features":[{"type":"Feature","id":"toulouse-distorama-le-dada","geometry":{"type":"Point","coordinates":[1.4383337,43.6123398]},"properties":{"name":"Le Dada","category":"Concert Bar","icon":"🎵","address":"27 avenue Honoré Serres 31000 Toulouse","logo":"","events":[{"date":"2026-04-13","time":"20h30","price":"5€ adhésion annuelle","desc":"Les Vidéophages (projection de courts-métrages)","artist":""}]}},{"type":"Feature","id":"toulouse-distorama-le-ravelin","geometry":{"type":"Point","coordinates":[1.4282089,43.599082]},"properties":{"name":"Le Ravelin","category":"Concert Bar","icon":"🎵","address":"6 place du Ravelin 31300 Toulouse","logo":"le_ravelin.png","events":[{"date":"2026-04-13","time":"20h","price":"5/7/10 €","desc":"MONTAÑA (pk) + TOWER OF ONE (raw pk)","artist":"MONTAÑA (pk) + TOWER OF ONE"}]}}]}