{"type":"FeatureCollection","features":[{"type":"Feature","id":"toulouse-distorama-la-cinematheque","geometry":{"type":"Point","coordinates":[1.4414764,43.6068671]},"properties":{"name":"La Cinémathèque de Toulouse","category":"Cinema","icon":"fa-film","address":"69 rue du Taur 31000 Toulouse","logo":"","events":[{"date":"2026-04-11","time":"","price":"Jour et nuit","desc":"RÉOUVERTURE !! Projections non-stop + Visite des nouveaux espaces","artist":"","youtube_video_id":"","bandcamp_url":"","bandcamp_embed_url":""}]}},{"type":"Feature","id":"toulouse-distorama-le-ravelin","geometry":{"type":"Point","coordinates":[1.4282089,43.599082]},"properties":{"name":"Le Ravelin","category":"Concert Bar","icon":"fa-music","address":"6 place du Ravelin 31300 Toulouse","logo":"le_ravelin.png","events":[{"date":"2026-04-11","time":"20h","price":"5/8/10+ €","desc":"TOTOROCK (pk rk Ghibli) + PARAZYTE PETALS (alt/nu metal)","artist":"TOTOROCK (pk rk Ghibli) + PARAZYTE PETALS","youtube_video_id":"0TONxhOSkTo","bandcamp_url":"","bandcamp_embed_url":""}]}},{"type":"Feature","id":"toulouse-distorama-la-mecanique-des-fluides","geometry":{"type":"Point","coordinates":[1.4537749,43.6002765]},"properties":{"name":"La Mécanique des Fluides","category":"Concert Bar","icon":"fa-music","address":"1 rue Riquet 31000 Toulouse","logo":"","events":[{"date":"2026-04-11","time":"19h30","price":"3/5/7€","desc":"YUNK (pk/Bilbao) + ERREUR JEAN (post noise élec/Suisse) + CAGE (pk hxc/Suisse)","artist":"YUNK (pk/Bilbao) + ERREUR JEAN (post noise élec/Suisse) + CAGE","youtube_video_id":"TbQHJvW1kkQ","bandcamp_url":"","bandcamp_embed_url":""}]}},{"type":"Feature","id":"toulouse-distorama-boudu-pont","geometry":{"type":"Point","coordinates":[1.4363272,43.5988936]},"properties":{"name":"Boudu pont","category":"Concert Bar","icon":"fa-music","address":"1 rue de la République 31300 Toulouse","logo":"","events":[{"date":"2026-04-11","time":"22h","price":"Gratuit","desc":"DJ set PASTEQ (groove shaker)","artist":"DJ set PASTEQ","youtube_video_id":"g1wYmoy8TRI","bandcamp_url":"","bandcamp_embed_url":""}]}},{"type":"Feature","id":"toulouse-distorama-bar-belfort","geometry":{"type":"Point","coordinates":[1.4527628,43.6057612]},"properties":{"name":"Bar Belfort","category":"Concert Bar","icon":"fa-music","address":"9 place Belfort 31000 Toulouse","logo":"","events":[{"date":"2026-04-11","time":"","price":"2Oh30","desc":"THIAZ ITCH (wonderful weirdo solo)","artist":"THIAZ ITCH","youtube_video_id":"iK1VONoA0lc","bandcamp_url":"","bandcamp_embed_url":""}]}},{"type":"Feature","id":"toulouse-distorama-la-quadra-portet-sur-garonne","geometry":{"type":"Point","coordinates":[1.3927076,43.5380829]},"properties":{"name":"La Quadra","category":"Concert Bar","icon":"fa-music","address":"2 bis chemin de Candie 31120 Portet-sur-Garonne","logo":"","events":[{"date":"2026-04-11","time":"","price":"22H/7H","desc":"1FAM (live mental) + SHADOW REMINGTON (mix acidcore) + KRAT-R (live tribe) + SAITTHAM (mix hardtek) + RYUK (mix vinyle acidcore) + LOUVA (live tribe mental) + ÏLA (mix mental acidcore) + VÄKKARM (live tribe) + JEAN CALE (mix vinyle tribe) ","artist":"1FAM (live mental) + SHADOW REMINGTON (mix acidcore) + KRAT-R (live tribe) + SAITTHAM (mix hardtek) + RYUK (mix vinyle acidcore) + LOUVA (live tribe mental) + ÏLA (mix mental acidcore) + VÄKKARM (live tribe) + JEAN CALE","youtube_video_id":"J4utLqMCAWo","bandcamp_url":"","bandcamp_embed_url":""}]}}]}