{"type":"FeatureCollection","features":[{"type":"Feature","id":"toulouse-distorama-le-ravelin","geometry":{"type":"Point","coordinates":[1.4282089,43.599082]},"properties":{"name":"Le Ravelin","category":"Concert Bar","icon":"fa-music","address":"6 place du Ravelin 31300 Toulouse","logo":"le_ravelin.png","events":[{"date":"2026-05-03","time":"","price":"14h-19h","desc":"Fripe & Spritz","artist":"Fripe & Spritz","youtube_video_id":"cmSApBkT0HE","bandcamp_url":"https://kakakidsrecords.bandcamp.com/merch/t-shirt-massicot","bandcamp_embed_url":""}]}},{"type":"Feature","id":"toulouse-distorama-face-b-friperie","geometry":{"type":"Point","coordinates":[1.4528685,43.60564]},"properties":{"name":"Face B Friperie","category":"Boutique","icon":"fa-store","address":"7 place Damloup 31000 Toulouse","logo":"face_b.jpg","events":[{"date":"2026-05-03","time":"","price":"11h-14h","desc":"Exposition des couvertures de mai du Distorama, de 2016 à 2026","artist":"","youtube_video_id":"","bandcamp_url":"","bandcamp_embed_url":""}]}}]}