{"type":"FeatureCollection","features":[{"type":"Feature","id":"toulouse-distorama-le-ravelin","geometry":{"type":"Point","coordinates":[1.4282089,43.599082]},"properties":{"name":"Le Ravelin","category":"Concert Bar","icon":"🎵","address":"6 place du Ravelin 31300 Toulouse","logo":"le_ravelin.png","events":[{"time":"20h","price":"Prix Libre","desc":"SILVETHINGS","artist":"SILVETHINGS"}]}},{"type":"Feature","id":"toulouse-distorama-gloria","geometry":{"type":"Point","coordinates":[1.4439408,43.6014516]},"properties":{"name":"Gloria","category":"Concert Bar","icon":"🎵","address":"4 rue Peyras 31000 Toulouse","logo":"","events":[{"time":"22h","price":"Prix Libre","desc":"Dj set by OZAN (acid oriental)","artist":"Dj set by OZAN"}]}},{"type":"Feature","id":"toulouse-distorama-la-mecanique-des-fluides","geometry":{"type":"Point","coordinates":[1.4537749,43.6002765]},"properties":{"name":"La Mécanique des Fluides","category":"Concert Bar","icon":"🎵","address":"1 rue Riquet 31000 Toulouse","logo":"","events":[{"time":"20h","price":"Gratuit","desc":"Soirée DJ Set « NOIR ALL NIGHT LONG » : AKRAV + PHRED (dark disco/techno/house)","artist":""}]}},{"type":"Feature","id":"toulouse-distorama-the-petit-london","geometry":{"type":"Point","coordinates":[1.4538883,43.6008176]},"properties":{"name":"The Petit London","category":"Concert Bar","icon":"🎵","address":"7 rue Pierre-Paul Riquet 31000 Toulouse","logo":"","events":[{"time":"22h","price":"Gratuit","desc":"ARTISANS BANGER (disco house, tech house, hard house)","artist":"ARTISANS BANGER"}]}}]}