{"type":"FeatureCollection","features":[{"type":"Feature","id":"toulouse-distorama-la-mecanique-des-fluides","geometry":{"type":"Point","coordinates":[1.4537749,43.6002765]},"properties":{"name":"La Mécanique des Fluides","category":"Concert Bar","icon":"fa-music","address":"1 rue Riquet 31000 Toulouse","logo":"","events":[{"date":"2026-05-23","time":"20h","price":"3/5€","desc":"PRUNG (nu metal, Tls) + DEADBANE (metal alt, Tls)","artist":"PRUNG (nu metal, Tls) + DEADBANE"}]}},{"type":"Feature","id":"toulouse-distorama-le-ravelin","geometry":{"type":"Point","coordinates":[1.4282089,43.599082]},"properties":{"name":"Le Ravelin","category":"Concert Bar","icon":"fa-music","address":"6 place du Ravelin 31300 Toulouse","logo":"le_ravelin.png","events":[{"date":"2026-05-23","time":"20h","price":"Prix?","desc":"DESERT DEW (alt rk) + HOLYFISH (alt rk)","artist":"DESERT DEW (alt rk) + HOLYFISH"}]}},{"type":"Feature","id":"toulouse-distorama-the-petit-london","geometry":{"type":"Point","coordinates":[1.4538883,43.6008176]},"properties":{"name":"The Petit London","category":"Concert Bar","icon":"fa-music","address":"7 rue Pierre-Paul Riquet 31000 Toulouse","logo":"","events":[{"date":"2026-05-23","time":"22h","price":"Gratuit","desc":"DJ KONSTROY (post pk/darkwave)","artist":"DJ KONSTROY"}]}},{"type":"Feature","id":"toulouse-distorama-boudu-pont","geometry":{"type":"Point","coordinates":[1.4363272,43.5988936]},"properties":{"name":"Boudu pont","category":"Concert Bar","icon":"fa-music","address":"1 rue de la République 31300 Toulouse","logo":"","events":[{"date":"2026-05-23","time":"","price":"21H","desc":"Blindtest et bootyshake","artist":"Blindtest et bootyshake"}]}},{"type":"Feature","id":"toulouse-distorama-le-declic","geometry":{"type":"Point","coordinates":[1.4543659,43.6041704]},"properties":{"name":"Le Déclic","category":"Concert Bar","icon":"fa-music","address":"Le Déclic Toulouse","logo":"","events":[{"date":"2026-05-23","time":"","price":"19h30 à 23h – Gratuit","desc":"Jam session","artist":"Jam session"}]}},{"type":"Feature","id":"toulouse-distorama-l-engrenage","geometry":{"type":"Point","coordinates":[1.4880684,43.6274411]},"properties":{"name":"L'Engrenage","category":"Concert Bar","icon":"fa-music","address":"14 rue Louis Renault 31130 Balma","logo":"","events":[{"date":"2026-05-23","time":"","price":"20h – Prix libre","desc":"RED QUIET (sludge/noise) - CHIHUAS OF DEPTHS (rock alternatif) - KAALBAÅR (stoner/doom)","artist":"RED QUIET (sludge/noise) - CHIHUAS OF DEPTHS (rock alternatif) - KAALBAÅR"}]}},{"type":"Feature","id":"toulouse-distorama-face-b-friperie","geometry":{"type":"Point","coordinates":[1.4528685,43.60564]},"properties":{"name":"Face B Friperie","category":"Boutique","icon":"fa-store","address":"7 place Damloup 31000 Toulouse","logo":"face_b.jpg","events":[{"date":"2026-05-23","time":"","price":"12h-19h","desc":"Exposition des couvertures de mai du Distorama, de 2016 à 2026","artist":""}]}}]}