{"type":"FeatureCollection","features":[{"type":"Feature","id":"toulouse-distorama-le-ravelin","geometry":{"type":"Point","coordinates":[1.4282089,43.599082]},"properties":{"name":"Le Ravelin","category":"Concert Bar","icon":"🎵","address":"6 place du Ravelin 31300 Toulouse","logo":"le_ravelin.png","events":[{"time":"","price":"18h/1h","desc":"Fête de la Musique","artist":"Fête de la Musique"}]}},{"type":"Feature","id":"toulouse-distorama-la-mecanique-des-fluides","geometry":{"type":"Point","coordinates":[1.4537749,43.6002765]},"properties":{"name":"La Mécanique des Fluides","category":"Concert Bar","icon":"🎵","address":"1 rue Riquet 31000 Toulouse","logo":"mecanique_des_fluides.png","events":[{"time":"18h","price":"Gratuit","desc":"Fête de la Musique → DJs set","artist":"Fête de la Musique → DJs set"}]}},{"type":"Feature","id":"toulouse-distorama-gloria","geometry":{"type":"Point","coordinates":[1.4439408,43.6014516]},"properties":{"name":"Gloria","category":"Concert Bar","icon":"🎵","address":"4 rue Peyras 31000 Toulouse","logo":"","events":[{"time":"21h","price":"Gratuit","desc":"Fête de la Musique → DJ set acid oriental par OZAN","artist":"Fête de la Musique → DJ set acid oriental par OZAN"}]}}]}