{"type":"FeatureCollection","features":[{"type":"Feature","id":"toulouse-distorama-boudu-pont","geometry":{"type":"Point","coordinates":[1.4363272,43.5988936]},"properties":{"name":"Boudu pont","category":"Concert Bar","icon":"🎵","address":"1 rue de la République 31300 Toulouse","logo":"","events":[{"time":"20h","price":"Gratuit","desc":"Anniversaire du Boudu Pont (12 ans) → DJ set JUMIEN JUMINI (French touch / tech house)","artist":""}]}},{"type":"Feature","id":"toulouse-distorama-la-mecanique-des-fluides","geometry":{"type":"Point","coordinates":[1.4537749,43.6002765]},"properties":{"name":"La Mécanique des Fluides","category":"Concert Bar","icon":"🎵","address":"1 rue Riquet 31000 Toulouse","logo":"mecanique_des_fluides.png","events":[{"time":"20h","price":"5/7€","desc":"GRUESOME PLEDGE (death metal/Rennes) + SIGNIFICANT DAMAGE (hxc/Nord Pas de Calais)","artist":"GRUESOME PLEDGE (death metal/Rennes) + SIGNIFICANT DAMAGE"}]}},{"type":"Feature","id":"toulouse-distorama-local-piquemil","geometry":{"type":"Point","coordinates":[1.4324351,43.5992796]},"properties":{"name":"Local Piquemil","category":"Concert Bar","icon":"🎵","address":"6 rue Piquemil 31300 Toulouse","logo":"","events":[{"time":"19h","price":"Prix Libre","desc":"« Rêves Ravagés II » : FANNY MARCON + MUSÉE DE LA MATIÈRE NOIRE + CORIOLAN & AGRAFUZZ + Expo collages","artist":""}]}},{"type":"Feature","id":"toulouse-distorama-betty-pop-s","geometry":{"type":"Point","coordinates":[1.4285574,43.5988092]},"properties":{"name":"Betty Pop's","category":"Concert Bar","icon":"🎵","address":"Place du Ravelin 31300 Toulouse","logo":"","events":[{"time":"21h30","price":"Gratuit","desc":"DJ KONSTROY (post-pk, darkwave)","artist":"DJ KONSTROY"}]}},{"type":"Feature","id":"toulouse-distorama-the-petit-london","geometry":{"type":"Point","coordinates":[1.4538883,43.6008176]},"properties":{"name":"The Petit London","category":"Concert Bar","icon":"🎵","address":"7 rue Pierre-Paul Riquet 31000 Toulouse","logo":"","events":[{"time":"22h","price":"Gratuit","desc":"ARTISANS BANGER (disco house, tech house, hard house)","artist":"ARTISANS BANGER"}]}},{"type":"Feature","id":"toulouse-distorama-face-b-friperie","geometry":{"type":"Point","coordinates":[1.4528685,43.60564]},"properties":{"name":"Face B Friperie","category":"Boutique","icon":"🛍️","address":"7 place Damloup 31000 Toulouse","logo":"face_b.jpg","events":[{"time":"","price":"12h-19h","desc":"Exposition des couvertures de mai du Distorama, de 2016 à 2026","artist":""}]}}]}