{"type":"FeatureCollection","features":[{"type":"Feature","id":"toulouse-distorama-le-ravelin","geometry":{"type":"Point","coordinates":[1.4282089,43.599082]},"properties":{"name":"Le Ravelin","category":"Concert Bar","icon":"🎵","address":"6 place du Ravelin 31300 Toulouse","logo":"le_ravelin.png","events":[{"date":"2026-03-09","time":"20h","price":"Prix Libre","desc":"YAGUARATÉ CREW + OLD TIMES (style?)","artist":"YAGUARATÉ CREW + OLD TIMES"}]}},{"type":"Feature","id":"toulouse-distorama-le-dada","geometry":{"type":"Point","coordinates":[1.4383337,43.6123398]},"properties":{"name":"Le Dada","category":"Concert Bar","icon":"🎵","address":"27 avenue Honoré Serres 31000 Toulouse","logo":"","events":[{"date":"2026-03-09","time":"20h30","price":"5€ adhésion annuelle","desc":"Les Vidéophages (Projection de courts-métrages)","artist":""}]}},{"type":"Feature","id":"toulouse-distorama-le-cameleon","geometry":{"type":"Point","coordinates":[1.433005,43.599585]},"properties":{"name":"Le Caméléon","category":"Concert Bar","icon":"🎵","address":"19 rue Pont Saint Pierre 31300 Toulouse","logo":"","events":[{"date":"2026-03-09","time":"19h30","price":"5€ + 1€ adhésion annuelle","desc":"CATHERINE MIMOSA ⇄ DARK DANGER (down tempo) + FERA (noise marécageuse)","artist":"CATHERINE MIMOSA ⇄ DARK DANGER (down tempo) + FERA"}]}}]}