{"type":"FeatureCollection","features":[{"type":"Feature","id":"toulouse-distorama-le-ravelin","geometry":{"type":"Point","coordinates":[1.4282089,43.599082]},"properties":{"name":"Le Ravelin","category":"Concert Bar","icon":"fa-music","address":"6 place du Ravelin 31300 Toulouse","logo":"le_ravelin.png","events":[{"date":"2026-05-01","time":"20h","price":"5/7/10€","desc":"FLUFFY MACHINE (surfpkindierk) + OUTATIME BAND (RP 90's)","artist":"FLUFFY MACHINE (surfpkindierk) + OUTATIME BAND","youtube_video_id":"kACximgiF60","bandcamp_url":"","bandcamp_embed_url":""}]}}]}