{"type":"FeatureCollection","features":[{"type":"Feature","id":"toulouse-distorama-la-mecanique-des-fluides","geometry":{"type":"Point","coordinates":[1.4537749,43.6002765]},"properties":{"name":"La Mécanique des Fluides","category":"Concert Bar","icon":"fa-music","address":"1 rue Riquet 31000 Toulouse","logo":"","events":[{"date":"2026-04-05","time":"17h30","price":"Gratuit","desc":"7 ans de la Méca : DJs Set et Tombola","artist":"7 ans de la Méca : DJs Set et Tombola","youtube_video_id":"","bandcamp_url":"","bandcamp_embed_url":""}]}},{"type":"Feature","id":"toulouse-distorama-le-ravelin","geometry":{"type":"Point","coordinates":[1.4282089,43.599082]},"properties":{"name":"Le Ravelin","category":"Concert Bar","icon":"fa-music","address":"6 place du Ravelin 31300 Toulouse","logo":"le_ravelin.png","events":[{"date":"2026-04-05","time":"","price":"14h à 19h","desc":"Fripe & Spritz","artist":"Fripe & Spritz","youtube_video_id":"cmSApBkT0HE","bandcamp_url":"https://kakakidsrecords.bandcamp.com/merch/t-shirt-massicot","bandcamp_embed_url":""}]}},{"type":"Feature","id":"toulouse-distorama-boudu-pont","geometry":{"type":"Point","coordinates":[1.4363272,43.5988936]},"properties":{"name":"Boudu pont","category":"Concert Bar","icon":"fa-music","address":"1 rue de la République 31300 Toulouse","logo":"","events":[{"date":"2026-04-05","time":"18h","price":"Gratuit","desc":"Concert SLIM PAUL (blues)","artist":"","youtube_video_id":"","bandcamp_url":"","bandcamp_embed_url":""}]}}]}