{"type":"FeatureCollection","features":[{"type":"Feature","id":"toulouse-distorama-boudu-pont","geometry":{"type":"Point","coordinates":[1.4363272,43.5988936]},"properties":{"name":"Boudu pont","category":"Concert Bar","icon":"fa-music","address":"1 rue de la République 31300 Toulouse","logo":"","events":[{"date":"2026-05-29","time":"20h","price":"Gratuit","desc":"JEFF ZIMA (rk/blues)","artist":"JEFF ZIMA","youtube_video_id":"","bandcamp_url":"","bandcamp_embed_url":""}]}},{"type":"Feature","id":"toulouse-distorama-la-mecanique-des-fluides","geometry":{"type":"Point","coordinates":[1.4537749,43.6002765]},"properties":{"name":"La Mécanique des Fluides","category":"Concert Bar","icon":"fa-music","address":"1 rue Riquet 31000 Toulouse","logo":"","events":[{"date":"2026-05-29","time":"19h30","price":"5€/8€/10€ suggérés","desc":"PANIC MONSTER (pk folk) + MARTY WENT BACK (pk rk) + LAME SHOT! (Pop pk)","artist":"PANIC MONSTER (pk folk) + MARTY WENT BACK (pk rk) + LAME SHOT!","youtube_video_id":"yPK8QtVjMF0","bandcamp_url":"","bandcamp_embed_url":""}]}},{"type":"Feature","id":"toulouse-distorama-le-ravelin","geometry":{"type":"Point","coordinates":[1.4282089,43.599082]},"properties":{"name":"Le Ravelin","category":"Concert Bar","icon":"fa-music","address":"6 place du Ravelin 31300 Toulouse","logo":"le_ravelin.png","events":[{"date":"2026-05-29","time":"20h","price":"5+€","desc":"JB HANAK (electronic spoken word) + CLAIRE VON CORDA (spoken word)","artist":"JB HANAK (electronic spoken word) + CLAIRE VON CORDA","youtube_video_id":"","bandcamp_url":"","bandcamp_embed_url":""}]}},{"type":"Feature","id":"toulouse-distorama-bistrot-ducoin","geometry":{"type":"Point","coordinates":[1.4559708,43.6090065]},"properties":{"name":"Bistrot Ducoin","category":"Concert Bar","icon":"fa-music","address":"40 rue du Général Jean Compans 31500 Toulouse","logo":"bistrot_ducoin.jpg","events":[{"date":"2026-05-29","time":"21h","price":"Prix Libre","desc":"TEXARKANA (american roots)","artist":"TEXARKANA","youtube_video_id":"","bandcamp_url":"","bandcamp_embed_url":""}]}},{"type":"Feature","id":"toulouse-distorama-bar-belfort","geometry":{"type":"Point","coordinates":[1.4527628,43.6057612]},"properties":{"name":"Bar Belfort","category":"Concert Bar","icon":"fa-music","address":"9 place Belfort 31000 Toulouse","logo":"","events":[{"date":"2026-05-29","time":"19h","price":"5/7€","desc":"WET DREAM WAR MACHINE (pk hxc) + friends","artist":"WET DREAM WAR MACHINE (pk hxc) + friends","youtube_video_id":"","bandcamp_url":"","bandcamp_embed_url":""}]}},{"type":"Feature","id":"toulouse-distorama-the-petit-london","geometry":{"type":"Point","coordinates":[1.4538883,43.6008176]},"properties":{"name":"The Petit London","category":"Concert Bar","icon":"fa-music","address":"7 rue Pierre-Paul Riquet 31000 Toulouse","logo":"","events":[{"date":"2026-05-29","time":"22h","price":"Gratuit","desc":"MAMELLE BENT (RnB Dancehall)","artist":"MAMELLE BENT","youtube_video_id":"","bandcamp_url":"","bandcamp_embed_url":""}]}},{"type":"Feature","id":"toulouse-distorama-le-declic","geometry":{"type":"Point","coordinates":[1.4543659,43.6041704]},"properties":{"name":"Le Déclic","category":"Concert Bar","icon":"fa-music","address":"Le Déclic Toulouse","logo":"","events":[{"date":"2026-05-29","time":"","price":"19h30 à 23h – Gratuit","desc":"Jam session","artist":"Jam session","youtube_video_id":"","bandcamp_url":"","bandcamp_embed_url":""}]}}]}