{"type":"FeatureCollection","features":[{"type":"Feature","id":"toulouse-distorama-le-taquin","geometry":{"type":"Point","coordinates":[1.4278744,43.6059002]},"properties":{"name":"Le Taquin","category":"Concert Bar","icon":"🎵","address":"23 rue des Amidonniers 31300 Toulouse","logo":"","events":[{"date":"2026-04-14","time":"19h30","price":"10/12€","desc":"REAGGAE WORKERS OF THE WORLD (RWW) & THE BANDULUS (ska, soui, rockesteady)","artist":"REAGGAE WORKERS OF THE WORLD (RWW) & THE BANDULUS"}]}}]}