{"type":"FeatureCollection","features":[{"type":"Feature","id":"toulouse-distorama-le-ravelin","geometry":{"type":"Point","coordinates":[1.4282089,43.599082]},"properties":{"name":"Le Ravelin","category":"Concert Bar","icon":"fa-music","address":"6 place du Ravelin 31300 Toulouse","logo":"le_ravelin.png","events":[{"date":"2026-02-20","time":"20h","price":"Prix Libre","desc":" *ANNULE!!* IRE (post hxc)","artist":"*ANNULE!!* IRE","youtube_video_id":"","bandcamp_url":"","bandcamp_embed_url":""}]}},{"type":"Feature","id":"toulouse-distorama-bistrot-ducoin","geometry":{"type":"Point","coordinates":[1.4559708,43.6090065]},"properties":{"name":"Bistrot Ducoin","category":"Concert Bar","icon":"fa-music","address":"40 rue du Général Jean Compans 31500 Toulouse","logo":"bistrot_ducoin.jpg","events":[{"date":"2026-02-20","time":"21h","price":"5€","desc":"GATTACA (rk du coin)","artist":"GATTACA","youtube_video_id":"","bandcamp_url":"","bandcamp_embed_url":""}]}},{"type":"Feature","id":"toulouse-distorama-la-mecanique-des-fluides","geometry":{"type":"Point","coordinates":[1.4537749,43.6002765]},"properties":{"name":"La Mécanique des Fluides","category":"Concert Bar","icon":"fa-music","address":"1 rue Riquet 31000 Toulouse","logo":"","events":[{"date":"2026-02-20","time":"20h","price":"3/5/7€","desc":"REAL DEAL (hxc/Tours) + GET REAL (hxc/Albi)","artist":"REAL DEAL (hxc/Tours) + GET REAL","youtube_video_id":"KhF6VjBtSbs","bandcamp_url":"","bandcamp_embed_url":""}]}},{"type":"Feature","id":"toulouse-distorama-boudu-pont","geometry":{"type":"Point","coordinates":[1.4363272,43.5988936]},"properties":{"name":"Boudu pont","category":"Concert Bar","icon":"fa-music","address":"1 rue de la République 31300 Toulouse","logo":"","events":[{"date":"2026-02-20","time":"21h","price":"Gratuit","desc":"TRAKOEUR + LIIZI + LUCILLE ONDES + ELISPEN (rap/pop electro)","artist":"TRAKOEUR + LIIZI + LUCILLE ONDES + ELISPEN","youtube_video_id":"3EvHzgk7i6A","bandcamp_url":"","bandcamp_embed_url":""}]}},{"type":"Feature","id":"toulouse-distorama-labo-des-arts","geometry":{"type":"Point","coordinates":[1.4652089,43.6055126]},"properties":{"name":"Labo Des Arts","category":"Concert Bar","icon":"fa-music","address":"8 rue Clément 31500 Toulouse","logo":"","events":[{"date":"2026-02-20","time":"","price":"19H30","desc":"ASTROMILK (rk indé) + STEPHAN (pop folk)","artist":"ASTROMILK (rk indé) + STEPHAN","youtube_video_id":"hxW1FqWtH8g","bandcamp_url":"","bandcamp_embed_url":""}]}},{"type":"Feature","id":"toulouse-distorama-thirsty-monk","geometry":{"type":"Point","coordinates":[1.4538991,43.6090951]},"properties":{"name":"The Thirsty Monk","category":"Concert Bar","icon":"fa-music","address":"Allées Jean Jaurès 31000 Toulouse","logo":"","events":[{"date":"2026-02-20","time":"21h30","price":"Prix Libre","desc":"VOLTA (rock) + YAPA (punk rock)","artist":"VOLTA (rock) + YAPA","youtube_video_id":"","bandcamp_url":"","bandcamp_embed_url":""}]}},{"type":"Feature","id":"toulouse-distorama-le-cameleon","geometry":{"type":"Point","coordinates":[1.433005,43.599585]},"properties":{"name":"Le Caméléon","category":"Concert Bar","icon":"fa-music","address":"19 rue Pont Saint Pierre 31300 Toulouse","logo":"","events":[{"date":"2026-02-20","time":"20h","price":"3/5/7€","desc":"DONKET STOCK PARTY x ÉTIENNE GAZEL (folk) + CHEVALIERE DU JAZZ (live solo de adorablesteak96)","artist":"DONKET STOCK PARTY x ÉTIENNE GAZEL (folk) + CHEVALIERE DU JAZZ","youtube_video_id":"","bandcamp_url":"","bandcamp_embed_url":""}]}}]}