{"type":"FeatureCollection","features":[{"type":"Feature","id":"toulouse-distorama-boudu-pont","geometry":{"type":"Point","coordinates":[1.4363272,43.5988936]},"properties":{"name":"Boudu pont","category":"Concert Bar","icon":"fa-music","address":"1 rue de la République 31300 Toulouse","logo":"","events":[{"date":"2026-01-03","time":"22h","price":"Gratuit","desc":"BOUDU PONT → Karaoké + Bootyshake","artist":"BOUDU PONT → Karaoké + Bootyshake","youtube_video_id":"","bandcamp_url":"","bandcamp_embed_url":""},{"date":"2026-01-06","time":"18h","price":"Gratuit","desc":"Vernissage : CEL HUB, artiste contemporaine, loufoque et insolite","artist":"","youtube_video_id":"","bandcamp_url":"","bandcamp_embed_url":""},{"date":"2026-01-09","time":"21h","price":"Gratuit","desc":"DJ set, EKYOZ (tropical bass, bass music et drum&bass)","artist":"DJ set, EKYOZ","youtube_video_id":"","bandcamp_url":"","bandcamp_embed_url":""},{"date":"2026-01-10","time":"21h","price":"Gratuit","desc":"DJ set, COLLECTIF CARABINE (disco, house, indie)","artist":"DJ set, COLLECTIF CARABINE","youtube_video_id":"","bandcamp_url":"","bandcamp_embed_url":""},{"date":"2026-01-11","time":"18h30","price":"Gratuit","desc":"Le Yassa de Tonton (cuisine sénégalaise)","artist":"Le Yassa de Tonton","youtube_video_id":"","bandcamp_url":"","bandcamp_embed_url":""},{"date":"2026-01-16","time":"21h","price":"Gratuit","desc":"COLLECTIF EDELSTEIN → DJ set + expo éphémère : TYLIA, (uk grg, techno hard groove)","artist":"","youtube_video_id":"","bandcamp_url":"","bandcamp_embed_url":""},{"date":"2026-01-17","time":"22h","price":"Gratuit","desc":"Blind Test + Bootyshake","artist":"Blind Test + Bootyshake","youtube_video_id":"","bandcamp_url":"","bandcamp_embed_url":""},{"date":"2026-01-18","time":"18h","price":"Gratuit","desc":"ADHOC (Electro organique, humain et machine)","artist":"ADHOC","youtube_video_id":"vBXNczRvheI","bandcamp_url":"","bandcamp_embed_url":""},{"date":"2026-01-22","time":"19h","price":"sur résa","desc":"Ateliers créateurs : Girly Party: « Strass et ongles » avec DENTONSTRASS et DELUSIO'NAILS","artist":"","youtube_video_id":"","bandcamp_url":"","bandcamp_embed_url":""},{"date":"2026-01-23","time":"21h","price":"Gratuit","desc":"COLLECTIF LE NOÏO : ODY b2b CARRAD + WALLACE b2b GROMIX (dj set new wave/ electronica bass/ break/ techno/ fiesta)","artist":"COLLECTIF LE NOÏO : ODY b2b CARRAD + WALLACE b2b GROMIX","youtube_video_id":"","bandcamp_url":"","bandcamp_embed_url":""},{"date":"2026-01-24","time":"22h","price":"Gratuit","desc":"Quiz cinéma musique + bootyshake","artist":"Quiz cinéma musique + bootyshake","youtube_video_id":"","bandcamp_url":"","bandcamp_embed_url":""},{"date":"2026-01-30","time":"21h","price":"Gratuit","desc":"COLLECTIF THE ROOM MATES : IRIS (c'est le miel) + DASHL + BRAISE + DJ WALKIN (DJset rap/hiphop/funk)","artist":"COLLECTIF THE ROOM MATES : IRIS (c'est le miel) + DASHL + BRAISE + DJ WALKIN","youtube_video_id":"","bandcamp_url":"","bandcamp_embed_url":""},{"date":"2026-01-31","time":"22h","price":"Gratuit","desc":"Karaoké + Bootyshake","artist":"Karaoké + Bootyshake","youtube_video_id":"","bandcamp_url":"","bandcamp_embed_url":""}]}},{"type":"Feature","id":"toulouse-distorama-le-winger","geometry":{"type":"Point","coordinates":[1.4516526,43.6108151]},"properties":{"name":"Le Winger","category":"Concert Bar","icon":"fa-music","address":"68 rue de Bayard 31000 Toulouse","logo":"","events":[{"date":"2026-01-03","time":"20h","price":"5€","desc":"FRANKY STEIN & F(R)IENDS + guest","artist":"FRANKY STEIN & F(R)IENDS + guest","youtube_video_id":"3WPOXHmW200","bandcamp_url":"","bandcamp_embed_url":""},{"date":"2026-01-09","time":"19h","price":"Prix Libre","desc":"Expo photo BÉBERT RATURE + STRIE (perf.audio.visu) + LARME INCENDIE (VJing & DJ) + Guests (guitare-chanson)","artist":"","youtube_video_id":"","bandcamp_url":"","bandcamp_embed_url":""}]}},{"type":"Feature","id":"toulouse-distorama-bistrot-ducoin","geometry":{"type":"Point","coordinates":[1.4559708,43.6090065]},"properties":{"name":"Bistrot Ducoin","category":"Concert Bar","icon":"fa-music","address":"40 rue du Général Jean Compans 31500 Toulouse","logo":"bistrot_ducoin.jpg","events":[{"date":"2026-01-08","time":"19h30","price":"Prix Libre","desc":"ZÈBRE (cover rk)","artist":"ZÈBRE","youtube_video_id":"","bandcamp_url":"","bandcamp_embed_url":""},{"date":"2026-01-09","time":"21h","price":"Prix Libre","desc":"Soirée « QUEER & SALES CONNES » avec AKALY & SPINI + DJ PATO (pk/hiphop/hxc/post pk)","artist":"","youtube_video_id":"","bandcamp_url":"","bandcamp_embed_url":""},{"date":"2026-01-15","time":"19h30","price":"Prix Libre","desc":"THOM SOUYEUR (chanson à texte humoristique)","artist":"THOM SOUYEUR","youtube_video_id":"","bandcamp_url":"","bandcamp_embed_url":""},{"date":"2026-01-16","time":"19h","price":"Prix Libre","desc":"Vernissage AXEL + LA MINE (pk)","artist":"","youtube_video_id":"","bandcamp_url":"","bandcamp_embed_url":""},{"date":"2026-01-22","time":"19h30","price":"Prix Libre","desc":"BOURDY COLLECTIF (rk festif pour dépressif)","artist":"BOURDY COLLECTIF","youtube_video_id":"sYa_lxp4a1Q","bandcamp_url":"","bandcamp_embed_url":""},{"date":"2026-01-23","time":"21h","price":"Prix Libre","desc":"BLACK MEADOWS + guest","artist":"BLACK MEADOWS + guest","youtube_video_id":"3WPOXHmW200","bandcamp_url":"","bandcamp_embed_url":""},{"date":"2026-01-29","time":"19h30","price":"Prix Libre","desc":"Blues au coin du zinc","artist":"Blues au coin du zinc","youtube_video_id":"DtH8ajkSaj4","bandcamp_url":"","bandcamp_embed_url":""},{"date":"2026-01-30","time":"21h","price":"Prix Libre","desc":"TOURISTE (trio pop)","artist":"TOURISTE","youtube_video_id":"","bandcamp_url":"","bandcamp_embed_url":""}]}},{"type":"Feature","id":"toulouse-distorama-dagobar","geometry":{"type":"Point","coordinates":[1.4437868,43.5983682]},"properties":{"name":"Dagobar","category":"Concert Bar","icon":"fa-music","address":"Dagobar Toulouse","logo":"","events":[{"date":"2026-01-09","time":"21h","price":"Gratuit","desc":"LAPLAGE + SEAGULL + HELLISHA SAUVAGE (DJ sets house, indie dance, psytech)","artist":"LAPLAGE + SEAGULL + HELLISHA SAUVAGE","youtube_video_id":"","bandcamp_url":"","bandcamp_embed_url":""},{"date":"2026-01-10","time":"21h","price":"Gratuit","desc":"BASS UNITED : NUANCE + DUBKILLAH (dubstep/d&b)","artist":"BASS UNITED : NUANCE + DUBKILLAH","youtube_video_id":"","bandcamp_url":"","bandcamp_embed_url":""}]}},{"type":"Feature","id":"toulouse-distorama-bar-belfort","geometry":{"type":"Point","coordinates":[1.4527628,43.6057612]},"properties":{"name":"Bar Belfort","category":"Concert Bar","icon":"fa-music","address":"9 place Belfort 31000 Toulouse","logo":"","events":[{"date":"2026-01-11","time":"19h","price":"Gratuit","desc":"GASPARD LE VENTRE (chanson française - hard karaoke wave - pop fusion) + DJ FONDUE","artist":"GASPARD LE VENTRE (chanson française - hard karaoke wave - pop fusion) + DJ FONDUE","youtube_video_id":"","bandcamp_url":"","bandcamp_embed_url":""}]}},{"type":"Feature","id":"toulouse-distorama-le-dada","geometry":{"type":"Point","coordinates":[1.4383337,43.6123398]},"properties":{"name":"Le Dada","category":"Concert Bar","icon":"fa-music","address":"27 avenue Honoré Serres 31000 Toulouse","logo":"","events":[{"date":"2026-01-12","time":"20h30","price":"5€ adhésion annuelle","desc":"Les Vidéophages (Projection de courts-métrages)","artist":"","youtube_video_id":"","bandcamp_url":"","bandcamp_embed_url":""},{"date":"2026-01-17","time":"20h","price":"7/9€","desc":"MUMUSE (electro cold speed) + BUZZKILL (post pk / dark wave) + FRANCKY LANIGHT DJ set","artist":"MUMUSE (electro cold speed) + BUZZKILL (post pk / dark wave) + FRANCKY LANIGHT DJ set","youtube_video_id":"","bandcamp_url":"","bandcamp_embed_url":""},{"date":"2026-01-23","time":"20h","price":"7/10€","desc":"RUHR (synth pkwave/Berlin) + Djs PAULINA PANIK + KONSTROY","artist":"RUHR (synth pkwave/Berlin) + Djs PAULINA PANIK + KONSTROY","youtube_video_id":"tHuEt9cxqy0","bandcamp_url":"","bandcamp_embed_url":""}]}},{"type":"Feature","id":"toulouse-distorama-metronum","geometry":{"type":"Point","coordinates":[1.4506,43.6415]},"properties":{"name":"Le Metronum","category":"Concert Bar","icon":"fa-music","address":"Rond-Point de Mondonville 31200 Toulouse","logo":"","events":[{"date":"2026-01-13","time":"20h","price":"20€","desc":"LYDIA LUNCH & MARC HURTADO (play Alan Vega) + WILD WOMEN (post pk)","artist":"LYDIA LUNCH & MARC HURTADO (play Alan Vega) + WILD WOMEN","youtube_video_id":"","bandcamp_url":"","bandcamp_embed_url":""}]}},{"type":"Feature","id":"toulouse-distorama-la-mecanique-des-fluides","geometry":{"type":"Point","coordinates":[1.4537749,43.6002765]},"properties":{"name":"La Mécanique des Fluides","category":"Concert Bar","icon":"fa-music","address":"1 rue Riquet 31000 Toulouse","logo":"","events":[{"date":"2026-01-17","time":"20h","price":"Prix Libre","desc":"ENFANTS DES ETOILES (rituel/indus hxc) + ORGANES EN SOLDES (hard noise/électronique)","artist":"ENFANTS DES ETOILES (rituel/indus hxc) + ORGANES EN SOLDES","youtube_video_id":"BjXDhk-XE4g","bandcamp_url":"","bandcamp_embed_url":""},{"date":"2026-01-24","time":"21h30","price":"Gratuit","desc":"DJs Set BOUDOIR MODERNE : DAME ELISE + COLDSIVERS","artist":"DJs Set BOUDOIR MODERNE : DAME ELISE + COLDSIVERS","youtube_video_id":"","bandcamp_url":"","bandcamp_embed_url":""}]}},{"type":"Feature","id":"toulouse-distorama-local-piquemil","geometry":{"type":"Point","coordinates":[1.4324351,43.5992796]},"properties":{"name":"Local Piquemil","category":"Concert Bar","icon":"fa-music","address":"6 rue Piquemil 31300 Toulouse","logo":"","events":[{"date":"2026-01-17","time":"20h","price":"Prix Libre","desc":"« Rêves ravagés » → HAXARKHANE (ambient noise) + MINITELLE XEROXE (trip wave post-dub) + MUSÉE DE LA MATIÈRE NOIRE (noise) + LA GATOUN & LES ENFANTS MAUDITS (hoop dance) + expos","artist":"","youtube_video_id":"","bandcamp_url":"","bandcamp_embed_url":""}]}},{"type":"Feature","id":"toulouse-distorama-little-o-clock","geometry":{"type":"Point","coordinates":[1.5208073,43.6444525]},"properties":{"name":"Little O'Clock","category":"Concert Bar","icon":"fa-music","address":"75 allée Jean Jaurès 31000 Toulouse","logo":"","events":[{"date":"2026-01-19","time":"21h","price":"Gratuit","desc":"FRANTIC FORMS (grunge/pk) + FREEDOM UTOPIA (rk alternatif)","artist":"FRANTIC FORMS (grunge/pk) + FREEDOM UTOPIA","youtube_video_id":"","bandcamp_url":"","bandcamp_embed_url":""},{"date":"2026-01-22","time":"20h30","price":"Prix Libre","desc":"BUBBLEGUM CORAIL (synthwave) + FILS KURYLAK (DJset full synth)","artist":"BUBBLEGUM CORAIL (synthwave) + FILS KURYLAK","youtube_video_id":"","bandcamp_url":"","bandcamp_embed_url":""}]}},{"type":"Feature","id":"toulouse-distorama-gloria","geometry":{"type":"Point","coordinates":[1.4439408,43.6014516]},"properties":{"name":"Gloria","category":"Concert Bar","icon":"fa-music","address":"4 rue Peyras 31000 Toulouse","logo":"","events":[{"date":"2026-01-23","time":"21h","price":"Gratuit","desc":"Blind test","artist":"Blind test","youtube_video_id":"wRyD81oBUSM","bandcamp_url":"","bandcamp_embed_url":""}]}},{"type":"Feature","id":"toulouse-distorama-l-engrenage","geometry":{"type":"Point","coordinates":[1.4880684,43.6274411]},"properties":{"name":"L'Engrenage","category":"Concert Bar","icon":"fa-music","address":"14 rue Louis Renault 31130 Balma","logo":"","events":[{"date":"2026-01-23","time":"21h","price":"Prix Libre","desc":"SOULSPLITTER (metalcore) + SRAIL (mathcore)","artist":"SOULSPLITTER (metalcore) + SRAIL","youtube_video_id":"wg71FmiJVAU","bandcamp_url":"","bandcamp_embed_url":""},{"date":"2026-01-31","time":"20h","price":"15€","desc":"COMBUST + SPEEDWAY + COLD STRESS + LOSING PATIENCE (hardcore)","artist":"COMBUST + SPEEDWAY + COLD STRESS + LOSING PATIENCE","youtube_video_id":"","bandcamp_url":"","bandcamp_embed_url":""}]}},{"type":"Feature","id":"toulouse-distorama-le-ravelin","geometry":{"type":"Point","coordinates":[1.4282089,43.599082]},"properties":{"name":"Le Ravelin","category":"Concert Bar","icon":"fa-music","address":"6 place du Ravelin 31300 Toulouse","logo":"le_ravelin.png","events":[{"date":"2026-01-24","time":"20h","price":"5€","desc":"ALL BORDERS KILL + DAMN HIT (hxc)","artist":"ALL BORDERS KILL + DAMN HIT","youtube_video_id":"","bandcamp_url":"","bandcamp_embed_url":""},{"date":"2026-01-25","time":"20h","price":"Prix Libre","desc":"THE POOKIES + LAME SHOT (pk)","artist":"THE POOKIES + LAME SHOT","youtube_video_id":"","bandcamp_url":"","bandcamp_embed_url":""},{"date":"2026-01-30","time":"19h30","price":"5€","desc":"JOE BOYLE (solo folk) + NOVO SKELTER (post pk) + PRETTY INSIDE (indie rk noisy pop)","artist":"JOE BOYLE (solo folk) + NOVO SKELTER (post pk) + PRETTY INSIDE","youtube_video_id":"d04m6BumNrQ","bandcamp_url":"","bandcamp_embed_url":""}]}},{"type":"Feature","id":"toulouse-distorama-delicatessen","geometry":{"type":"Point","coordinates":[1.454009,43.6013192]},"properties":{"name":"Le Delicatessen","category":"Concert Bar","icon":"fa-music","address":"11 Rue Pierre-Paul Riquet, 31000 Toulouse","logo":"","events":[{"date":"2026-01-24","time":"22h30","price":"Gratuit","desc":"HELLISHA SAUVAGE (DJ set downtempo to indie dance)","artist":"HELLISHA SAUVAGE","youtube_video_id":"","bandcamp_url":"","bandcamp_embed_url":""}]}},{"type":"Feature","id":"toulouse-distorama-labo-des-arts","geometry":{"type":"Point","coordinates":[1.4652089,43.6055126]},"properties":{"name":"Labo Des Arts","category":"Concert Bar","icon":"fa-music","address":"8 rue Clément 31500 Toulouse","logo":"","events":[{"date":"2026-01-25","time":"19h15","price":"8,80€","desc":"GINGERELLA (UK/glam rk)","artist":"GINGERELLA","youtube_video_id":"","bandcamp_url":"","bandcamp_embed_url":""}]}},{"type":"Feature","id":"toulouse-distorama-le-bikini","geometry":{"type":"Point","coordinates":[1.4854047,43.5480492]},"properties":{"name":"Le Bikini","category":"Concert Bar","icon":"fa-music","address":"Le Bikini Toulouse","logo":"","events":[{"date":"2026-01-25","time":"","price":"10h-18h","desc":"25e Convention du disque de Kicking Records","artist":"25e Convention du disque de Kicking Records","youtube_video_id":"","bandcamp_url":"","bandcamp_embed_url":""}]}},{"type":"Feature","id":"toulouse-distorama-l-autan","geometry":{"type":"Point","coordinates":[1.43883,43.6117922]},"properties":{"name":"L'Autan","category":"Concert Bar","icon":"fa-music","address":"58 boulevard d'Arcole 31000 Toulouse","logo":"","events":[{"date":"2026-01-31","time":"20h","price":"Prix Libre","desc":"BLACK DROP (stoner/grunge)","artist":"BLACK DROP","youtube_video_id":"","bandcamp_url":"","bandcamp_embed_url":""}]}}]}