{"type":"FeatureCollection","features":[{"type":"Feature","id":"toulouse-distorama-la-mecanique-des-fluides","geometry":{"type":"Point","coordinates":[1.4537749,43.6002765]},"properties":{"name":"La Mécanique des Fluides","category":"Concert Bar","icon":"fa-music","address":"1 rue Riquet 31000 Toulouse","logo":"","events":[{"date":"2026-02-24","time":"20h","price":"5/7€","desc":"YOUTH CRUSHER (hxc pk/Grèce) + ANIFORA (pk hxc/Grèce)","artist":"YOUTH CRUSHER (hxc pk/Grèce) + ANIFORA","youtube_video_id":"WxFgvS2aeT4","bandcamp_url":"","bandcamp_embed_url":""}]}}]}