{"type":"FeatureCollection","features":[{"type":"Feature","id":"toulouse-distorama-le-ravelin","geometry":{"type":"Point","coordinates":[1.4282089,43.599082]},"properties":{"name":"Le Ravelin","category":"Concert Bar","icon":"fa-music","address":"6 place du Ravelin 31300 Toulouse","logo":"le_ravelin.png","events":[{"date":"2026-06-25","time":"20h","price":"Prix?","desc":"CLAIRE VON CORDA (spoken word) + NUIT NOIRE (black métal lo-fi)","artist":"CLAIRE VON CORDA (spoken word) + NUIT NOIRE","youtube_video_id":"EVjFByBgplk","bandcamp_url":"https://dead14.bandcamp.com/","bandcamp_embed_url":""}]}},{"type":"Feature","id":"toulouse-distorama-bistrot-ducoin","geometry":{"type":"Point","coordinates":[1.4559708,43.6090065]},"properties":{"name":"Bistrot Ducoin","category":"Concert Bar","icon":"fa-music","address":"40 rue du Général Jean Compans 31500 Toulouse","logo":"bistrot_ducoin.jpg","events":[{"date":"2026-06-25","time":"19h30","price":"Prix Libre","desc":"Blues au Coin du Zinc","artist":"Blues au Coin du Zinc","youtube_video_id":"DtH8ajkSaj4","bandcamp_url":"https://djparental.bandcamp.com/album/trouble","bandcamp_embed_url":""}]}}]}