{"type":"FeatureCollection","features":[{"type":"Feature","id":"toulouse-distorama-labo-des-arts","geometry":{"type":"Point","coordinates":[1.4652089,43.6055126]},"properties":{"name":"Labo Des Arts","category":"Concert Bar","icon":"fa-music","address":"8 rue Clément 31500 Toulouse","logo":"","events":[{"date":"2026-01-25","time":"19h15","price":"8,80€","desc":"GINGERELLA (UK/glam rk)","artist":"GINGERELLA"}]}},{"type":"Feature","id":"toulouse-distorama-le-ravelin","geometry":{"type":"Point","coordinates":[1.4282089,43.599082]},"properties":{"name":"Le Ravelin","category":"Concert Bar","icon":"fa-music","address":"6 place du Ravelin 31300 Toulouse","logo":"le_ravelin.png","events":[{"date":"2026-01-25","time":"20h","price":"Prix Libre","desc":"THE POOKIES + LAME SHOT (pk)","artist":"THE POOKIES + LAME SHOT"}]}},{"type":"Feature","id":"toulouse-distorama-le-bikini","geometry":{"type":"Point","coordinates":[1.4854047,43.5480492]},"properties":{"name":"Le Bikini","category":"Concert Bar","icon":"fa-music","address":"Le Bikini Toulouse","logo":"","events":[{"date":"2026-01-25","time":"","price":"10h-18h","desc":"25e Convention du disque de Kicking Records","artist":"25e Convention du disque de Kicking Records"}]}}]}