{"type":"FeatureCollection","features":[{"type":"Feature","id":"toulouse-distorama-le-ravelin","geometry":{"type":"Point","coordinates":[1.4282089,43.599082]},"properties":{"name":"Le Ravelin","category":"Concert Bar","icon":"🎵","address":"6 place du Ravelin 31300 Toulouse","logo":"le_ravelin.png","events":[{"date":"2026-04-28","time":"20h","price":"5+ €","desc":"OOG BOGO (psyched-out post-wave lofi) + PFFF… (post blues)","artist":"OOG BOGO (psyched-out post-wave lofi) + PFFF…"}]}},{"type":"Feature","id":"toulouse-distorama-la-mecanique-des-fluides","geometry":{"type":"Point","coordinates":[1.4537749,43.6002765]},"properties":{"name":"La Mécanique des Fluides","category":"Concert Bar","icon":"🎵","address":"1 rue Riquet 31000 Toulouse","logo":"","events":[{"date":"2026-04-28","time":"20h","price":"3/5€","desc":"TIPI (garage rk/Bruxelles) + AUSTER (pk psyché)","artist":"TIPI (garage rk/Bruxelles) + AUSTER"}]}}]}