{"type":"FeatureCollection","features":[{"type":"Feature","id":"toulouse-distorama-bistrot-ducoin","geometry":{"type":"Point","coordinates":[1.4559708,43.6090065]},"properties":{"name":"Bistrot Ducoin","category":"Concert Bar","icon":"fa-music","address":"40 rue du Général Jean Compans 31500 Toulouse","logo":"bistrot_ducoin.jpg","events":[{"date":"2026-02-19","time":"19h30","price":"Prix Libre","desc":"CELTIC LILY (duo folk/celte/pop)","artist":"CELTIC LILY","youtube_video_id":"","bandcamp_url":"","bandcamp_embed_url":""}]}},{"type":"Feature","id":"toulouse-distorama-le-dada","geometry":{"type":"Point","coordinates":[1.4383337,43.6123398]},"properties":{"name":"Le Dada","category":"Concert Bar","icon":"fa-music","address":"27 avenue Honoré Serres 31000 Toulouse","logo":"","events":[{"date":"2026-02-19","time":"19h30","price":"5/7/9 €","desc":"FANNY MARCON (incantations sonores hypnotiques) + PERPETTE (traditionnel cyclique) + CAILLETTE (dj set techno, break, pk...) + ROCHEL (dj set dub, post pk, acid) + PRIEE PCION (dj set ambient, dub)","artist":"FANNY MARCON (incantations sonores hypnotiques) + PERPETTE (traditionnel cyclique) + CAILLETTE (dj set techno, break, pk...) + ROCHEL (dj set dub, post pk, acid) + PRIEE PCION","youtube_video_id":"","bandcamp_url":"","bandcamp_embed_url":""}]}}]}