{"type":"FeatureCollection","features":[{"type":"Feature","id":"toulouse-distorama-le-dada","geometry":{"type":"Point","coordinates":[1.4383337,43.6123398]},"properties":{"name":"Le Dada","category":"Concert Bar","icon":"fa-music","address":"27 avenue Honoré Serres 31000 Toulouse","logo":"","events":[{"date":"2026-03-10","time":"20h","price":"5€+","desc":"RITA BRAGA (sci-fi tropical, Portugal) + PAINTERBOY (psyche pop)","artist":"RITA BRAGA (sci-fi tropical, Portugal) + PAINTERBOY"}]}},{"type":"Feature","id":"toulouse-distorama-l-astronef","geometry":{"type":"Point","coordinates":[1.4602098,43.5769862]},"properties":{"name":"L'Astronef","category":"Concert Bar","icon":"fa-music","address":"L'Astronef Toulouse","logo":"","events":[{"date":"2026-03-10","time":"19h","price":"Gratuit","desc":"Vermissage exposition de gravures de Delphine Klos (jusqu'au 7 avril)","artist":""}]}}]}