{"type":"FeatureCollection","features":[{"type":"Feature","id":"toulouse-distorama-le-ravelin","geometry":{"type":"Point","coordinates":[1.4282089,43.599082]},"properties":{"name":"Le Ravelin","category":"Concert Bar","icon":"🎵","address":"6 place du Ravelin 31300 Toulouse","logo":"le_ravelin.png","events":[{"date":"2026-06-18","time":"20h","price":"5/7 €","desc":"PENNY ARCADE (indie pop) + HINTERHEIM (drone noise expé)","artist":"PENNY ARCADE (indie pop) + HINTERHEIM"}]}},{"type":"Feature","id":"toulouse-distorama-la-mecanique-des-fluides","geometry":{"type":"Point","coordinates":[1.4537749,43.6002765]},"properties":{"name":"La Mécanique des Fluides","category":"Concert Bar","icon":"🎵","address":"1 rue Riquet 31000 Toulouse","logo":"","events":[{"date":"2026-06-18","time":"20h","price":"5/7€","desc":"COEUR À L'INDEX (power pop/Brxl) + RUMEX (metallic hxc)","artist":"COEUR À L'INDEX (power pop/Brxl) + RUMEX"}]}},{"type":"Feature","id":"toulouse-distorama-bistrot-ducoin","geometry":{"type":"Point","coordinates":[1.4559708,43.6090065]},"properties":{"name":"Bistrot Ducoin","category":"Concert Bar","icon":"🎵","address":"40 rue du Général Jean Compans 31500 Toulouse","logo":"bistrot_ducoin.jpg","events":[{"date":"2026-06-18","time":"","price":"Prix Libre","desc":"BEN CALYPSO (calypso)","artist":"BEN CALYPSO"}]}}]}