{"type":"FeatureCollection","features":[{"type":"Feature","id":"toulouse-distorama-american-cosmograph","geometry":{"type":"Point","coordinates":[1.4467818,43.6039842]},"properties":{"name":"American Cosmograph","category":"Cinema","icon":"🎬","address":"24 rue Montardy 31000 Toulouse","logo":"american_cosmograph.jpg","events":[{"time":"18h30","price":"Gratuit","desc":"Le Cosmo fête ses 10 ans ! -> BEES KNEES BREAKFAST (Bluegrass) + 3 projections en avant première au choix ","artist":""}]}},{"type":"Feature","id":"toulouse-distorama-le-ravelin","geometry":{"type":"Point","coordinates":[1.4282089,43.599082]},"properties":{"name":"Le Ravelin","category":"Concert Bar","icon":"🎵","address":"6 place du Ravelin 31300 Toulouse","logo":"le_ravelin.png","events":[{"time":"","price":"13h/19h","desc":"Fripe & Spritz","artist":"Fripe & Spritz"}]}}]}