{"type":"FeatureCollection","features":[{"type":"Feature","id":"toulouse-distorama-bistrot-ducoin","geometry":{"type":"Point","coordinates":[1.4559708,43.6090065]},"properties":{"name":"Bistrot Ducoin","category":"Concert Bar","icon":"🎵","address":"40 rue du Général Jean Compans 31500 Toulouse","logo":"bistrot_ducoin.jpg","events":[{"date":"2026-03-05","time":"19h30","price":"Prix Libre","desc":"Scène ouverte aux femmes et minorité de genre","artist":"Scène ouverte aux femmes et minorité de genre"}]}},{"type":"Feature","id":"toulouse-distorama-boudu-pont","geometry":{"type":"Point","coordinates":[1.4363272,43.5988936]},"properties":{"name":"Boudu pont","category":"Concert Bar","icon":"🎵","address":"1 rue de la République 31300 Toulouse","logo":"","events":[{"date":"2026-03-05","time":"","price":"Gratuit","desc":"Expo « Louis Vairel »","artist":""}]}},{"type":"Feature","id":"toulouse-distorama-gloria","geometry":{"type":"Point","coordinates":[1.4439408,43.6014516]},"properties":{"name":"Gloria","category":"Concert Bar","icon":"🎵","address":"4 rue Peyras 31000 Toulouse","logo":"","events":[{"date":"2026-03-05","time":"19h","price":"Gratuit","desc":"Vernissage exposition « Aurélie Garnier » + DJ by Andy","artist":""}]}},{"type":"Feature","id":"toulouse-distorama-le-ravelin","geometry":{"type":"Point","coordinates":[1.4282089,43.599082]},"properties":{"name":"Le Ravelin","category":"Concert Bar","icon":"🎵","address":"6 place du Ravelin 31300 Toulouse","logo":"le_ravelin.png","events":[{"date":"2026-03-05","time":"20h","price":"5/7/10€","desc":"NEUROTIC STRANGERS (alt rock) + CHARLOTTE SUPERKICK (indie rock)","artist":"NEUROTIC STRANGERS (alt rock) + CHARLOTTE SUPERKICK"}]}},{"type":"Feature","id":"toulouse-distorama-little-o-clock","geometry":{"type":"Point","coordinates":[1.5208073,43.6444525]},"properties":{"name":"Little O'Clock","category":"Concert Bar","icon":"🎵","address":"75 allée Jean Jaurès 31000 Toulouse","logo":"","events":[{"date":"2026-03-05","time":"20h","price":"Prix Libre","desc":"GEHEN (post-metalcore) + IRON LUNGS (stoner-pk) + NO FAITH IN MEDICINE (pk-rk)","artist":"GEHEN (post-metalcore) + IRON LUNGS (stoner-pk) + NO FAITH IN MEDICINE"}]}}]}