{"type":"FeatureCollection","features":[{"type":"Feature","id":"toulouse-distorama-boudu-pont","geometry":{"type":"Point","coordinates":[1.4363272,43.5988936]},"properties":{"name":"Boudu pont","category":"Concert Bar","icon":"🎵","address":"1 rue de la République 31300 Toulouse","logo":"","events":[{"date":"2026-04-24","time":"21h","price":"Gratuit","desc":"Dj set CAT'ART (funk house electro)","artist":"Dj set CAT'ART"}]}},{"type":"Feature","id":"toulouse-distorama-gloria","geometry":{"type":"Point","coordinates":[1.4439408,43.6014516]},"properties":{"name":"Gloria","category":"Concert Bar","icon":"🎵","address":"4 rue Peyras 31000 Toulouse","logo":"","events":[{"date":"2026-04-24","time":"","price":"21H","desc":"Blind test organisé par Ju'","artist":"Blind test organisé par Ju'"}]}},{"type":"Feature","id":"toulouse-distorama-bistrot-ducoin","geometry":{"type":"Point","coordinates":[1.4559708,43.6090065]},"properties":{"name":"Bistrot Ducoin","category":"Concert Bar","icon":"🎵","address":"40 rue du Général Jean Compans 31500 Toulouse","logo":"bistrot_ducoin.jpg","events":[{"date":"2026-04-24","time":"21h","price":"Prix Libre","desc":"FRANTIC FORMS (post pk)","artist":"FRANTIC FORMS"}]}},{"type":"Feature","id":"toulouse-distorama-l-autan","geometry":{"type":"Point","coordinates":[1.43883,43.6117922]},"properties":{"name":"L'Autan","category":"Concert Bar","icon":"🎵","address":"58 boulevard d'Arcole 31000 Toulouse","logo":"","events":[{"date":"2026-04-24","time":"19h","price":"Prix Libre (3/5€ suggerés)","desc":"RAINCHECK! (pk rk) + IGLOO BANANA (pop pk)","artist":"RAINCHECK! (pk rk) + IGLOO BANANA"}]}}]}