{"type":"FeatureCollection","features":[{"type":"Feature","id":"toulouse-distorama-le-ravelin","geometry":{"type":"Point","coordinates":[1.4282089,43.599082]},"properties":{"name":"Le Ravelin","category":"Concert Bar","icon":"fa-music","address":"6 place du Ravelin 31300 Toulouse","logo":"le_ravelin.png","events":[{"date":"2026-06-10","time":"20h","price":"5/7 €","desc":"ATTIC TED (gothic country) + SWESOR BRATHER (darkwave)","artist":"ATTIC TED (gothic country) + SWESOR BRATHER","youtube_video_id":"75WIcqnEAs4","bandcamp_url":"https://atticted.bandcamp.com/album/starfish-as-man","bandcamp_embed_url":""}]}}]}