{"type":"FeatureCollection","features":[{"type":"Feature","id":"toulouse-distorama-la-mecanique-des-fluides","geometry":{"type":"Point","coordinates":[1.4537749,43.6002765]},"properties":{"name":"La Mécanique des Fluides","category":"Concert Bar","icon":"fa-music","address":"1 rue Riquet 31000 Toulouse","logo":"","events":[{"date":"2026-02-28","time":"19h30","price":"Prix Libre (5/7€ suggerés)","desc":"PÉNITENT (hard rk éméché/Marseille) + BATAILLE (métal Noir / donjon synth/Nantes)","artist":"PÉNITENT (hard rk éméché/Marseille) + BATAILLE","youtube_video_id":"","bandcamp_url":"","bandcamp_embed_url":""}]}},{"type":"Feature","id":"toulouse-distorama-le-ravelin","geometry":{"type":"Point","coordinates":[1.4282089,43.599082]},"properties":{"name":"Le Ravelin","category":"Concert Bar","icon":"fa-music","address":"6 place du Ravelin 31300 Toulouse","logo":"le_ravelin.png","events":[{"date":"2026-02-28","time":"20h","price":"5€ min","desc":"CP WESTMAN ORKESTER (grg pk no borders - release party) + ARMURE (medieval post pop)","artist":"CP WESTMAN ORKESTER (grg pk no borders - release party) + ARMURE","youtube_video_id":"","bandcamp_url":"","bandcamp_embed_url":""}]}},{"type":"Feature","id":"toulouse-distorama-boudu-pont","geometry":{"type":"Point","coordinates":[1.4363272,43.5988936]},"properties":{"name":"Boudu pont","category":"Concert Bar","icon":"fa-music","address":"1 rue de la République 31300 Toulouse","logo":"","events":[{"date":"2026-02-28","time":"21h","price":"Gratuit","desc":"PAMELA NIGHTS (chansons groovy/funk/groove/disco)","artist":"PAMELA NIGHTS","youtube_video_id":"","bandcamp_url":"","bandcamp_embed_url":""}]}}]}