{"type":"FeatureCollection","features":[{"type":"Feature","id":"toulouse-distorama-le-ravelin","geometry":{"type":"Point","coordinates":[1.4282089,43.599082]},"properties":{"name":"Le Ravelin","category":"Concert Bar","icon":"🎵","address":"6 place du Ravelin 31300 Toulouse","logo":"le_ravelin.png","events":[{"time":"20h","price":"5/7€","desc":"CATCHY PERIL (atomic pk wave/Marseille) + NOVO SKELTER (post pk/Tls)","artist":"CATCHY PERIL (atomic pk wave/Marseille) + NOVO SKELTER"}]}},{"type":"Feature","id":"toulouse-distorama-bistrot-ducoin","geometry":{"type":"Point","coordinates":[1.4559708,43.6090065]},"properties":{"name":"Bistrot Ducoin","category":"Concert Bar","icon":"🎵","address":"40 rue du Général Jean Compans 31500 Toulouse","logo":"bistrot_ducoin.jpg","events":[{"time":"18h","price":"5€","desc":"Expo « Yann Taillefer » + COUP DROIT (synth noise) + PETIT BUREAU (pk pop)","artist":""}]}}]}