{"type":"FeatureCollection","features":[{"type":"Feature","id":"toulouse-distorama-la-mecanique-des-fluides","geometry":{"type":"Point","coordinates":[1.4537749,43.6002765]},"properties":{"name":"La Mécanique des Fluides","category":"Concert Bar","icon":"🎵","address":"1 rue Riquet 31000 Toulouse","logo":"mecanique_des_fluides.png","events":[{"time":"19h","price":"Prix Libre","desc":"ZAPOÏ (stoner/grg) + KESSLER SYNDROME (electronic/metal)","artist":"ZAPOÏ (stoner/grg) + KESSLER SYNDROME"}]}},{"type":"Feature","id":"toulouse-distorama-bistrot-ducoin","geometry":{"type":"Point","coordinates":[1.4559708,43.6090065]},"properties":{"name":"Bistrot Ducoin","category":"Concert Bar","icon":"🎵","address":"40 rue du Général Jean Compans 31500 Toulouse","logo":"bistrot_ducoin.jpg","events":[{"time":"21h","price":"Prix Libre","desc":"TRES OMBRES (blues rk)","artist":"TRES OMBRES"}]}},{"type":"Feature","id":"toulouse-distorama-le-ravelin","geometry":{"type":"Point","coordinates":[1.4282089,43.599082]},"properties":{"name":"Le Ravelin","category":"Concert Bar","icon":"🎵","address":"6 place du Ravelin 31300 Toulouse","logo":"le_ravelin.png","events":[{"time":"20h","price":"5+€","desc":"NESTTER DONUTS (Flamenco Trash) + L'ORCHESTRE DE JÉRÔME SAGE (musique d'avant Internet)","artist":"NESTTER DONUTS (Flamenco Trash) + L'ORCHESTRE DE JÉRÔME SAGE"}]}},{"type":"Feature","id":"toulouse-distorama-boudu-pont","geometry":{"type":"Point","coordinates":[1.4363272,43.5988936]},"properties":{"name":"Boudu pont","category":"Concert Bar","icon":"🎵","address":"1 rue de la République 31300 Toulouse","logo":"","events":[{"time":"20h","price":"Gratuit","desc":"SLIM PAUL (blues)","artist":"SLIM PAUL"}]}},{"type":"Feature","id":"toulouse-distorama-metronum","geometry":{"type":"Point","coordinates":[1.4506,43.6415]},"properties":{"name":"Le Metronum","category":"Concert Bar","icon":"🎵","address":"Rond-Point de Mondonville 31200 Toulouse","logo":"","events":[{"time":"20h","price":"17€ prévente / 20€ sur place","desc":"KAS PRODUCT RELOAD (after pk electro) + MALEFIXIO (goth) + AUGUST ANGST (cinematic goth)","artist":"KAS PRODUCT RELOAD (after pk electro) + MALEFIXIO (goth) + AUGUST ANGST"}]}},{"type":"Feature","id":"toulouse-distorama-l-engrenage","geometry":{"type":"Point","coordinates":[1.4880684,43.6274411]},"properties":{"name":"L'Engrenage","category":"Concert Bar","icon":"🎵","address":"14 rue Louis Renault 31130 Balma","logo":"","events":[{"time":"20h","price":"15€","desc":"OUTTA POCKET + HOLD MY OWN (USA) + PUSH! (Portugal) + NO SELF + SPURCITIA (metal hxc)","artist":"OUTTA POCKET + HOLD MY OWN (USA) + PUSH! (Portugal) + NO SELF + SPURCITIA"}]}},{"type":"Feature","id":"toulouse-distorama-the-petit-london","geometry":{"type":"Point","coordinates":[1.4538883,43.6008176]},"properties":{"name":"The Petit London","category":"Concert Bar","icon":"🎵","address":"7 rue Pierre-Paul Riquet 31000 Toulouse","logo":"","events":[{"time":"22h","price":"Gratuit","desc":"ARNAVALL (live techno instrumentale)","artist":"ARNAVALL"}]}},{"type":"Feature","id":"toulouse-distorama-face-b-friperie","geometry":{"type":"Point","coordinates":[1.4528685,43.60564]},"properties":{"name":"Face B Friperie","category":"Boutique","icon":"🛍️","address":"7 place Damloup 31000 Toulouse","logo":"face_b.jpg","events":[{"time":"","price":"12h-19h","desc":"Exposition des couvertures de mai du Distorama, de 2016 à 2026","artist":""}]}},{"type":"Feature","id":"toulouse-distorama-centre-culturel-la-brique-rouge","geometry":{"type":"Point","coordinates":[1.439374,43.5776521]},"properties":{"name":"Centre culturel La Brique Rouge","category":"Concert Bar","icon":"🎵","address":"Place d'Empalot 31400 Toulouse","logo":"","events":[{"time":"19h","price":"Gratuit","desc":"LAMPEROUGE (prog rock) + 1° partie (rock) ","artist":"LAMPEROUGE (prog rock) + 1° partie"}]}},{"type":"Feature","id":"toulouse-distorama-le-dada","geometry":{"type":"Point","coordinates":[1.4383337,43.6123398]},"properties":{"name":"Le Dada","category":"Concert Bar","icon":"🎵","address":"27 avenue Honoré Serres 31000 Toulouse","logo":"","events":[{"time":"21h30","price":"gratuit","desc":"AKI GRATTE-CIEL (acoustic & computer disco dub punk dance music) + PS STAMPS BACK (noire électronique)","artist":"AKI GRATTE-CIEL (acoustic & computer disco dub punk dance music) + PS STAMPS BACK"}]}}]}