{"type":"FeatureCollection","features":[{"type":"Feature","id":"toulouse-distorama-le-ravelin","geometry":{"type":"Point","coordinates":[1.4282089,43.599082]},"properties":{"name":"Le Ravelin","category":"Concert Bar","icon":"🎵","address":"6 place du Ravelin 31300 Toulouse","logo":"le_ravelin.png","events":[{"date":"2026-06-11","time":"20h","price":"5/7 €","desc":"TY (eggpk) + SPACE BUCKET (sci-fi art pk)","artist":"TY (eggpk) + SPACE BUCKET"}]}},{"type":"Feature","id":"toulouse-distorama-bistrot-ducoin","geometry":{"type":"Point","coordinates":[1.4559708,43.6090065]},"properties":{"name":"Bistrot Ducoin","category":"Concert Bar","icon":"🎵","address":"40 rue du Général Jean Compans 31500 Toulouse","logo":"bistrot_ducoin.jpg","events":[{"date":"2026-06-11","time":"19h30","price":"Prix Libre","desc":"PAUL VAL (blues rk/Austin)","artist":"PAUL VAL"}]}},{"type":"Feature","id":"toulouse-distorama-le-poinconneur","geometry":{"type":"Point","coordinates":[1.4544142,43.617283]},"properties":{"name":"Le Poinçonneur","category":"Concert Bar","icon":"🎵","address":"19bis rue du Faubourg Bonnefoy 31500 Toulouse","logo":"","events":[{"date":"2026-06-11","time":"19h30","price":"Prix Libre","desc":"TRAUM (noise instrumental) + CHICOS MACHINE (pk electro cumbia wtf)","artist":"TRAUM (noise instrumental) + CHICOS MACHINE"}]}},{"type":"Feature","id":"toulouse-distorama-boudu-pont","geometry":{"type":"Point","coordinates":[1.4363272,43.5988936]},"properties":{"name":"Boudu pont","category":"Concert Bar","icon":"🎵","address":"1 rue de la République 31300 Toulouse","logo":"","events":[{"date":"2026-06-11","time":"18h","price":"Gratuit","desc":"Karaoke / Bootyshake","artist":"Karaoke / Bootyshake"}]}}]}