{"type":"FeatureCollection","features":[{"type":"Feature","id":"toulouse-distorama-le-ravelin","geometry":{"type":"Point","coordinates":[1.4282089,43.599082]},"properties":{"name":"Le Ravelin","category":"Concert Bar","icon":"🎵","address":"6 place du Ravelin 31300 Toulouse","logo":"le_ravelin.png","events":[{"time":"20h","price":"7€+","desc":"POO POO TALKS (grg synth pk) + FIVE BUCKS! (weird pk) + M.I.T (pk)","artist":"POO POO TALKS (grg synth pk) + FIVE BUCKS! (weird pk) + M.I.T"}]}},{"type":"Feature","id":"toulouse-distorama-boudu-pont","geometry":{"type":"Point","coordinates":[1.4363272,43.5988936]},"properties":{"name":"Boudu pont","category":"Concert Bar","icon":"🎵","address":"1 rue de la République 31300 Toulouse","logo":"","events":[{"time":"22h","price":"Gratuit","desc":"Blindtest et bootyshake","artist":"Blindtest et bootyshake"}]}},{"type":"Feature","id":"toulouse-distorama-la-mecanique-des-fluides","geometry":{"type":"Point","coordinates":[1.4537749,43.6002765]},"properties":{"name":"La Mécanique des Fluides","category":"Concert Bar","icon":"🎵","address":"1 rue Riquet 31000 Toulouse","logo":"mecanique_des_fluides.png","events":[{"time":"20h","price":"3/5€","desc":"THROUGHT (stoner) + BUUG (post rk/grunge noise)","artist":"THROUGHT (stoner) + BUUG"}]}},{"type":"Feature","id":"toulouse-distorama-le-winger","geometry":{"type":"Point","coordinates":[1.4516526,43.6108151]},"properties":{"name":"Le Winger","category":"Concert Bar","icon":"🎵","address":"68 rue de Bayard 31000 Toulouse","logo":"","events":[{"time":"20h","price":"5/7€","desc":" ANNULE -> CORRUPTION PACT (death metal/hxc) + SOUL HATER (death metal)","artist":"ANNULE -> CORRUPTION PACT (death metal/hxc) + SOUL HATER"}]}},{"type":"Feature","id":"toulouse-distorama-the-petit-london","geometry":{"type":"Point","coordinates":[1.4538883,43.6008176]},"properties":{"name":"The Petit London","category":"Concert Bar","icon":"🎵","address":"7 rue Pierre-Paul Riquet 31000 Toulouse","logo":"","events":[{"time":"22h","price":"Gratuit","desc":"« HELLISHA SAUVAGE (DJ set dark disco to techno)","artist":"« HELLISHA SAUVAGE"}]}}]}