{"type":"FeatureCollection","features":[{"type":"Feature","id":"toulouse-distorama-la-mecanique-des-fluides","geometry":{"type":"Point","coordinates":[1.4537749,43.6002765]},"properties":{"name":"La Mécanique des Fluides","category":"Concert Bar","icon":"🎵","address":"1 rue Riquet 31000 Toulouse","logo":"","events":[{"date":"2026-06-20","time":"20h","price":"3/5€","desc":"AMORPHIA (old school thrash metal/Inde) + RECTIFIER (thrash metal)","artist":"AMORPHIA (old school thrash metal/Inde) + RECTIFIER"}]}},{"type":"Feature","id":"toulouse-distorama-boudu-pont","geometry":{"type":"Point","coordinates":[1.4363272,43.5988936]},"properties":{"name":"Boudu pont","category":"Concert Bar","icon":"🎵","address":"1 rue de la République 31300 Toulouse","logo":"","events":[{"date":"2026-06-20","time":"21h","price":"Gratuit","desc":"Dj set COLLECTIF CARABINES (disco, house, indie)","artist":"Dj set COLLECTIF CARABINES"}]}},{"type":"Feature","id":"toulouse-distorama-le-declic","geometry":{"type":"Point","coordinates":[1.4543659,43.6041704]},"properties":{"name":"Le Déclic","category":"Concert Bar","icon":"🎵","address":"Le Déclic Toulouse","logo":"","events":[{"date":"2026-06-20","time":"","price":"19h30 à 23h – Gratuit","desc":"Jam Session","artist":"Jam Session"}]}}]}