{"type":"FeatureCollection","features":[{"type":"Feature","id":"toulouse-distorama-la-mecanique-des-fluides","geometry":{"type":"Point","coordinates":[1.4537749,43.6002765]},"properties":{"name":"La Mécanique des Fluides","category":"Concert Bar","icon":"🎵","address":"1 rue Riquet 31000 Toulouse","logo":"mecanique_des_fluides.png","events":[{"time":"20h","price":"5/7€","desc":"SCIENCE MAN (pk hxc, Buffalo, USA) + SHADOW TIDES (pop pk Tls)","artist":"SCIENCE MAN (pk hxc, Buffalo, USA) + SHADOW TIDES"}]}},{"type":"Feature","id":"toulouse-distorama-le-ravelin","geometry":{"type":"Point","coordinates":[1.4282089,43.599082]},"properties":{"name":"Le Ravelin","category":"Concert Bar","icon":"🎵","address":"6 place du Ravelin 31300 Toulouse","logo":"le_ravelin.png","events":[{"time":"20h","price":"5€","desc":"SILLY WALK (power pk rk) + BARREL KICK (pk rk/Rennes)","artist":"SILLY WALK (power pk rk) + BARREL KICK"}]}},{"type":"Feature","id":"toulouse-distorama-boudu-pont","geometry":{"type":"Point","coordinates":[1.4363272,43.5988936]},"properties":{"name":"Boudu pont","category":"Concert Bar","icon":"🎵","address":"1 rue de la République 31300 Toulouse","logo":"","events":[{"time":"20h","price":"Gratuit","desc":"GOD SAVE THE CUIVRE (fanfare)","artist":"GOD SAVE THE CUIVRE"}]}},{"type":"Feature","id":"toulouse-distorama-bistrot-ducoin","geometry":{"type":"Point","coordinates":[1.4559708,43.6090065]},"properties":{"name":"Bistrot Ducoin","category":"Concert Bar","icon":"🎵","address":"40 rue du Général Jean Compans 31500 Toulouse","logo":"bistrot_ducoin.jpg","events":[{"time":"21h","price":"Prix Libre","desc":"LES RENTIERS (rap hxc) + TOTO SADYK (pk rap)","artist":"LES RENTIERS (rap hxc) + TOTO SADYK"}]}},{"type":"Feature","id":"toulouse-distorama-gloria","geometry":{"type":"Point","coordinates":[1.4439408,43.6014516]},"properties":{"name":"Gloria","category":"Concert Bar","icon":"🎵","address":"4 rue Peyras 31000 Toulouse","logo":"","events":[{"time":"20h30","price":"Prix Libre","desc":"JÉRÔME SAGE (antiyéyé paradoxal)","artist":"JÉRÔME SAGE"}]}},{"type":"Feature","id":"toulouse-distorama-le-dada","geometry":{"type":"Point","coordinates":[1.4383337,43.6123398]},"properties":{"name":"Le Dada","category":"Concert Bar","icon":"🎵","address":"27 avenue Honoré Serres 31000 Toulouse","logo":"","events":[{"time":"20h","price":"5/7/9€","desc":"OLAIIA_ (expé) + STRIE [NON-LIEU] (perf) + VIOLETTE DU PASQUIER (chant triphop) + LARME INCENDIE (mixs visuels) + INDUSTRIAL MATERIAL (tekno live)","artist":"OLAIIA_ (expé) + STRIE [NON-LIEU] (perf) + VIOLETTE DU PASQUIER (chant triphop) + LARME INCENDIE (mixs visuels) + INDUSTRIAL MATERIAL"}]}},{"type":"Feature","id":"toulouse-distorama-face-b-friperie","geometry":{"type":"Point","coordinates":[1.4528685,43.60564]},"properties":{"name":"Face B Friperie","category":"Boutique","icon":"🛍️","address":"7 place Damloup 31000 Toulouse","logo":"face_b.jpg","events":[{"time":"","price":"12h-19h","desc":"Exposition des couvertures de mai du Distorama, de 2016 à 2026","artist":""}]}}]}