{"type":"FeatureCollection","features":[{"type":"Feature","id":"toulouse-distorama-le-ravelin","geometry":{"type":"Point","coordinates":[1.4282089,43.599082]},"properties":{"name":"Le Ravelin","category":"Concert Bar","icon":"🎵","address":"6 place du Ravelin 31300 Toulouse","logo":"le_ravelin.png","events":[{"time":"20h","price":"5/7/10€","desc":"VÉTUSTE (indie rk) + THE SLOB (indie rk)","artist":"VÉTUSTE (indie rk) + THE SLOB"}]}},{"type":"Feature","id":"toulouse-distorama-la-mecanique-des-fluides","geometry":{"type":"Point","coordinates":[1.4537749,43.6002765]},"properties":{"name":"La Mécanique des Fluides","category":"Concert Bar","icon":"🎵","address":"1 rue Riquet 31000 Toulouse","logo":"mecanique_des_fluides.png","events":[{"time":"19h30","price":"5/7€","desc":"MESTIZA (pk hxc/Barcelone) + SILLY WALK (pk rk)","artist":"MESTIZA (pk hxc/Barcelone) + SILLY WALK"}]}}]}