{"type":"FeatureCollection","features":[{"type":"Feature","id":"toulouse-distorama-boudu-pont","geometry":{"type":"Point","coordinates":[1.4363272,43.5988936]},"properties":{"name":"Boudu pont","category":"Concert Bar","icon":"🎵","address":"1 rue de la République 31300 Toulouse","logo":"","events":[{"date":"2026-05-04","time":"18h","price":"Gratuit","desc":"Vernissage","artist":""}]}},{"type":"Feature","id":"toulouse-distorama-le-dada","geometry":{"type":"Point","coordinates":[1.4383337,43.6123398]},"properties":{"name":"Le Dada","category":"Concert Bar","icon":"🎵","address":"27 avenue Honoré Serres 31000 Toulouse","logo":"","events":[{"date":"2026-05-04","time":"20h30","price":"5€ adhésion annuelle","desc":"Les Vidéophages (Projection de courts-métrages)","artist":""}]}},{"type":"Feature","id":"toulouse-distorama-face-b-friperie","geometry":{"type":"Point","coordinates":[1.4528685,43.60564]},"properties":{"name":"Face B Friperie","category":"Boutique","icon":"🛍️","address":"7 place Damloup 31000 Toulouse","logo":"face_b.jpg","events":[{"date":"2026-05-04","time":"","price":"12h-19h","desc":"Exposition des couvertures de mai du Distorama, de 2016 à 2026","artist":""}]}}]}