{"type":"FeatureCollection","features":[{"type":"Feature","id":"toulouse-distorama-le-ravelin","geometry":{"type":"Point","coordinates":[1.4282089,43.599082]},"properties":{"name":"Le Ravelin","category":"Concert Bar","icon":"🎵","address":"6 place du Ravelin 31300 Toulouse","logo":"le_ravelin.png","events":[{"time":"19h30","price":"5€","desc":"ANTI-CLOCKWISE + DISTURBANCE + GERCHI (street-pk)","artist":"ANTI-CLOCKWISE + DISTURBANCE + GERCHI"},{"time":"20h","price":"Prix Libre","desc":"AUTOCAMPER (indie pop)","artist":"AUTOCAMPER"},{"time":"20h","price":"5/7/10€","desc":"NEUROTIC STRANGERS (alt rock) + CHARLOTTE SUPERKICK (indie rock)","artist":"NEUROTIC STRANGERS (alt rock) + CHARLOTTE SUPERKICK"},{"time":"20h","price":"Prix Libre","desc":"ARRROGANT (pk noisy) + ROTI BONDAGE (pk hxc)","artist":"ARRROGANT (pk noisy) + ROTI BONDAGE"},{"time":"20h","price":"Prix Libre","desc":"INDIOS DIEGO (style ?)","artist":"INDIOS DIEGO"},{"time":"20h","price":"Prix Libre","desc":"YAGUARATÉ CREW + OLD TIMES (style?)","artist":"YAGUARATÉ CREW + OLD TIMES"},{"time":"20h","price":"5/7€","desc":"CATCHY PERIL (atomic pk wave/Marseille) + NOVO SKELTER (post pk/Tls)","artist":"CATCHY PERIL (atomic pk wave/Marseille) + NOVO SKELTER"},{"time":"20h","price":"5/7/10€","desc":"MAFIA SOFA (grg/psyche) + OK.KENNY (ctrl+d core)","artist":"MAFIA SOFA (grg/psyche) + OK.KENNY"},{"time":"19h","price":"5/8/10€","desc":"ENLÒC + LUNDI BRÛLE + LOGGERHEADS (pk rk)","artist":"ENLÒC + LUNDI BRÛLE + LOGGERHEADS"},{"time":"20h","price":"6€","desc":"Soirée Distorama → HOW YES NO (post punk balcanique/Zagreb) + ŽBLJ MOZAIK (alt pk exp/Zagreb)","artist":""},{"time":"20h","price":"Prix Libre","desc":"SILVETHINGS","artist":"SILVETHINGS"},{"time":"20h","price":"5/7/9€","desc":"THE CUTTER (indie goth) + STILL ROOM (postpunk)","artist":"THE CUTTER (indie goth) + STILL ROOM"},{"time":"20h","price":"Prix Libre","desc":"JOSH AND THE DIRTY RAGS (folk & blues fusion)","artist":"JOSH AND THE DIRTY RAGS"},{"time":"20h","price":"12€","desc":"ZËRO (post noise psyche) + MARC SENS (gtr impro)","artist":"ZËRO (post noise psyche) + MARC SENS"},{"time":"20h","price":"10€","desc":"ESCAPE-ISM (pop/crime-rk) + ANGRY DEAD PIRATES (grg pk/psyché)","artist":"ESCAPE-ISM (pop/crime-rk) + ANGRY DEAD PIRATES"},{"time":"20h","price":"Prix Libre","desc":"VIDEOFLIP (hard pub rk)","artist":"VIDEOFLIP"}]}},{"type":"Feature","id":"toulouse-distorama-bistrot-ducoin","geometry":{"type":"Point","coordinates":[1.4559708,43.6090065]},"properties":{"name":"Bistrot Ducoin","category":"Concert Bar","icon":"🎵","address":"40 rue du Général Jean Compans 31500 Toulouse","logo":"bistrot_ducoin.jpg","events":[{"time":"19h30","price":"Prix Libre","desc":"Scène ouverte aux femmes et minorité de genre","artist":"Scène ouverte aux femmes et minorité de genre"},{"time":"21h","price":"Prix Libre","desc":"TAK ! (post pk)","artist":"TAK !"},{"time":"18h","price":"5€","desc":"Expo « Yann Taillefer » + COUP DROIT (synth noise) + PETIT BUREAU (pk pop)","artist":""},{"time":"21h","price":"Prix Libre","desc":"D-STOP (gros pk qui débouche)","artist":"D-STOP"},{"time":"19h30","price":"Prix Libre","desc":"FABRICE JOUSSOT + copains (blues)","artist":"FABRICE JOUSSOT + copains"},{"time":"21h","price":"Prix Libre","desc":"VOLTA (rk)","artist":"VOLTA"},{"time":"19h30","price":"Prix Libre","desc":"Blues au coin du zinc","artist":"Blues au coin du zinc"},{"time":"21h","price":"Prix Libre","desc":"CASCADES (électro organique)","artist":"CASCADES"}]}},{"type":"Feature","id":"toulouse-distorama-boudu-pont","geometry":{"type":"Point","coordinates":[1.4363272,43.5988936]},"properties":{"name":"Boudu pont","category":"Concert Bar","icon":"🎵","address":"1 rue de la République 31300 Toulouse","logo":"","events":[{"time":"","price":"Gratuit","desc":"Expo « Louis Vairel »","artist":""},{"time":"21h","price":"Gratuit","desc":"Dj set EKYOZ (tropical bass music + D’n’B)","artist":"Dj set EKYOZ"},{"time":"21h","price":"Gratuit","desc":"Dj set ULTRAVIOLLETTE (house/UK grg)","artist":"Dj set ULTRAVIOLLETTE"},{"time":"22h","price":"Gratuit","desc":"Dj set MAMELLE BENT (hip hop, rnb)","artist":"Dj set MAMELLE BENT"},{"time":"18h","price":"Gratuit","desc":"DEE PHI (musique electro ambiante)","artist":"DEE PHI"},{"time":"21h","price":"Gratuit","desc":"JEFFERS WALDO + DJ set (electro pop)","artist":"JEFFERS WALDO + DJ set"},{"time":"18h","price":"Gratuit","desc":"ZEPHY, ZSOFI (folk) + DJ set THE ROOMMATES","artist":"ZEPHY, ZSOFI (folk) + DJ set THE ROOMMATES"},{"time":"21h","price":"Gratuit","desc":"Dj set CARABINE (disco/ house/ indie)","artist":"Dj set CARABINE"},{"time":"22h","price":"Gratuit","desc":"Dj set JUMIEN JUMINI (french touch/tech house)","artist":"Dj set JUMIEN JUMINI"}]}},{"type":"Feature","id":"toulouse-distorama-gloria","geometry":{"type":"Point","coordinates":[1.4439408,43.6014516]},"properties":{"name":"Gloria","category":"Concert Bar","icon":"🎵","address":"4 rue Peyras 31000 Toulouse","logo":"","events":[{"time":"19h","price":"Gratuit","desc":"Vernissage exposition « Aurélie Garnier » + DJ by Andy","artist":""},{"time":"22h","price":"Prix Libre","desc":"Dj set KRIS VAN RANCE (blues, 60s grg & more)","artist":"Dj set KRIS VAN RANCE"},{"time":"19h30","price":"5€+","desc":"LE RENARD (comedy gris noir) + CITY DRAGON (solo voix saxe jouets) + BUENO WHITE (basses fidélités)","artist":"LE RENARD (comedy gris noir) + CITY DRAGON (solo voix saxe jouets) + BUENO WHITE"},{"time":"20h30","price":"Prix Libre","desc":"FORÊT (solo instrumental)","artist":"FORÊT"},{"time":"22h","price":"Prix Libre","desc":"Dj set by OZAN (acid oriental)","artist":"Dj set by OZAN"},{"time":"21h","price":"Gratuit","desc":"Blind test","artist":"Blind test"}]}},{"type":"Feature","id":"toulouse-distorama-little-o-clock","geometry":{"type":"Point","coordinates":[1.5208073,43.6444525]},"properties":{"name":"Little O'Clock","category":"Concert Bar","icon":"🎵","address":"75 allée Jean Jaurès 31000 Toulouse","logo":"","events":[{"time":"20h","price":"Prix Libre","desc":"GEHEN (post-metalcore) + IRON LUNGS (stoner-pk) + NO FAITH IN MEDICINE (pk-rk)","artist":"GEHEN (post-metalcore) + IRON LUNGS (stoner-pk) + NO FAITH IN MEDICINE"}]}},{"type":"Feature","id":"toulouse-distorama-la-mecanique-des-fluides","geometry":{"type":"Point","coordinates":[1.4537749,43.6002765]},"properties":{"name":"La Mécanique des Fluides","category":"Concert Bar","icon":"🎵","address":"1 rue Riquet 31000 Toulouse","logo":"mecanique_des_fluides.png","events":[{"time":"20h","price":"5€","desc":"DISTOPIANOMEN (death metal, Salamanca) + DELIVER THE SUFFERING (thrash-death metal)","artist":"DISTOPIANOMEN (death metal, Salamanca) + DELIVER THE SUFFERING"},{"time":"20h","price":"Prix Libre","desc":"SWESOR BHRATER (dark wave/neo folk) + AUGUST ANGST (gothic rk/dark folk)","artist":"SWESOR BHRATER (dark wave/neo folk) + AUGUST ANGST"},{"time":"22h","price":"Gratuit","desc":"DJ set R.2614 (techno/EBM/dark) + Guest","artist":"DJ set R.2614 (techno/EBM/dark) + Guest"},{"time":"19h30","price":"5€/10€","desc":"THE COOPER & FOREST POOKY EXPÉRIENCE (pop pk) + ASTROMILK (indie rk 90s)","artist":"THE COOPER & FOREST POOKY EXPÉRIENCE (pop pk) + ASTROMILK"},{"time":"21h30","price":"Gratuit","desc":"Soirée DJ set FRED RAJA (dark electro/indus) + DAVE (cold wave/EBM)","artist":""},{"time":"20h","price":"Gratuit","desc":"Soirée DJ Set « NOIR ALL NIGHT LONG » : AKRAV + PHRED (dark disco/techno/house)","artist":""},{"time":"20h","price":"5€+","desc":"YAROSTAN (post metal, Marseille) + FRB (kraut rock electro)","artist":"YAROSTAN (post metal, Marseille) + FRB"},{"time":"20h","price":"5€ sugg","desc":"CHATEAU COSCO + LUCAS PA + Guest?","artist":"CHATEAU COSCO + LUCAS PA + Guest?"},{"time":"20h","price":"3/5€ sugg","desc":"KILL KILL DIANA (turbo post hxc, Bayonne) + Guest","artist":"KILL KILL DIANA (turbo post hxc, Bayonne) + Guest"},{"time":"20h","price":"5/7€","desc":"DRY SOCKET (hxc pk/Portland) + LAST DEFEAT (hxc crossover/BDX)","artist":"DRY SOCKET (hxc pk/Portland) + LAST DEFEAT"}]}},{"type":"Feature","id":"toulouse-distorama-the-petit-london","geometry":{"type":"Point","coordinates":[1.4538883,43.6008176]},"properties":{"name":"The Petit London","category":"Concert Bar","icon":"🎵","address":"7 rue Pierre-Paul Riquet 31000 Toulouse","logo":"","events":[{"time":"22h","price":"Gratuit","desc":"MAMELLE BENT (RnB, dancehall)","artist":"MAMELLE BENT"},{"time":"22h","price":"Gratuit","desc":"KONSTROY (darkwave/post-pk DJ set)","artist":"KONSTROY"},{"time":"22h","price":"Gratuit","desc":"HIGHSTYLE (RnB, afro, bassmusic)","artist":"HIGHSTYLE"},{"time":"22h","price":"Gratuit","desc":"ARTISANS BANGER (disco house, tech house, hard house)","artist":"ARTISANS BANGER"},{"time":"22h","price":"Gratuit","desc":"FUKU (full grg)","artist":"FUKU"},{"time":"22h","price":"Gratuit","desc":"SUZ (jungle to DnB)","artist":"SUZ"}]}},{"type":"Feature","id":"toulouse-distorama-le-dada","geometry":{"type":"Point","coordinates":[1.4383337,43.6123398]},"properties":{"name":"Le Dada","category":"Concert Bar","icon":"🎵","address":"27 avenue Honoré Serres 31000 Toulouse","logo":"","events":[{"time":"20h30","price":"5€ adhésion annuelle","desc":"Les Vidéophages (Projection de courts-métrages)","artist":""},{"time":"20h","price":"5€+","desc":"RITA BRAGA (sci-fi tropical, Portugal) + PAINTERBOY (psyche pop)","artist":"RITA BRAGA (sci-fi tropical, Portugal) + PAINTERBOY"},{"time":"20h30","price":"12€","desc":"TRAITRS (post-pk/coldwave, CAN) + ORDER 89 (coldwave, post-pk, FR)","artist":"TRAITRS (post-pk/coldwave, CAN) + ORDER 89"}]}},{"type":"Feature","id":"toulouse-distorama-le-cameleon","geometry":{"type":"Point","coordinates":[1.433005,43.599585]},"properties":{"name":"Le Caméléon","category":"Concert Bar","icon":"🎵","address":"19 rue Pont Saint Pierre 31300 Toulouse","logo":"","events":[{"time":"19h30","price":"5€ + 1€ adhésion annuelle","desc":"CATHERINE MIMOSA ⇄ DARK DANGER (down tempo) + FERA (noise marécageuse)","artist":"CATHERINE MIMOSA ⇄ DARK DANGER (down tempo) + FERA"}]}},{"type":"Feature","id":"toulouse-distorama-isdat","geometry":{"type":"Point","coordinates":[1.4402102,43.6005214]},"properties":{"name":"isdaT","category":"Concert Bar","icon":"🎵","address":"5 Quai de la Daurade 31000 Toulouse","logo":"","events":[{"time":"19h","price":"9€ (Prix Libre pour étudiant·es)","desc":"MICHELE BRY (twee pop) + LÜLÜ (UK bass) + REV radio (expé sonores)","artist":""}]}},{"type":"Feature","id":"toulouse-distorama-face-b-friperie","geometry":{"type":"Point","coordinates":[1.4528685,43.60564]},"properties":{"name":"Face B Friperie","category":"Boutique","icon":"🛍️","address":"7 place Damloup 31000 Toulouse","logo":"face_b.jpg","events":[{"time":"","price":"11h à 19h","desc":"Méga Braderie Face B Friperie","artist":"Méga Braderie Face B Friperie"},{"time":"","price":"11h à 19h","desc":"Méga Braderie Face B Friperie","artist":"Méga Braderie Face B Friperie"}]}},{"type":"Feature","id":"toulouse-distorama-hangar-de-la-cepiere-19h-23h-10","geometry":{"type":"Point","coordinates":[1.411634,43.589859]},"properties":{"name":"Hangar de la Cépière","category":"Concert Bar","icon":"🎵","address":"8 impasse de Bagnolet 31300 Toulouse","logo":"","events":[{"time":"","price":"","desc":"ACTION CLUB (trap alternative) + ATTENTION L'ORAGE (électro-rock) + GLITSH (rap hybride) + KONTROLL TEK (tekno punk rap) ","artist":"ACTION CLUB (trap alternative) + ATTENTION L'ORAGE (électro-rock) + GLITSH (rap hybride) + KONTROLL TEK"}]}},{"type":"Feature","id":"toulouse-distorama-labo-des-arts","geometry":{"type":"Point","coordinates":[1.4652089,43.6055126]},"properties":{"name":"Labo Des Arts","category":"Concert Bar","icon":"🎵","address":"8 rue Clément 31500 Toulouse","logo":"","events":[{"time":"","price":"19H","desc":"BLACK VIIOLET (neo soul/US) + MISTY WHITE (country blues)","artist":"BLACK VIIOLET (neo soul/US) + MISTY WHITE"},{"time":"","price":"19H30","desc":"THE CLAUSE (rk indé UK) + LIEP (rk indé)","artist":"THE CLAUSE (rk indé UK) + LIEP"}]}},{"type":"Feature","id":"toulouse-distorama-hangar-de-la-cepiere-14h-00h","geometry":{"type":"Point","coordinates":[1.411634,43.589859]},"properties":{"name":"Hangar de la Cépière","category":"Concert Bar","icon":"🎵","address":"8 impasse de Bagnolet 31300 Toulouse","logo":"","events":[{"time":"","price":"7/10€","desc":"Soirée DRAG & FEST : Drag show, marché d'artistes, prises de parole","artist":""}]}},{"type":"Feature","id":"toulouse-distorama-bar-belfort","geometry":{"type":"Point","coordinates":[1.4527628,43.6057612]},"properties":{"name":"Bar Belfort","category":"Concert Bar","icon":"🎵","address":"9 place Belfort 31000 Toulouse","logo":"","events":[{"time":"20h","price":"Prix Libre","desc":"FOSCO (screamo)","artist":"FOSCO"}]}},{"type":"Feature","id":"toulouse-distorama-l-engrenage","geometry":{"type":"Point","coordinates":[1.4880684,43.6274411]},"properties":{"name":"L'Engrenage","category":"Concert Bar","icon":"🎵","address":"14 rue Louis Renault 31130 Balma","logo":"","events":[{"time":"19h30","price":"10€","desc":"Soirée « COURT-CIRCUIT » : AUSTER (alt pk) + BUUUG (noise) + FRANTIC FORMS (grg)","artist":""}]}}]}