{"type":"FeatureCollection","features":[{"type":"Feature","id":"toulouse-distorama-boudu-pont","geometry":{"type":"Point","coordinates":[1.4363272,43.5988936]},"properties":{"name":"Boudu pont","category":"Concert Bar","icon":"fa-music","address":"1 rue de la République 31300 Toulouse","logo":"","events":[{"date":"2026-05-02","time":"21h","price":"Gratuit","desc":"Blind test et bootyshake","artist":"Blind test et bootyshake"}]}},{"type":"Feature","id":"toulouse-distorama-le-circographe","geometry":{"type":"Point","coordinates":[1.4222551,43.6196165]},"properties":{"name":"Le Circographe","category":"Concert Bar","icon":"fa-music","address":"Le Circographe Toulouse","logo":"","events":[{"date":"2026-05-02","time":"","price":"18h30/23h30","desc":"Boum des Pussycat Molles → DULCINE (downtempo/house/techno) + LAO (latino/tech house/reggaeton)","artist":"Boum des Pussycat Molles → DULCINE (downtempo/house/techno) + LAO"}]}},{"type":"Feature","id":"toulouse-distorama-face-b-friperie","geometry":{"type":"Point","coordinates":[1.4528685,43.60564]},"properties":{"name":"Face B Friperie","category":"Boutique","icon":"fa-store","address":"7 place Damloup 31000 Toulouse","logo":"face_b.jpg","events":[{"date":"2026-05-02","time":"","price":"12h-19h","desc":"Exposition des couvertures de mai du Distorama, de 2016 à 2026","artist":""}]}}]}