{"type":"FeatureCollection","features":[{"type":"Feature","id":"toulouse-distorama-le-ravelin","geometry":{"type":"Point","coordinates":[1.4282089,43.599082]},"properties":{"name":"Le Ravelin","category":"Concert Bar","icon":"fa-music","address":"6 place du Ravelin 31300 Toulouse","logo":"le_ravelin.png","events":[{"date":"2026-04-01","time":"20h","price":"?€","desc":"SAJJRA (expérimental post-pop) + HELOÏSE FRANCESCHINI","artist":"SAJJRA (expérimental post-pop) + HELOÏSE FRANCESCHINI","youtube_video_id":"","bandcamp_url":"","bandcamp_embed_url":""}]}}]}