{"type":"FeatureCollection","features":[{"type":"Feature","id":"toulouse-distorama-boudu-pont","geometry":{"type":"Point","coordinates":[1.4363272,43.5988936]},"properties":{"name":"Boudu pont","category":"Concert Bar","icon":"fa-music","address":"1 rue de la République 31300 Toulouse","logo":"","events":[{"date":"2026-02-27","time":"21h","price":"Gratuit","desc":"Dj set éclectique → ALEX ARMEN (open format)","artist":"Dj set éclectique → ALEX ARMEN"}]}},{"type":"Feature","id":"toulouse-distorama-bistrot-ducoin","geometry":{"type":"Point","coordinates":[1.4559708,43.6090065]},"properties":{"name":"Bistrot Ducoin","category":"Concert Bar","icon":"fa-music","address":"40 rue du Général Jean Compans 31500 Toulouse","logo":"bistrot_ducoin.jpg","events":[{"date":"2026-02-27","time":"21h","price":"Prix Libre","desc":"Tribute JANIS JOPLIN","artist":"Tribute JANIS JOPLIN"}]}},{"type":"Feature","id":"toulouse-distorama-betty-pop-s","geometry":{"type":"Point","coordinates":[1.4285574,43.5988092]},"properties":{"name":"Betty Pop's","category":"Concert Bar","icon":"fa-music","address":"Place du Ravelin 31300 Toulouse","logo":"","events":[{"date":"2026-02-27","time":"22h","price":"Gratuit","desc":"Fin de série DJ set (indus, electropk, synthpk, devocore, darkwave, EBM)","artist":"Fin de série DJ set"}]}}]}