{"type":"FeatureCollection","features":[{"type":"Feature","id":"toulouse-distorama-le-ravelin","geometry":{"type":"Point","coordinates":[1.4282089,43.599082]},"properties":{"name":"Le Ravelin","category":"Concert Bar","icon":"fa-music","address":"6 place du Ravelin 31300 Toulouse","logo":"le_ravelin.png","events":[{"date":"2026-05-30","time":"20h","price":"Prix?","desc":"SUBTLE TURNHIPS (DIY pop pk) + MAMMOÜTH (grg)","artist":"SUBTLE TURNHIPS (DIY pop pk) + MAMMOÜTH"}]}},{"type":"Feature","id":"toulouse-distorama-boudu-pont","geometry":{"type":"Point","coordinates":[1.4363272,43.5988936]},"properties":{"name":"Boudu pont","category":"Concert Bar","icon":"fa-music","address":"1 rue de la République 31300 Toulouse","logo":"","events":[{"date":"2026-05-30","time":"22h","price":"Gratuit","desc":"Dj Pasteq (groove shaker)","artist":"Dj Pasteq"}]}},{"type":"Feature","id":"toulouse-distorama-the-petit-london","geometry":{"type":"Point","coordinates":[1.4538883,43.6008176]},"properties":{"name":"The Petit London","category":"Concert Bar","icon":"fa-music","address":"7 rue Pierre-Paul Riquet 31000 Toulouse","logo":"","events":[{"date":"2026-05-30","time":"22h","price":"Gratuit","desc":"MONKEY LEO (hip hop house groovy to techno hardgroove)","artist":"MONKEY LEO"}]}}]}