{"type":"FeatureCollection","features":[{"type":"Feature","id":"toulouse-distorama-bistrot-ducoin","geometry":{"type":"Point","coordinates":[1.4559708,43.6090065]},"properties":{"name":"Bistrot Ducoin","category":"Concert Bar","icon":"fa-music","address":"40 rue du Général Jean Compans 31500 Toulouse","logo":"bistrot_ducoin.jpg","events":[{"date":"2026-01-22","time":"19h30","price":"Prix Libre","desc":"BOURDY COLLECTIF (rk festif pour dépressif)","artist":"BOURDY COLLECTIF","youtube_video_id":"sYa_lxp4a1Q","bandcamp_url":"","bandcamp_embed_url":""}]}},{"type":"Feature","id":"toulouse-distorama-boudu-pont","geometry":{"type":"Point","coordinates":[1.4363272,43.5988936]},"properties":{"name":"Boudu pont","category":"Concert Bar","icon":"fa-music","address":"1 rue de la République 31300 Toulouse","logo":"","events":[{"date":"2026-01-22","time":"19h","price":"sur résa","desc":"Ateliers créateurs : Girly Party: « Strass et ongles » avec DENTONSTRASS et DELUSIO'NAILS","artist":"","youtube_video_id":"","bandcamp_url":"","bandcamp_embed_url":""}]}},{"type":"Feature","id":"toulouse-distorama-little-o-clock","geometry":{"type":"Point","coordinates":[1.5208073,43.6444525]},"properties":{"name":"Little O'Clock","category":"Concert Bar","icon":"fa-music","address":"75 allée Jean Jaurès 31000 Toulouse","logo":"","events":[{"date":"2026-01-22","time":"20h30","price":"Prix Libre","desc":"BUBBLEGUM CORAIL (synthwave) + FILS KURYLAK (DJset full synth)","artist":"BUBBLEGUM CORAIL (synthwave) + FILS KURYLAK","youtube_video_id":"","bandcamp_url":"","bandcamp_embed_url":""}]}}]}