{"type":"FeatureCollection","features":[{"type":"Feature","id":"toulouse-distorama-boudu-pont","geometry":{"type":"Point","coordinates":[1.4363272,43.5988936]},"properties":{"name":"Boudu pont","category":"Concert Bar","icon":"fa-music","address":"1 rue de la République 31300 Toulouse","logo":"","events":[{"date":"2026-05-19","time":"","price":"20H","desc":"Jam irlandaise","artist":"Jam irlandaise","youtube_video_id":"xviP4-z_iRY","bandcamp_url":"","bandcamp_embed_url":""}]}},{"type":"Feature","id":"toulouse-distorama-face-b-friperie","geometry":{"type":"Point","coordinates":[1.4528685,43.60564]},"properties":{"name":"Face B Friperie","category":"Boutique","icon":"fa-store","address":"7 place Damloup 31000 Toulouse","logo":"face_b.jpg","events":[{"date":"2026-05-19","time":"","price":"12h-19h","desc":"Exposition des couvertures de mai du Distorama, de 2016 à 2026","artist":"","youtube_video_id":"","bandcamp_url":"","bandcamp_embed_url":""}]}}]}