{"type":"FeatureCollection","features":[{"type":"Feature","id":"toulouse-distorama-le-dada","geometry":{"type":"Point","coordinates":[1.4383337,43.6123398]},"properties":{"name":"Le Dada","category":"Concert Bar","icon":"🎵","address":"27 avenue Honoré Serres 31000 Toulouse","logo":"","events":[{"time":"20h","price":"6/8/10€","desc":"EQUINOXIOUS (modular synth-wave/MEX) + GRIS FUTURO (minimal wave/LIT-MEX)","artist":"EQUINOXIOUS (modular synth-wave/MEX) + GRIS FUTURO"}]}},{"type":"Feature","id":"toulouse-distorama-le-ravelin","geometry":{"type":"Point","coordinates":[1.4282089,43.599082]},"properties":{"name":"Le Ravelin","category":"Concert Bar","icon":"🎵","address":"6 place du Ravelin 31300 Toulouse","logo":"le_ravelin.png","events":[{"time":"20h","price":"5€","desc":"SWIRLS (post pk) + MONTEVIDEO (post pk indé)","artist":"SWIRLS (post pk) + MONTEVIDEO"}]}},{"type":"Feature","id":"toulouse-distorama-boudu-pont","geometry":{"type":"Point","coordinates":[1.4363272,43.5988936]},"properties":{"name":"Boudu pont","category":"Concert Bar","icon":"🎵","address":"1 rue de la République 31300 Toulouse","logo":"","events":[{"time":"22h","price":"Gratuit","desc":"Quizz / Bootyshake","artist":"Quizz / Bootyshake"}]}}]}