{"type":"FeatureCollection","features":[{"type":"Feature","id":"toulouse-distorama-bistrot-ducoin","geometry":{"type":"Point","coordinates":[1.4559708,43.6090065]},"properties":{"name":"Bistrot Ducoin","category":"Concert Bar","icon":"fa-music","address":"40 rue du Général Jean Compans 31500 Toulouse","logo":"bistrot_ducoin.jpg","events":[{"date":"2026-01-15","time":"19h30","price":"Prix Libre","desc":"THOM SOUYEUR (chanson à texte humoristique)","artist":"THOM SOUYEUR","youtube_video_id":"","bandcamp_url":"","bandcamp_embed_url":""}]}}]}