{"type":"FeatureCollection","features":[{"type":"Feature","id":"toulouse-distorama-la-mecanique-des-fluides","geometry":{"type":"Point","coordinates":[1.4537749,43.6002765]},"properties":{"name":"La Mécanique des Fluides","category":"Concert Bar","icon":"fa-music","address":"1 rue Riquet 31000 Toulouse","logo":"","events":[{"date":"2026-03-16","time":"19h30","price":"5€/10€","desc":"THE COOPER & FOREST POOKY EXPÉRIENCE (pop pk) + ASTROMILK (indie rk 90s)","artist":"THE COOPER & FOREST POOKY EXPÉRIENCE (pop pk) + ASTROMILK"}]}}]}