{"type":"FeatureCollection","features":[{"type":"Feature","id":"toulouse-distorama-bistrot-ducoin","geometry":{"type":"Point","coordinates":[1.4559708,43.6090065]},"properties":{"name":"Bistrot Ducoin","category":"Concert Bar","icon":"fa-music","address":"40 rue du Général Jean Compans 31500 Toulouse","logo":"bistrot_ducoin.jpg","events":[{"date":"2026-04-03","time":"21h","price":"5€","desc":"MARTY WENT BACK (rk grunge) + JOE BOYLE (acoustic)","artist":"MARTY WENT BACK (rk grunge) + JOE BOYLE","youtube_video_id":"yPK8QtVjMF0","bandcamp_url":"","bandcamp_embed_url":""}]}},{"type":"Feature","id":"toulouse-distorama-la-mecanique-des-fluides","geometry":{"type":"Point","coordinates":[1.4537749,43.6002765]},"properties":{"name":"La Mécanique des Fluides","category":"Concert Bar","icon":"fa-music","address":"1 rue Riquet 31000 Toulouse","logo":"","events":[{"date":"2026-04-03","time":"20h","price":"Prix Libre","desc":"UNDERTAKEN LIFE (power death mélo) + LETHERNAL UTOPIA (heavy death metal)","artist":"UNDERTAKEN LIFE (power death mélo) + LETHERNAL UTOPIA","youtube_video_id":"bkDqD9hOkJw","bandcamp_url":"","bandcamp_embed_url":""}]}},{"type":"Feature","id":"toulouse-distorama-boudu-pont","geometry":{"type":"Point","coordinates":[1.4363272,43.5988936]},"properties":{"name":"Boudu pont","category":"Concert Bar","icon":"fa-music","address":"1 rue de la République 31300 Toulouse","logo":"","events":[{"date":"2026-04-03","time":"21h","price":"Gratuit","desc":"DJ set EKYOZ (tropical bass, bass music et drum&bass)","artist":"DJ set EKYOZ","youtube_video_id":"SJZoEN1yfB0","bandcamp_url":"","bandcamp_embed_url":""}]}},{"type":"Feature","id":"toulouse-distorama-le-ravelin","geometry":{"type":"Point","coordinates":[1.4282089,43.599082]},"properties":{"name":"Le Ravelin","category":"Concert Bar","icon":"fa-music","address":"6 place du Ravelin 31300 Toulouse","logo":"le_ravelin.png","events":[{"date":"2026-04-03","time":"20h","price":"?€","desc":"NICK WHEELDON & THE LIVING PAINTINGS (folk rk) + JULII SHARP (indie folk rk)","artist":"NICK WHEELDON & THE LIVING PAINTINGS (folk rk) + JULII SHARP","youtube_video_id":"DmrqU5pSBnU","bandcamp_url":"","bandcamp_embed_url":""}]}},{"type":"Feature","id":"toulouse-distorama-thirsty-monk","geometry":{"type":"Point","coordinates":[1.4538991,43.6090951]},"properties":{"name":"The Thirsty Monk","category":"Concert Bar","icon":"fa-music","address":"Allées Jean Jaurès 31000 Toulouse","logo":"","events":[{"date":"2026-04-03","time":"22h","price":"Gratuit","desc":"LAST NITE (indie rk cover band)","artist":"LAST NITE","youtube_video_id":"TOypSnKFHrE","bandcamp_url":"","bandcamp_embed_url":""}]}}]}