{"type":"FeatureCollection","features":[{"type":"Feature","id":"toulouse-distorama-dalidaark","geometry":{"type":"Point","coordinates":[1.4318769,43.5988684]},"properties":{"name":"Dalidaark","category":"Concert Bar","icon":"fa-music","address":"39 rue Réclusane 31300 Toulouse","logo":"dalidaark.png","events":[{"date":"2026-02-07","time":"20h","price":"5€","desc":"LE BARON DE VINCÈSE (mathrk) + FWK (stoner)","artist":"LE BARON DE VINCÈSE (mathrk) + FWK","youtube_video_id":"y8zTFbPQzxE","bandcamp_url":"","bandcamp_embed_url":""}]}},{"type":"Feature","id":"toulouse-distorama-la-mecanique-des-fluides","geometry":{"type":"Point","coordinates":[1.4537749,43.6002765]},"properties":{"name":"La Mécanique des Fluides","category":"Concert Bar","icon":"fa-music","address":"1 rue Riquet 31000 Toulouse","logo":"","events":[{"date":"2026-02-07","time":"22h","price":"Gratuit","desc":"DJ set LIQUEUR + HELLISHA SAUVAGE (dark electro/ dark disco/ synthwave, EBM)","artist":"DJ set LIQUEUR + HELLISHA SAUVAGE","youtube_video_id":"","bandcamp_url":"","bandcamp_embed_url":""}]}},{"type":"Feature","id":"toulouse-distorama-boudu-pont","geometry":{"type":"Point","coordinates":[1.4363272,43.5988936]},"properties":{"name":"Boudu pont","category":"Concert Bar","icon":"fa-music","address":"1 rue de la République 31300 Toulouse","logo":"","events":[{"date":"2026-02-07","time":"22h","price":"Gratuit","desc":"Blind test + Bootyshake","artist":"Blind test + Bootyshake","youtube_video_id":"wRyD81oBUSM","bandcamp_url":"","bandcamp_embed_url":""}]}},{"type":"Feature","id":"toulouse-distorama-les-merles-moqueurs","geometry":{"type":"Point","coordinates":[1.422521,43.5958665]},"properties":{"name":"Les Merles Moqueurs","category":"Concert Bar","icon":"fa-music","address":"8 allées Maurice Sarraut 31300 Toulouse","logo":"","events":[{"date":"2026-02-07","time":"20h30","price":"Gratuit","desc":"BEHIND THE WINDOW (pop folk)","artist":"BEHIND THE WINDOW","youtube_video_id":"","bandcamp_url":"","bandcamp_embed_url":""}]}},{"type":"Feature","id":"toulouse-distorama-le-dada","geometry":{"type":"Point","coordinates":[1.4383337,43.6123398]},"properties":{"name":"Le Dada","category":"Concert Bar","icon":"fa-music","address":"27 avenue Honoré Serres 31000 Toulouse","logo":"","events":[{"date":"2026-02-07","time":"19h","price":"5/7/9€","desc":"LOA FRIDA (electronica magnétique) + ZELEZNA (ambient sauvage) + 2 DJ sets (techno, acid, psyche)","artist":"LOA FRIDA (electronica magnétique) + ZELEZNA (ambient sauvage) + 2 DJ sets","youtube_video_id":"","bandcamp_url":"","bandcamp_embed_url":""}]}},{"type":"Feature","id":"toulouse-distorama-mjc-roguet-pink-night","geometry":{"type":"Point","coordinates":[1.4268874,43.5963024]},"properties":{"name":"MJC Roguet","category":"Concert Bar","icon":"fa-music","address":"9 rue de Gascogne 31300 Toulouse","logo":"","events":[{"date":"2026-02-07","time":"18h","price":"Prix Libre","desc":"CERNIA (rock fusion) + BIMORPH (metal prog) + LAMPE ROUGE (rock cosmique) ","artist":"CERNIA (rock fusion) + BIMORPH (metal prog) + LAMPE ROUGE","youtube_video_id":"MRtjNc2EDMc","bandcamp_url":"","bandcamp_embed_url":""}]}}]}