{"type":"FeatureCollection","features":[{"type":"Feature","id":"toulouse-distorama-le-dada","geometry":{"type":"Point","coordinates":[1.4383337,43.6123398]},"properties":{"name":"Le Dada","category":"Concert Bar","icon":"🎵","address":"27 avenue Honoré Serres 31000 Toulouse","logo":"","events":[{"date":"2026-06-01","time":"20h30","price":"5€ adhésion annuelle","desc":"Les Vidéophages (Projection de courts-métrages)","artist":""},{"date":"2026-06-04","time":"20h","price":"6/8/10€","desc":"EQUINOXIOUS (modular synth-wave/MEX) + GRIS FUTURO (minimal wave/LIT-MEX)","artist":"EQUINOXIOUS (modular synth-wave/MEX) + GRIS FUTURO"},{"date":"2026-06-06","time":"20h","price":"10 €","desc":"PINK STILETTO (synthwave) + GLORIA BEFANA (synth post-pk) + GOLIATH (perf drag queer) + DJ set","artist":"PINK STILETTO (synthwave) + GLORIA BEFANA (synth post-pk) + GOLIATH (perf drag queer) + DJ set"}]}},{"type":"Feature","id":"toulouse-distorama-le-poinconneur","geometry":{"type":"Point","coordinates":[1.4544142,43.617283]},"properties":{"name":"Le Poinçonneur","category":"Concert Bar","icon":"🎵","address":"19bis rue du Faubourg Bonnefoy 31500 Toulouse","logo":"","events":[{"date":"2026-06-02","time":"19h30","price":"Gratuit","desc":"Vernissage Expo → David P. & Étienne Lescure (feat. Arthur Plateau, Kessa Ring & Mikoz)","artist":""},{"date":"2026-06-11","time":"19h30","price":"Prix Libre","desc":"TRAUM (noise instrumental) + CHICOS MACHINE (pk electro cumbia wtf)","artist":"TRAUM (noise instrumental) + CHICOS MACHINE"}]}},{"type":"Feature","id":"toulouse-distorama-le-ravelin","geometry":{"type":"Point","coordinates":[1.4282089,43.599082]},"properties":{"name":"Le Ravelin","category":"Concert Bar","icon":"🎵","address":"6 place du Ravelin 31300 Toulouse","logo":"le_ravelin.png","events":[{"date":"2026-06-03","time":"20h","price":"5/7€","desc":"THE BAD PLUG (synth pk) + ARMURE (rock'n'roll piñata)","artist":"THE BAD PLUG (synth pk) + ARMURE"},{"date":"2026-06-04","time":"20h","price":"5€","desc":"SWIRLS (post pk) + MONTEVIDEO (post pk indé)","artist":"SWIRLS (post pk) + MONTEVIDEO"},{"date":"2026-06-05","time":"20h","price":"Prix ?","desc":"SHOESHINERS (folk rk) + JOE BOYLE (acoustic pop singer)","artist":"SHOESHINERS (folk rk) + JOE BOYLE"},{"date":"2026-06-06","time":"20h","price":"Prix Libre","desc":"THE WYLDE TRYFLES (garage fuzz) + DJ sets (garage pk/sixties/northern soul)","artist":"THE WYLDE TRYFLES (garage fuzz) + DJ sets"},{"date":"2026-06-10","time":"20h","price":"5/7 €","desc":"ATTIC TED (gothic country) + SWESOR BRATHER (darkwave)","artist":"ATTIC TED (gothic country) + SWESOR BRATHER"},{"date":"2026-06-11","time":"20h","price":"5/7 €","desc":"TY (eggpk) + SPACE BUCKET (sci-fi art pk)","artist":"TY (eggpk) + SPACE BUCKET"},{"date":"2026-06-12","time":"20h","price":"5/6/8 €","desc":"SECOND MAJOR (post pk) + FRANTIC FORMS (grunge pk)","artist":"SECOND MAJOR (post pk) + FRANTIC FORMS"},{"date":"2026-06-13","time":"19h","price":"5/8/10€","desc":"THE SOBERS (pk rk/Marseille) + LITTLE TRICKS (pk) + LA DÉBÂCLE (post pk)","artist":"THE SOBERS (pk rk/Marseille) + LITTLE TRICKS (pk) + LA DÉBÂCLE"},{"date":"2026-06-14","time":"","price":"13h/19h","desc":"Fripe & Spritz","artist":"Fripe & Spritz"},{"date":"2026-06-18","time":"20h","price":"5/7 €","desc":"PENNY ARCADE (indie pop) + HINTERHEIM (drone noise expé)","artist":"PENNY ARCADE (indie pop) + HINTERHEIM"},{"date":"2026-06-19","time":"20h","price":"Gratuit","desc":"Soirée Karaoke par Sabrina","artist":""},{"date":"2026-06-21","time":"","price":"18h/1h","desc":"Fête de la Musique","artist":"Fête de la Musique"},{"date":"2026-06-23","time":"20h","price":"Prix?","desc":"DANGER ZOO (indie rk) + LENNY MARSOUIN (indie)","artist":"DANGER ZOO (indie rk) + LENNY MARSOUIN"},{"date":"2026-06-24","time":"20h","price":"5/7/10€","desc":"VÉTUSTE (indie rk) + THE SLOB (indie rk)","artist":"VÉTUSTE (indie rk) + THE SLOB"},{"date":"2026-06-25","time":"20h","price":"Prix?","desc":"CLAIRE VON CORDA (spoken word) + NUIT NOIRE (black métal lo-fi)","artist":"CLAIRE VON CORDA (spoken word) + NUIT NOIRE"},{"date":"2026-06-26","time":"20h","price":"10€ (Prévente uniquement)","desc":"LE PRINCE HARRY (electro synth pk) + FRACTURE SQUAD (power electric)","artist":"LE PRINCE HARRY (electro synth pk) + FRACTURE SQUAD"},{"date":"2026-06-27","time":"20h","price":"","desc":"LES RENTIERS (pk) + MAGIC TÉNIA (pk)","artist":"LES RENTIERS (pk) + MAGIC TÉNIA"}]}},{"type":"Feature","id":"toulouse-distorama-boudu-pont","geometry":{"type":"Point","coordinates":[1.4363272,43.5988936]},"properties":{"name":"Boudu pont","category":"Concert Bar","icon":"🎵","address":"1 rue de la République 31300 Toulouse","logo":"","events":[{"date":"2026-06-04","time":"22h","price":"Gratuit","desc":"Quizz / Bootyshake","artist":"Quizz / Bootyshake"},{"date":"2026-06-11","time":"18h","price":"Gratuit","desc":"Karaoke / Bootyshake","artist":"Karaoke / Bootyshake"},{"date":"2026-06-13","time":"18h","price":"Gratuit","desc":"Afterwork DJ set JUMIEN JUMINI","artist":"Afterwork DJ set JUMIEN JUMINI"},{"date":"2026-06-20","time":"21h","price":"Gratuit","desc":"Dj set COLLECTIF CARABINES (disco, house, indie)","artist":"Dj set COLLECTIF CARABINES"},{"date":"2026-06-26","time":"18h","price":"Gratuit","desc":"Afterwork dj set JUMIEN JUMINI","artist":"Afterwork dj set JUMIEN JUMINI"},{"date":"2026-06-27","time":"22h","price":"Gratuit","desc":"Blindtest / bootyshake","artist":"Blindtest / bootyshake"}]}},{"type":"Feature","id":"toulouse-distorama-bistrot-ducoin","geometry":{"type":"Point","coordinates":[1.4559708,43.6090065]},"properties":{"name":"Bistrot Ducoin","category":"Concert Bar","icon":"🎵","address":"40 rue du Général Jean Compans 31500 Toulouse","logo":"bistrot_ducoin.jpg","events":[{"date":"2026-06-05","time":"","price":"Gratuit","desc":" soirée western, DJ DÉBILLY ZE KID","artist":""},{"date":"2026-06-06","time":"21h","price":"Prix Libre","desc":"EVENS & THE SOULJACKERS (pure soul Daptone style)","artist":"EVENS & THE SOULJACKERS"},{"date":"2026-06-11","time":"19h30","price":"Prix Libre","desc":"PAUL VAL (blues rk/Austin)","artist":"PAUL VAL"},{"date":"2026-06-12","time":"21h","price":"Prix Libre","desc":"TINA + PEONY POX (rk alt)","artist":"TINA + PEONY POX"},{"date":"2026-06-18","time":"","price":"Prix Libre","desc":"BEN CALYPSO (calypso)","artist":"BEN CALYPSO"},{"date":"2026-06-19","time":"21h","price":"Prix Libre","desc":"THE DIOGENES (pk grunge 90s)","artist":"THE DIOGENES"},{"date":"2026-06-25","time":"19h30","price":"Prix Libre","desc":"Blues au Coin du Zinc","artist":"Blues au Coin du Zinc"},{"date":"2026-06-26","time":"21h","price":"Prix Libre","desc":"ANDRÉ GÉRARD (pk)","artist":"ANDRÉ GÉRARD"}]}},{"type":"Feature","id":"toulouse-distorama-la-mecanique-des-fluides","geometry":{"type":"Point","coordinates":[1.4537749,43.6002765]},"properties":{"name":"La Mécanique des Fluides","category":"Concert Bar","icon":"🎵","address":"1 rue Riquet 31000 Toulouse","logo":"","events":[{"date":"2026-06-06","time":"19h","price":"Prix Libre","desc":"Soirée Drag 'n' Roll → AKA (riot rap queer) + drag shows + DJ set LOU STRUMMER","artist":""},{"date":"2026-06-12","time":"20h","price":"3/5€","desc":"CHUTE LIBRE (pk hxc/Nantes) + LAME (black death hxc)","artist":"CHUTE LIBRE (pk hxc/Nantes) + LAME"},{"date":"2026-06-13","time":"20h","price":"3/5€","desc":"RADICAL KITTEN (queer pk no-wave) + MARIA CARESSES et karaoké autotuné","artist":"RADICAL KITTEN (queer pk no-wave) + MARIA CARESSES et karaoké autotuné"},{"date":"2026-06-18","time":"20h","price":"5/7€","desc":"COEUR À L'INDEX (power pop/Brxl) + RUMEX (metallic hxc)","artist":"COEUR À L'INDEX (power pop/Brxl) + RUMEX"},{"date":"2026-06-19","time":"20h","price":"Prix Libre","desc":"THOM SUYEUR ET LES PETIS GREGORYS","artist":"THOM SUYEUR ET LES PETIS GREGORYS"},{"date":"2026-06-20","time":"20h","price":"3/5€","desc":"AMORPHIA (old school thrash metal/Inde) + RECTIFIER (thrash metal)","artist":"AMORPHIA (old school thrash metal/Inde) + RECTIFIER"},{"date":"2026-06-21","time":"18h","price":"Gratuit","desc":"Fête de la Musique → DJs set","artist":"Fête de la Musique → DJs set"},{"date":"2026-06-24","time":"19h30","price":"5/7€","desc":"MESTIZA (pk hxc/Barcelone) + SILLY WALK (pk rk)","artist":"MESTIZA (pk hxc/Barcelone) + SILLY WALK"},{"date":"2026-06-27","time":"20h","price":"3/5€","desc":"SEUM (doom 'n' bass/Montréal) + KAALBAR (stoner doom sludge)","artist":"SEUM (doom 'n' bass/Montréal) + KAALBAR"}]}},{"type":"Feature","id":"toulouse-distorama-le-declic","geometry":{"type":"Point","coordinates":[1.4543659,43.6041704]},"properties":{"name":"Le Déclic","category":"Concert Bar","icon":"🎵","address":"Le Déclic Toulouse","logo":"","events":[{"date":"2026-06-06","time":"","price":"19h30 à 23h – Gratuit","desc":"Jam Session","artist":"Jam Session"},{"date":"2026-06-12","time":"","price":"19h30 à 23h – Gratuit","desc":"Jam Session","artist":"Jam Session"},{"date":"2026-06-13","time":"","price":"19h30 à 23h – Gratuit","desc":"Jam Session","artist":"Jam Session"},{"date":"2026-06-20","time":"","price":"19h30 à 23h – Gratuit","desc":"Jam Session","artist":"Jam Session"},{"date":"2026-06-26","time":"","price":"19h30 à 23h – Gratuit","desc":"Jam Session","artist":"Jam Session"},{"date":"2026-06-27","time":"","price":"19h30 à 23h – Gratuit","desc":"Jam Session","artist":"Jam Session"}]}},{"type":"Feature","id":"toulouse-distorama-the-petit-london","geometry":{"type":"Point","coordinates":[1.4538883,43.6008176]},"properties":{"name":"The Petit London","category":"Concert Bar","icon":"🎵","address":"7 rue Pierre-Paul Riquet 31000 Toulouse","logo":"","events":[{"date":"2026-06-06","time":"22h","price":"Gratuit","desc":"KONSTROY (dark wave, ebm, goth)","artist":"KONSTROY"},{"date":"2026-06-13","time":"22h","price":"Gratuit","desc":"CHEMICAL DISTRICT (drum into acid/UK)","artist":"CHEMICAL DISTRICT"},{"date":"2026-06-19","time":"22h","price":"Gratuit","desc":"SYNAPS (tekno, trance, DnB)","artist":"SYNAPS"},{"date":"2026-06-26","time":"22h","price":"Gratuit","desc":"SISMIK (DnB, Dubstep & hardcore)","artist":"SISMIK"},{"date":"2026-06-27","time":"22h","price":"Gratuit","desc":"ARTISANS BANGER (disco house, tech house, hard house)","artist":"ARTISANS BANGER"}]}},{"type":"Feature","id":"toulouse-distorama-l-engrenage","geometry":{"type":"Point","coordinates":[1.4880684,43.6274411]},"properties":{"name":"L'Engrenage","category":"Concert Bar","icon":"🎵","address":"14 rue Louis Renault 31130 Balma","logo":"","events":[{"date":"2026-06-12","time":"20h","price":"Prix Libre","desc":"ROBERT OPENIGHTMARE (heavy drünk rk) + IRON LUNGS (stoner pk) + PRESIDENT BUTCHER (pk'n'roll)","artist":"ROBERT OPENIGHTMARE (heavy drünk rk) + IRON LUNGS (stoner pk) + PRESIDENT BUTCHER"},{"date":"2026-06-27","time":"","price":"19H- 10€","desc":"THE LAST OATH (Goth-Rock) + MARK OF THE SPHINX (Goth-Wave)","artist":"THE LAST OATH (Goth-Rock) + MARK OF THE SPHINX"}]}},{"type":"Feature","id":"toulouse-distorama-face-b","geometry":{"type":"Point","coordinates":[1.4528685,43.60564]},"properties":{"name":"Face B Friperie","category":"Boutique","icon":"🛍️","address":"7 place Damloup 31000 Toulouse","logo":"","events":[{"date":"2026-06-12","time":"","price":"","desc":"Ventes de vêtements à petits prix (12h-18h)","artist":"Ventes de vêtements à petits prix"},{"date":"2026-06-13","time":"","price":"","desc":"Ventes de vêtements à petits prix (12h-18h)","artist":"Ventes de vêtements à petits prix"}]}},{"type":"Feature","id":"toulouse-distorama-local-piquemil","geometry":{"type":"Point","coordinates":[1.4324351,43.5992796]},"properties":{"name":"Local Piquemil","category":"Concert Bar","icon":"🎵","address":"6 rue Piquemil 31300 Toulouse","logo":"","events":[{"date":"2026-06-12","time":"20h","price":"Prix Libre","desc":"TEMPÊTE TOUT LE TEMPS (socio-punk-electro) + AXEL DELAPAIX (hip-hop) ","artist":"TEMPÊTE TOUT LE TEMPS (socio-punk-electro) + AXEL DELAPAIX"},{"date":"2026-06-17","time":"19h","price":"Prix Libre","desc":"Émission radio de MONA HKL et rétroprojection de dessins sur les instruments issus des Balkans","artist":""}]}},{"type":"Feature","id":"toulouse-distorama-le-winger","geometry":{"type":"Point","coordinates":[1.4516526,43.6108151]},"properties":{"name":"Le Winger","category":"Concert Bar","icon":"🎵","address":"68 rue de Bayard 31000 Toulouse","logo":"","events":[{"date":"2026-06-13","time":"20h30","price":"Prix Libre","desc":"CASCADES (electro kraut prog) + MONDO CANE (post rk, noise)","artist":"CASCADES (electro kraut prog) + MONDO CANE"}]}},{"type":"Feature","id":"toulouse-distorama-o-bohem","geometry":{"type":"Point","coordinates":[1.4450152,43.5912574]},"properties":{"name":"Bar Ôbohem","category":"Concert Bar","icon":"🎵","address":"Grande Rue Saint-Michel 31000 Toulouse","logo":"","events":[{"date":"2026-06-13","time":"21h","price":"Prix Libre (5€ conseillé)","desc":"100% live machine → REDRØWEN (groove techno) + GRIT SALT (indus techno) + R325 (electro/IDM) + FABULATOR (mental techno)","artist":"100% live machine → REDRØWEN (groove techno) + GRIT SALT (indus techno) + R325 (electro/IDM) + FABULATOR"}]}},{"type":"Feature","id":"toulouse-distorama-l-autan-19h","geometry":{"type":"Point","coordinates":[1.43883,43.6117922]},"properties":{"name":"L'Autan","category":"Concert Bar","icon":"🎵","address":"58 boulevard d'Arcole 31000 Toulouse","logo":"","events":[{"date":"2026-06-13","time":"","price":"Gratuit","desc":"ZING (pk) + CHICANE'S (rk 70s)","artist":"ZING (pk) + CHICANE'S"}]}},{"type":"Feature","id":"toulouse-distorama-american-cosmograph","geometry":{"type":"Point","coordinates":[1.4467818,43.6039842]},"properties":{"name":"American Cosmograph","category":"Cinema","icon":"🎬","address":"24 rue Montardy 31000 Toulouse","logo":"american_cosmograph.jpg","events":[{"date":"2026-06-16","time":"18h30","price":"Gratuit","desc":"Le Cosmo fête ses 10 ans ! -> BEES KNEES BREAKFAST (Bluegrass) + 3 projections en avant première au choix ","artist":""}]}},{"type":"Feature","id":"toulouse-distorama-gloria","geometry":{"type":"Point","coordinates":[1.4439408,43.6014516]},"properties":{"name":"Gloria","category":"Concert Bar","icon":"🎵","address":"4 rue Peyras 31000 Toulouse","logo":"","events":[{"date":"2026-06-19","time":"21h","price":"Gratuit","desc":"Blind test organisé par Ju'","artist":"Blind test organisé par Ju'"},{"date":"2026-06-21","time":"21h","price":"Gratuit","desc":"Fête de la Musique → DJ set acid oriental par OZAN","artist":"Fête de la Musique → DJ set acid oriental par OZAN"}]}},{"type":"Feature","id":"toulouse-distorama-flashback-cafe","geometry":{"type":"Point","coordinates":[1.4228928,43.6088839]},"properties":{"name":"Flashback Café","category":"Concert Bar","icon":"🎵","address":"Allée de Brienne 31000 Toulouse","logo":"","events":[{"date":"2026-06-19","time":"19h","price":"Gratuit","desc":"15.15 (rk indé)","artist":"15.15"}]}},{"type":"Feature","id":"toulouse-distorama-thirsty-monk","geometry":{"type":"Point","coordinates":[1.4538991,43.6090951]},"properties":{"name":"The Thirsty Monk","category":"Concert Bar","icon":"🎵","address":"Allées Jean Jaurès 31000 Toulouse","logo":"","events":[{"date":"2026-06-21","time":"20h","price":"Gratuit","desc":"MONDOSHAWAN (stoner pk énergique)","artist":"MONDOSHAWAN"}]}},{"type":"Feature","id":"toulouse-distorama-radio-fmr-booster","geometry":{"type":"Point","coordinates":[1.4487374,43.6153004]},"properties":{"name":"Radio FMR","category":"Radio","icon":"📻","address":"9 boulevard des Minimes 31200 Toulouse","logo":"","events":[{"date":"2026-06-26","time":"19h","price":"Prix Libre","desc":"50/50 Release Party (rap) → RUNO + MAI DE RIMAS + SINCE + SUN + ABUDAM + CARA","artist":"50/50 Release Party (rap) → RUNO + MAI DE RIMAS + SINCE + SUN + ABUDAM + CARA"}]}}]}