{"type":"FeatureCollection","features":[{"type":"Feature","id":"toulouse-distorama-boudu-pont","geometry":{"type":"Point","coordinates":[1.4363272,43.5988936]},"properties":{"name":"Boudu pont","category":"Concert Bar","icon":"fa-music","address":"1 rue de la République 31300 Toulouse","logo":"","events":[{"date":"2026-04-26","time":"18h","price":"Gratuit","desc":"Concert MR TRISTAN (chansons/humour)","artist":""}]}},{"type":"Feature","id":"toulouse-distorama-le-rex","geometry":{"type":"Point","coordinates":[1.438322,43.6119889]},"properties":{"name":"Le Rex","category":"Concert Bar","icon":"fa-music","address":"Le Rex Toulouse","logo":"","events":[{"date":"2026-04-26","time":"19h30","price":"22€","desc":"CERNIA (rk fusion) - THE LAST INTERNATIONALE (US)","artist":"CERNIA (rk fusion) - THE LAST INTERNATIONALE"}]}}]}