{"type":"FeatureCollection","features":[{"type":"Feature","id":"toulouse-distorama-le-ravelin","geometry":{"type":"Point","coordinates":[1.4282089,43.599082]},"properties":{"name":"Le Ravelin","category":"Concert Bar","icon":"🎵","address":"6 place du Ravelin 31300 Toulouse","logo":"le_ravelin.png","events":[{"time":"20h","price":"5€","desc":"ALL BORDERS KILL + DAMN HIT (hxc)","artist":"ALL BORDERS KILL + DAMN HIT"}]}},{"type":"Feature","id":"toulouse-distorama-la-mecanique-des-fluides","geometry":{"type":"Point","coordinates":[1.4537749,43.6002765]},"properties":{"name":"La Mécanique des Fluides","category":"Concert Bar","icon":"🎵","address":"1 rue Riquet 31000 Toulouse","logo":"","events":[{"time":"21h30","price":"Gratuit","desc":"DJs Set BOUDOIR MODERNE : DAME ELISE + COLDSIVERS","artist":"DJs Set BOUDOIR MODERNE : DAME ELISE + COLDSIVERS"}]}},{"type":"Feature","id":"toulouse-distorama-boudu-pont","geometry":{"type":"Point","coordinates":[1.4363272,43.5988936]},"properties":{"name":"Boudu pont","category":"Concert Bar","icon":"🎵","address":"1 rue de la République 31300 Toulouse","logo":"","events":[{"time":"22h","price":"Gratuit","desc":"Quiz cinéma musique + bootyshake","artist":"Quiz cinéma musique + bootyshake"}]}}]}