{"type":"FeatureCollection","features":[{"type":"Feature","id":"toulouse-distorama-la-mecanique-des-fluides","geometry":{"type":"Point","coordinates":[1.4537749,43.6002765]},"properties":{"name":"La Mécanique des Fluides","category":"Concert Bar","icon":"fa-music","address":"1 rue Riquet 31000 Toulouse","logo":"","events":[{"date":"2026-04-23","time":"19h30","price":"Prix Libre","desc":"DRAWING HILLS (post rk/math rk/Alsace) + FWK (stoner prog instr)","artist":"DRAWING HILLS (post rk/math rk/Alsace) + FWK"}]}},{"type":"Feature","id":"toulouse-distorama-bistrot-ducoin","geometry":{"type":"Point","coordinates":[1.4559708,43.6090065]},"properties":{"name":"Bistrot Ducoin","category":"Concert Bar","icon":"fa-music","address":"40 rue du Général Jean Compans 31500 Toulouse","logo":"bistrot_ducoin.jpg","events":[{"date":"2026-04-23","time":"19h30","price":"Prix Libre","desc":"THE LONE WOLF (trad irlandais)","artist":"THE LONE WOLF"}]}}]}