{"type":"FeatureCollection","features":[{"type":"Feature","id":"toulouse-distorama-le-ravelin","geometry":{"type":"Point","coordinates":[1.4282089,43.599082]},"properties":{"name":"Le Ravelin","category":"Concert Bar","icon":"fa-music","address":"6 place du Ravelin 31300 Toulouse","logo":"le_ravelin.png","events":[{"date":"2026-03-23","time":"20h","price":"5/7/9€","desc":"THE CUTTER (indie goth) + STILL ROOM (postpunk)","artist":"THE CUTTER (indie goth) + STILL ROOM","youtube_video_id":"XRGRsYg_fro","bandcamp_url":"","bandcamp_embed_url":""}]}}]}