{"type":"FeatureCollection","features":[{"type":"Feature","id":"toulouse-distorama-bistrot-ducoin","geometry":{"type":"Point","coordinates":[1.4559708,43.6090065]},"properties":{"name":"Bistrot Ducoin","category":"Concert Bar","icon":"fa-music","address":"40 rue du Général Jean Compans 31500 Toulouse","logo":"bistrot_ducoin.jpg","events":[{"date":"2026-04-10","time":"19h","price":"?€","desc":"« Y a du monde au Balkan » soirée à thème","artist":"","youtube_video_id":"","bandcamp_url":"","bandcamp_embed_url":""}]}},{"type":"Feature","id":"toulouse-distorama-boudu-pont","geometry":{"type":"Point","coordinates":[1.4363272,43.5988936]},"properties":{"name":"Boudu pont","category":"Concert Bar","icon":"fa-music","address":"1 rue de la République 31300 Toulouse","logo":"","events":[{"date":"2026-04-10","time":"21h","price":"Gratuit","desc":"DJ set CHEMICAL DISTRICT","artist":"DJ set CHEMICAL DISTRICT","youtube_video_id":"yOXo3q5d2Ak","bandcamp_url":"","bandcamp_embed_url":""}]}},{"type":"Feature","id":"toulouse-distorama-gloria","geometry":{"type":"Point","coordinates":[1.4439408,43.6014516]},"properties":{"name":"Gloria","category":"Concert Bar","icon":"fa-music","address":"4 rue Peyras 31000 Toulouse","logo":"","events":[{"date":"2026-04-10","time":"20h30","price":"Prix Libre","desc":"DANIEL MARK WILLIAMS (folk de gouttières)","artist":"DANIEL MARK WILLIAMS","youtube_video_id":"sf-_uvtz44Q","bandcamp_url":"","bandcamp_embed_url":""}]}},{"type":"Feature","id":"toulouse-distorama-la-cinematheque","geometry":{"type":"Point","coordinates":[1.4414764,43.6068671]},"properties":{"name":"La Cinémathèque de Toulouse","category":"Cinema","icon":"fa-film","address":"69 rue du Taur 31000 Toulouse","logo":"","events":[{"date":"2026-04-10","time":"18h","price":"Gratuit sur résa","desc":"Fête des retrouvailles + Vernissage de l’exposition « En toute transparence »","artist":"","youtube_video_id":"","bandcamp_url":"","bandcamp_embed_url":""}]}},{"type":"Feature","id":"toulouse-distorama-axis-music","geometry":{"type":"Point","coordinates":[1.3974931,43.5472325]},"properties":{"name":"Axis Music","category":"Concert Bar","icon":"fa-music","address":"7 impasse Boudeville 31100 Toulouse","logo":"","events":[{"date":"2026-04-10","time":"20h","price":"12€ (10€ en resa)","desc":"TULAVIOK (pk legend) + SILLY WALK (power pk) + TENIA CREW (pk rk)","artist":"TULAVIOK (pk legend) + SILLY WALK (power pk) + TENIA CREW","youtube_video_id":"9rWlTi4xaWc","bandcamp_url":"","bandcamp_embed_url":""}]}}]}