{"type":"FeatureCollection","features":[{"type":"Feature","id":"toulouse-distorama-le-ravelin","geometry":{"type":"Point","coordinates":[1.4282089,43.599082]},"properties":{"name":"Le Ravelin","category":"Concert Bar","icon":"🎵","address":"6 place du Ravelin 31300 Toulouse","logo":"le_ravelin.png","events":[{"date":"2026-04-01","time":"20h","price":"?€","desc":"SAJJRA (expérimental post-pop) + HELOÏSE FRANCESCHINI","artist":"SAJJRA (expérimental post-pop) + HELOÏSE FRANCESCHINI"},{"date":"2026-04-02","time":"19h30","price":"5/7€","desc":"UMRA (pk furieux) + KONTAMINATE (crust raw pk)","artist":"UMRA (pk furieux) + KONTAMINATE"},{"date":"2026-04-03","time":"20h","price":"?€","desc":"NICK WHEELDON & THE LIVING PAINTINGS (folk rk) + JULII SHARP (indie folk rk)","artist":"NICK WHEELDON & THE LIVING PAINTINGS (folk rk) + JULII SHARP"},{"date":"2026-04-04","time":"20h","price":"?€","desc":"APRIL FOOLS (style ?)","artist":"APRIL FOOLS"},{"date":"2026-04-05","time":"","price":"14h à 19h","desc":"Fripe & Spritz","artist":"Fripe & Spritz"},{"date":"2026-04-09","time":"20h","price":"5/7/10€","desc":"YUCABA (100% hxc radikal) + FRACTION SQUAD (power electro)","artist":"YUCABA (100% hxc radikal) + FRACTION SQUAD"},{"date":"2026-04-11","time":"20h","price":"5/8/10+ €","desc":"TOTOROCK (pk rk Ghibli) + PARAZYTE PETALS (alt/nu metal)","artist":"TOTOROCK (pk rk Ghibli) + PARAZYTE PETALS"},{"date":"2026-04-12","time":"20h","price":"Prix Libre","desc":"TOM BYARS' OUT OF FIRE + LES FILS DE JOIE unplugged (post-pk new wave)","artist":"TOM BYARS' OUT OF FIRE + LES FILS DE JOIE unplugged"},{"date":"2026-04-13","time":"20h","price":"5/7/10 €","desc":"MONTAÑA (pk) + TOWER OF ONE (raw pk)","artist":"MONTAÑA (pk) + TOWER OF ONE"},{"date":"2026-04-17","time":"20h","price":"?€","desc":"PRIX LIBRE (pk hxc doom) + ADOLF HIBOU (noise rkexpépkgrind)","artist":"PRIX LIBRE (pk hxc doom) + ADOLF HIBOU"},{"date":"2026-04-18","time":"20h","price":"?€","desc":"DÏBRA (pop méditerranéenne) + FRIDA (pop française)","artist":"DÏBRA (pop méditerranéenne) + FRIDA"},{"date":"2026-04-19","time":"","price":"12h-19h","desc":"Vermut Musical (vermut, tapas et DJ set)","artist":"Vermut Musical"},{"date":"2026-04-22","time":"20h","price":"?€","desc":"ANNULE !!! THE SHITS (pk noise rk)","artist":"ANNULE !!! THE SHITS"},{"date":"2026-04-25","time":"20h","price":"7€+","desc":"POO POO TALKS (grg synth pk) + FIVE BUCKS! (weird pk) + M.I.T (pk)","artist":"POO POO TALKS (grg synth pk) + FIVE BUCKS! (weird pk) + M.I.T"},{"date":"2026-04-28","time":"20h","price":"5+ €","desc":"OOG BOGO (psyched-out post-wave lofi) + PFFF… (post blues)","artist":"OOG BOGO (psyched-out post-wave lofi) + PFFF…"},{"date":"2026-04-30","time":"20h30","price":"?€","desc":"TH’ LOSIN STREAKS (sixties grg pk)","artist":"TH’ LOSIN STREAKS"}]}},{"type":"Feature","id":"toulouse-distorama-bistrot-ducoin","geometry":{"type":"Point","coordinates":[1.4559708,43.6090065]},"properties":{"name":"Bistrot Ducoin","category":"Concert Bar","icon":"🎵","address":"40 rue du Général Jean Compans 31500 Toulouse","logo":"bistrot_ducoin.jpg","events":[{"date":"2026-04-02","time":"19h30","price":"Prix Libre","desc":"LILITH SONG (pop rk)","artist":"LILITH SONG"},{"date":"2026-04-03","time":"21h","price":"5€","desc":"MARTY WENT BACK (rk grunge) + JOE BOYLE (acoustic)","artist":"MARTY WENT BACK (rk grunge) + JOE BOYLE"},{"date":"2026-04-10","time":"19h","price":"?€","desc":"« Y a du monde au Balkan » soirée à thème","artist":""},{"date":"2026-04-17","time":"19h","price":"?€","desc":"Les 3 ans du Bistrot : LAS BOMBAS + BOURDY COLLECTIF + SHOESHINERS (surf rk)","artist":"Les 3 ans du Bistrot : LAS BOMBAS + BOURDY COLLECTIF + SHOESHINERS"},{"date":"2026-04-23","time":"19h30","price":"Prix Libre","desc":"THE LONE WOLF (trad irlandais)","artist":"THE LONE WOLF"},{"date":"2026-04-24","time":"21h","price":"Prix Libre","desc":"FRANTIC FORMS (post pk)","artist":"FRANTIC FORMS"},{"date":"2026-04-30","time":"19h30","price":"Prix Libre","desc":"Blues au Coin du Zinc","artist":"Blues au Coin du Zinc"}]}},{"type":"Feature","id":"toulouse-distorama-le-dada","geometry":{"type":"Point","coordinates":[1.4383337,43.6123398]},"properties":{"name":"Le Dada","category":"Concert Bar","icon":"🎵","address":"27 avenue Honoré Serres 31000 Toulouse","logo":"","events":[{"date":"2026-04-02","time":"20h","price":"Prix Libre","desc":"PRONOSTIC VITAL (synth pk) + SHITTY SHED (dactylotek) + ORGANES EN SOLDES (noise) + KAYO DAYO BELIT (rap)","artist":"PRONOSTIC VITAL (synth pk) + SHITTY SHED (dactylotek) + ORGANES EN SOLDES (noise) + KAYO DAYO BELIT"},{"date":"2026-04-09","time":"20h30","price":"5/7/9€","desc":"BARREZ VOUS (tek machin.e) + VIVE LA POP (indus dub) + UNOM (synth pk) + PRRIEE PCION (DJ set amb dub)","artist":"BARREZ VOUS (tek machin.e) + VIVE LA POP (indus dub) + UNOM (synth pk) + PRRIEE PCION"},{"date":"2026-04-13","time":"20h30","price":"5€ adhésion annuelle","desc":"Les Vidéophages (projection de courts-métrages)","artist":""},{"date":"2026-04-17","time":"20h30","price":"6/8/10€","desc":"LOVATARAXX (elctro wave/ebm, FR) + K.A.R.L. (coldwave, post-punk, FR)","artist":"LOVATARAXX (elctro wave/ebm, FR) + K.A.R.L."}]}},{"type":"Feature","id":"toulouse-distorama-la-mecanique-des-fluides","geometry":{"type":"Point","coordinates":[1.4537749,43.6002765]},"properties":{"name":"La Mécanique des Fluides","category":"Concert Bar","icon":"🎵","address":"1 rue Riquet 31000 Toulouse","logo":"","events":[{"date":"2026-04-03","time":"20h","price":"Prix Libre","desc":"UNDERTAKEN LIFE (power death mélo) + LETHERNAL UTOPIA (heavy death metal)","artist":"UNDERTAKEN LIFE (power death mélo) + LETHERNAL UTOPIA"},{"date":"2026-04-05","time":"17h30","price":"Gratuit","desc":"7 ans de la Méca : DJs Set et Tombola","artist":"7 ans de la Méca : DJs Set et Tombola"},{"date":"2026-04-11","time":"19h30","price":"3/5/7€","desc":"YUNK (pk/Bilbao) + ERREUR JEAN (post noise élec/Suisse) + CAGE (pk hxc/Suisse)","artist":"YUNK (pk/Bilbao) + ERREUR JEAN (post noise élec/Suisse) + CAGE"},{"date":"2026-04-18","time":"20h","price":"3/5/7€","desc":"GRAVERY (death metal/IT) + SICARIS (death metal)","artist":"GRAVERY (death metal/IT) + SICARIS"},{"date":"2026-04-22","time":"20h","price":"Prix Libre (3/5€ suggerés)","desc":"PINK WONDER (punky pk) + FRANTIC FORMS (grg grunge)","artist":"PINK WONDER (punky pk) + FRANTIC FORMS"},{"date":"2026-04-23","time":"19h30","price":"Prix Libre","desc":"DRAWING HILLS (post rk/math rk/Alsace) + FWK (stoner prog instr)","artist":"DRAWING HILLS (post rk/math rk/Alsace) + FWK"},{"date":"2026-04-25","time":"20h","price":"3/5€","desc":"THROUGHT (stoner) + BUUG (post rk/grunge noise)","artist":"THROUGHT (stoner) + BUUG"},{"date":"2026-04-27","time":"19h30","price":"3/5/7€","desc":"NATURE MORTE (blackgaze/Paris) + AETHERIA CONSCIENTIA (prog black/Nantes)","artist":"NATURE MORTE (blackgaze/Paris) + AETHERIA CONSCIENTIA"},{"date":"2026-04-28","time":"20h","price":"3/5€","desc":"TIPI (garage rk/Bruxelles) + AUSTER (pk psyché)","artist":"TIPI (garage rk/Bruxelles) + AUSTER"},{"date":"2026-04-29","time":"20h","price":"5/7€","desc":"EDHOCHULI (post hxc/USA) + TROMBLON (emo violence)","artist":"EDHOCHULI (post hxc/USA) + TROMBLON"},{"date":"2026-04-30","time":"20h","price":"?€","desc":"MOLYKOTE (oldschool deathmetal/Bilbao) + PARENTESIS 536 (crust pk/Astigarraga)","artist":"MOLYKOTE (oldschool deathmetal/Bilbao) + PARENTESIS 536"}]}},{"type":"Feature","id":"toulouse-distorama-boudu-pont","geometry":{"type":"Point","coordinates":[1.4363272,43.5988936]},"properties":{"name":"Boudu pont","category":"Concert Bar","icon":"🎵","address":"1 rue de la République 31300 Toulouse","logo":"","events":[{"date":"2026-04-03","time":"21h","price":"Gratuit","desc":"DJ set EKYOZ (tropical bass, bass music et drum&bass)","artist":"DJ set EKYOZ"},{"date":"2026-04-04","time":"22h","price":"Gratuit","desc":"Dj set COLLECTIF CABANE (house techno)","artist":"Dj set COLLECTIF CABANE"},{"date":"2026-04-05","time":"18h","price":"Gratuit","desc":"Concert SLIM PAUL (blues)","artist":""},{"date":"2026-04-09","time":"21h","price":"Gratuit","desc":"Karaoke et after work","artist":"Karaoke et after work"},{"date":"2026-04-10","time":"21h","price":"Gratuit","desc":"DJ set CHEMICAL DISTRICT","artist":"DJ set CHEMICAL DISTRICT"},{"date":"2026-04-11","time":"22h","price":"Gratuit","desc":"DJ set PASTEQ (groove shaker)","artist":"DJ set PASTEQ"},{"date":"2026-04-12","time":"18h","price":"Gratuit","desc":"Concert JESSE (rk/ blues)","artist":""},{"date":"2026-04-16","time":"21h","price":"Gratuit","desc":"Quizz culture générale et after work","artist":"Quizz culture générale et after work"},{"date":"2026-04-17","time":"21h","price":"Gratuit","desc":"DJ set AUDREY LYS (disco)","artist":"DJ set AUDREY LYS"},{"date":"2026-04-18","time":"22h","price":"Gratuit","desc":"Dj set JUMIEN JUMINI (electro club)","artist":"Dj set JUMIEN JUMINI"},{"date":"2026-04-19","time":"16h30","price":"Gratuit","desc":"Jam irlandaise","artist":"Jam irlandaise"},{"date":"2026-04-24","time":"21h","price":"Gratuit","desc":"Dj set CAT'ART (funk house electro)","artist":"Dj set CAT'ART"},{"date":"2026-04-25","time":"22h","price":"Gratuit","desc":"Blindtest et bootyshake","artist":"Blindtest et bootyshake"},{"date":"2026-04-26","time":"18h","price":"Gratuit","desc":"Concert MR TRISTAN (chansons/humour)","artist":""},{"date":"2026-04-30","time":"21h","price":"Gratuit","desc":"Dj set ELDELSTEIN","artist":"Dj set ELDELSTEIN"}]}},{"type":"Feature","id":"toulouse-distorama-thirsty-monk","geometry":{"type":"Point","coordinates":[1.4538991,43.6090951]},"properties":{"name":"The Thirsty Monk","category":"Concert Bar","icon":"🎵","address":"Allées Jean Jaurès 31000 Toulouse","logo":"","events":[{"date":"2026-04-03","time":"22h","price":"Gratuit","desc":"LAST NITE (indie rk cover band)","artist":"LAST NITE"},{"date":"2026-04-17","time":"19h30","price":"Prix Libre","desc":"AUSTER (acid pk) + BUUUG (post-rk/noise)","artist":"AUSTER (acid pk) + BUUUG"}]}},{"type":"Feature","id":"toulouse-distorama-o-bohem","geometry":{"type":"Point","coordinates":[1.4450152,43.5912574]},"properties":{"name":"Bar Ôbohem","category":"Concert Bar","icon":"🎵","address":"Grande Rue Saint-Michel 31000 Toulouse","logo":"","events":[{"date":"2026-04-04","time":"21h47","price":"Prix Libre","desc":"Soirée « Puni d'Ordi » : IVAN TELEFUNKEN (avant garderie) + BARREZ VOUS (tek machin.e) + SBTP (dark tek) + SPATIOSSELET (trib/toy)","artist":""}]}},{"type":"Feature","id":"toulouse-distorama-le-cameleon","geometry":{"type":"Point","coordinates":[1.433005,43.599585]},"properties":{"name":"Le Caméléon","category":"Concert Bar","icon":"🎵","address":"19 rue Pont Saint Pierre 31300 Toulouse","logo":"","events":[{"date":"2026-04-04","time":"20h","price":"3/5/7€","desc":"DANI BARN (dreampop/folk/trip-hop) + POMMADE (electropop alt en FR) + MAXWELL FARRINGTON (pop crooner décalé)","artist":"DANI BARN (dreampop/folk/trip-hop) + POMMADE (electropop alt en FR) + MAXWELL FARRINGTON"}]}},{"type":"Feature","id":"toulouse-distorama-gloria","geometry":{"type":"Point","coordinates":[1.4439408,43.6014516]},"properties":{"name":"Gloria","category":"Concert Bar","icon":"🎵","address":"4 rue Peyras 31000 Toulouse","logo":"","events":[{"date":"2026-04-09","time":"21h","price":"Gratuit","desc":"« Island Orgy Fuck Party » : DJ set from boogaloo to synthwave","artist":"« Island Orgy Fuck Party » : DJ set from boogaloo to synthwave"},{"date":"2026-04-10","time":"20h30","price":"Prix Libre","desc":"DANIEL MARK WILLIAMS (folk de gouttières)","artist":"DANIEL MARK WILLIAMS"},{"date":"2026-04-24","time":"","price":"21H","desc":"Blind test organisé par Ju'","artist":"Blind test organisé par Ju'"}]}},{"type":"Feature","id":"toulouse-distorama-la-cinematheque","geometry":{"type":"Point","coordinates":[1.4414764,43.6068671]},"properties":{"name":"La Cinémathèque de Toulouse","category":"Cinema","icon":"🎬","address":"69 rue du Taur 31000 Toulouse","logo":"","events":[{"date":"2026-04-10","time":"18h","price":"Gratuit sur résa","desc":"Fête des retrouvailles + Vernissage de l’exposition « En toute transparence »","artist":""},{"date":"2026-04-11","time":"","price":"Jour et nuit","desc":"RÉOUVERTURE !! Projections non-stop + Visite des nouveaux espaces","artist":""},{"date":"2026-04-12","time":"","price":"Jour et nuit","desc":"RÉOUVERTURE !! Projections non-stop + Visite des nouveaux espaces","artist":""}]}},{"type":"Feature","id":"toulouse-distorama-axis-music","geometry":{"type":"Point","coordinates":[1.3974931,43.5472325]},"properties":{"name":"Axis Music","category":"Concert Bar","icon":"🎵","address":"7 impasse Boudeville 31100 Toulouse","logo":"","events":[{"date":"2026-04-10","time":"20h","price":"12€ (10€ en resa)","desc":"TULAVIOK (pk legend) + SILLY WALK (power pk) + TENIA CREW (pk rk)","artist":"TULAVIOK (pk legend) + SILLY WALK (power pk) + TENIA CREW"}]}},{"type":"Feature","id":"toulouse-distorama-bar-belfort","geometry":{"type":"Point","coordinates":[1.4527628,43.6057612]},"properties":{"name":"Bar Belfort","category":"Concert Bar","icon":"🎵","address":"9 place Belfort 31000 Toulouse","logo":"","events":[{"date":"2026-04-11","time":"","price":"2Oh30","desc":"THIAZ ITCH (wonderful weirdo solo)","artist":"THIAZ ITCH"}]}},{"type":"Feature","id":"toulouse-distorama-la-quadra-portet-sur-garonne","geometry":{"type":"Point","coordinates":[1.3927076,43.5380829]},"properties":{"name":"La Quadra","category":"Concert Bar","icon":"🎵","address":"2 bis chemin de Candie 31120 Portet-sur-Garonne","logo":"","events":[{"date":"2026-04-11","time":"","price":"22H/7H","desc":"1FAM (live mental) + SHADOW REMINGTON (mix acidcore) + KRAT-R (live tribe) + SAITTHAM (mix hardtek) + RYUK (mix vinyle acidcore) + LOUVA (live tribe mental) + ÏLA (mix mental acidcore) + VÄKKARM (live tribe) + JEAN CALE (mix vinyle tribe) ","artist":"1FAM (live mental) + SHADOW REMINGTON (mix acidcore) + KRAT-R (live tribe) + SAITTHAM (mix hardtek) + RYUK (mix vinyle acidcore) + LOUVA (live tribe mental) + ÏLA (mix mental acidcore) + VÄKKARM (live tribe) + JEAN CALE"}]}},{"type":"Feature","id":"toulouse-distorama-le-taquin","geometry":{"type":"Point","coordinates":[1.4278744,43.6059002]},"properties":{"name":"Le Taquin","category":"Concert Bar","icon":"🎵","address":"23 rue des Amidonniers 31300 Toulouse","logo":"","events":[{"date":"2026-04-14","time":"19h30","price":"10/12€","desc":"REAGGAE WORKERS OF THE WORLD (RWW) & THE BANDULUS (ska, soui, rockesteady)","artist":"REAGGAE WORKERS OF THE WORLD (RWW) & THE BANDULUS"}]}},{"type":"Feature","id":"toulouse-distorama-labo-des-arts","geometry":{"type":"Point","coordinates":[1.4652089,43.6055126]},"properties":{"name":"Labo Des Arts","category":"Concert Bar","icon":"🎵","address":"8 rue Clément 31500 Toulouse","logo":"","events":[{"date":"2026-04-16","time":"","price":"19H30","desc":"HOLLOW SHIP (Rock Psyché - Suède) + Guest","artist":"HOLLOW SHIP (Rock Psyché - Suède) + Guest"}]}},{"type":"Feature","id":"toulouse-distorama-jacobins","geometry":{"type":"Point","coordinates":[1.4404851,43.6034816]},"properties":{"name":"Jacobins","category":"Concert Bar","icon":"🎵","address":"Jacobins Toulouse","logo":"","events":[{"date":"2026-04-17","time":"","price":"21h30 à 7h","desc":"Les Siestes + ONDORPHINE","artist":"Les Siestes + ONDORPHINE"}]}},{"type":"Feature","id":"toulouse-distorama-l-engrenage-balma","geometry":{"type":"Point","coordinates":[1.4880684,43.6274411]},"properties":{"name":"L'Engrenage","category":"Concert Bar","icon":"🎵","address":"14 rue Louis Renault 31130 Balma","logo":"","events":[{"date":"2026-04-17","time":"19h","price":"8€","desc":"CERNIA (rk fusion) + ZING (pk) + NAKED NUDES (rk n' roll) + CHICANE'S (rk)","artist":"CERNIA (rk fusion) + ZING (pk) + NAKED NUDES (rk n' roll) + CHICANE'S"}]}},{"type":"Feature","id":"toulouse-distorama-the-petit-london","geometry":{"type":"Point","coordinates":[1.4538883,43.6008176]},"properties":{"name":"The Petit London","category":"Concert Bar","icon":"🎵","address":"7 rue Pierre-Paul Riquet 31000 Toulouse","logo":"","events":[{"date":"2026-04-17","time":"22h","price":"Gratuit","desc":"KONSTROY (post-punk/darkwave dj set)","artist":"KONSTROY"},{"date":"2026-04-25","time":"22h","price":"Gratuit","desc":"« HELLISHA SAUVAGE (DJ set dark disco to techno)","artist":"« HELLISHA SAUVAGE"}]}},{"type":"Feature","id":"toulouse-distorama-le-winger","geometry":{"type":"Point","coordinates":[1.4516526,43.6108151]},"properties":{"name":"Le Winger","category":"Concert Bar","icon":"🎵","address":"68 rue de Bayard 31000 Toulouse","logo":"","events":[{"date":"2026-04-21","time":"19h","price":"Prix Libre","desc":"ANNULE ? DEPLACE? -> CAGNARD (synth-oi) + NIGHTWATCHERS (pk)","artist":"ANNULE ? DEPLACE? -> CAGNARD (synth-oi) + NIGHTWATCHERS"},{"date":"2026-04-25","time":"20h","price":"5/7€","desc":" ANNULE -> CORRUPTION PACT (death metal/hxc) + SOUL HATER (death metal)","artist":"ANNULE -> CORRUPTION PACT (death metal/hxc) + SOUL HATER"}]}},{"type":"Feature","id":"toulouse-distorama-l-autan","geometry":{"type":"Point","coordinates":[1.43883,43.6117922]},"properties":{"name":"L'Autan","category":"Concert Bar","icon":"🎵","address":"58 boulevard d'Arcole 31000 Toulouse","logo":"","events":[{"date":"2026-04-24","time":"19h","price":"Prix Libre (3/5€ suggerés)","desc":"RAINCHECK! (pk rk) + IGLOO BANANA (pop pk)","artist":"RAINCHECK! (pk rk) + IGLOO BANANA"}]}},{"type":"Feature","id":"toulouse-distorama-le-rex","geometry":{"type":"Point","coordinates":[1.438322,43.6119889]},"properties":{"name":"Le Rex","category":"Concert Bar","icon":"🎵","address":"Le Rex Toulouse","logo":"","events":[{"date":"2026-04-26","time":"19h30","price":"22€","desc":"CERNIA (rk fusion) - THE LAST INTERNATIONALE (US)","artist":"CERNIA (rk fusion) - THE LAST INTERNATIONALE"}]}}]}