{"type":"FeatureCollection","features":[{"type":"Feature","id":"toulouse-distorama-bistrot-ducoin","geometry":{"type":"Point","coordinates":[1.4559708,43.6090065]},"properties":{"name":"Bistrot Ducoin","category":"Concert Bar","icon":"🎵","address":"40 rue du Général Jean Compans 31500 Toulouse","logo":"bistrot_ducoin.jpg","events":[{"time":"21h","price":"Prix Libre","desc":"TINA + PEONY POX (rk alt)","artist":"TINA + PEONY POX"}]}},{"type":"Feature","id":"toulouse-distorama-le-ravelin","geometry":{"type":"Point","coordinates":[1.4282089,43.599082]},"properties":{"name":"Le Ravelin","category":"Concert Bar","icon":"🎵","address":"6 place du Ravelin 31300 Toulouse","logo":"le_ravelin.png","events":[{"time":"20h","price":"5/6/8 €","desc":"SECOND MAJOR (post pk) + FRANTIC FORMS (grunge pk)","artist":"SECOND MAJOR (post pk) + FRANTIC FORMS"}]}},{"type":"Feature","id":"toulouse-distorama-la-mecanique-des-fluides","geometry":{"type":"Point","coordinates":[1.4537749,43.6002765]},"properties":{"name":"La Mécanique des Fluides","category":"Concert Bar","icon":"🎵","address":"1 rue Riquet 31000 Toulouse","logo":"mecanique_des_fluides.png","events":[{"time":"20h","price":"3/5€","desc":"CHUTE LIBRE (pk hxc/Nantes) + LAME (black death hxc)","artist":"CHUTE LIBRE (pk hxc/Nantes) + LAME"}]}},{"type":"Feature","id":"toulouse-distorama-l-engrenage","geometry":{"type":"Point","coordinates":[1.4880684,43.6274411]},"properties":{"name":"L'Engrenage","category":"Concert Bar","icon":"🎵","address":"14 rue Louis Renault 31130 Balma","logo":"","events":[{"time":"20h","price":"Prix Libre","desc":"ROBERT OPENIGHTMARE (heavy drünk rk) + IRON LUNGS (stoner pk) + PRESIDENT BUTCHER (pk'n'roll)","artist":"ROBERT OPENIGHTMARE (heavy drünk rk) + IRON LUNGS (stoner pk) + PRESIDENT BUTCHER"}]}}]}