{"type":"FeatureCollection","features":[{"type":"Feature","id":"toulouse-distorama-le-ravelin","geometry":{"type":"Point","coordinates":[1.4282089,43.599082]},"properties":{"name":"Le Ravelin","category":"Concert Bar","icon":"🎵","address":"6 place du Ravelin 31300 Toulouse","logo":"le_ravelin.png","events":[{"date":"2026-02-22","time":"12h","price":"Gratuit","desc":"Week-end d’inauguration → Vermut Musical (apéro catalan et tapas + DJ set [JORDI from Spanish Harlems w/ DUKE OF EARLY])","artist":""}]}}]}