{"type":"FeatureCollection","features":[{"type":"Feature","id":"toulouse-distorama-le-winger","geometry":{"type":"Point","coordinates":[1.4516526,43.6108151]},"properties":{"name":"Le Winger","category":"Concert Bar","icon":"fa-music","address":"68 rue de Bayard 31000 Toulouse","logo":"","events":[{"date":"2026-02-01","time":"16h","price":"5€","desc":"ENTRY (USA) + VINDICTE + BLACK DROSERA (hxc/pk)","artist":"ENTRY (USA) + VINDICTE + BLACK DROSERA","youtube_video_id":"","bandcamp_url":"","bandcamp_embed_url":""}]}}]}