{"type":"FeatureCollection","features":[{"type":"Feature","id":"toulouse-distorama-la-mecanique-des-fluides","geometry":{"type":"Point","coordinates":[1.4537749,43.6002765]},"properties":{"name":"La Mécanique des Fluides","category":"Concert Bar","icon":"fa-music","address":"1 rue Riquet 31000 Toulouse","logo":"","events":[{"date":"2026-03-28","time":"20h","price":"3/5€ sugg","desc":"KILL KILL DIANA (turbo post hxc, Bayonne) + Guest","artist":"KILL KILL DIANA (turbo post hxc, Bayonne) + Guest"}]}},{"type":"Feature","id":"toulouse-distorama-le-ravelin","geometry":{"type":"Point","coordinates":[1.4282089,43.599082]},"properties":{"name":"Le Ravelin","category":"Concert Bar","icon":"fa-music","address":"6 place du Ravelin 31300 Toulouse","logo":"le_ravelin.png","events":[{"date":"2026-03-28","time":"20h","price":"10€","desc":"ESCAPE-ISM (pop/crime-rk) + ANGRY DEAD PIRATES (grg pk/psyché)","artist":"ESCAPE-ISM (pop/crime-rk) + ANGRY DEAD PIRATES"}]}},{"type":"Feature","id":"toulouse-distorama-boudu-pont","geometry":{"type":"Point","coordinates":[1.4363272,43.5988936]},"properties":{"name":"Boudu pont","category":"Concert Bar","icon":"fa-music","address":"1 rue de la République 31300 Toulouse","logo":"","events":[{"date":"2026-03-28","time":"22h","price":"Gratuit","desc":"Dj set JUMIEN JUMINI (french touch/tech house)","artist":"Dj set JUMIEN JUMINI"}]}},{"type":"Feature","id":"toulouse-distorama-l-engrenage","geometry":{"type":"Point","coordinates":[1.4880684,43.6274411]},"properties":{"name":"L'Engrenage","category":"Concert Bar","icon":"fa-music","address":"14 rue Louis Renault 31130 Balma","logo":"","events":[{"date":"2026-03-28","time":"19h30","price":"10€","desc":"Soirée « COURT-CIRCUIT » : AUSTER (alt pk) + BUUUG (noise) + FRANTIC FORMS (grg)","artist":""}]}},{"type":"Feature","id":"toulouse-distorama-labo-des-arts","geometry":{"type":"Point","coordinates":[1.4652089,43.6055126]},"properties":{"name":"Labo Des Arts","category":"Concert Bar","icon":"fa-music","address":"8 rue Clément 31500 Toulouse","logo":"","events":[{"date":"2026-03-28","time":"","price":"19H30","desc":"THE CLAUSE (rk indé UK) + LIEP (rk indé)","artist":"THE CLAUSE (rk indé UK) + LIEP"}]}},{"type":"Feature","id":"toulouse-distorama-the-petit-london","geometry":{"type":"Point","coordinates":[1.4538883,43.6008176]},"properties":{"name":"The Petit London","category":"Concert Bar","icon":"fa-music","address":"7 rue Pierre-Paul Riquet 31000 Toulouse","logo":"","events":[{"date":"2026-03-28","time":"22h","price":"Gratuit","desc":"SUZ (jungle to DnB)","artist":"SUZ"}]}}]}