{"type":"FeatureCollection","features":[{"type":"Feature","id":"toulouse-distorama-boudu-pont","geometry":{"type":"Point","coordinates":[1.4363272,43.5988936]},"properties":{"name":"Boudu pont","category":"Concert Bar","icon":"fa-music","address":"1 rue de la République 31300 Toulouse","logo":"","events":[{"date":"2026-04-16","time":"21h","price":"Gratuit","desc":"Quizz culture générale et after work","artist":"Quizz culture générale et after work"}]}},{"type":"Feature","id":"toulouse-distorama-labo-des-arts","geometry":{"type":"Point","coordinates":[1.4652089,43.6055126]},"properties":{"name":"Labo Des Arts","category":"Concert Bar","icon":"fa-music","address":"8 rue Clément 31500 Toulouse","logo":"","events":[{"date":"2026-04-16","time":"","price":"19H30","desc":"HOLLOW SHIP (Rock Psyché - Suède) + Guest","artist":"HOLLOW SHIP (Rock Psyché - Suède) + Guest"}]}}]}