{"type":"FeatureCollection","features":[{"type":"Feature","id":"toulouse-distorama-boudu-pont","geometry":{"type":"Point","coordinates":[1.4363272,43.5988936]},"properties":{"name":"Boudu pont","category":"Concert Bar","icon":"fa-music","address":"1 rue de la République 31300 Toulouse","logo":"","events":[{"date":"2026-02-12","time":"","price":"17h à 23h","desc":"Blind test et karaoké, anniversaire LA CLOCHE","artist":"","youtube_video_id":"","bandcamp_url":"","bandcamp_embed_url":""}]}},{"type":"Feature","id":"toulouse-distorama-la-mecanique-des-fluides","geometry":{"type":"Point","coordinates":[1.4537647,43.6072494]},"properties":{"name":"La Mécanique des Fluides","category":"Concert Bar","icon":"fa-music","address":"1 rue Riquet 31000 Toulouse","logo":"","events":[{"date":"2026-02-12","time":"20h","price":"5/7€","desc":"SACROSANTA DECADENCIA OCCIDENTAL (crust metallique/ Esp) + UP RIGHTS (oldschool hxc pk/ Tls)","artist":"SACROSANTA DECADENCIA OCCIDENTAL (crust metallique/ Esp) + UP RIGHTS","youtube_video_id":"2OHtoFEtRWs","bandcamp_url":"","bandcamp_embed_url":""}]}},{"type":"Feature","id":"toulouse-distorama-bistrot-ducoin","geometry":{"type":"Point","coordinates":[1.4559708,43.6090065]},"properties":{"name":"Bistrot Ducoin","category":"Concert Bar","icon":"fa-music","address":"40 rue du Général Jean Compans 31500 Toulouse","logo":"bistrot_ducoin.jpg","events":[{"date":"2026-02-12","time":"19h30","price":"Prix Libre","desc":"Tribute (solo) to BOB DYLAN","artist":"Tribute (solo) to BOB DYLAN","youtube_video_id":"","bandcamp_url":"","bandcamp_embed_url":""}]}},{"type":"Feature","id":"toulouse-distorama-ipn","geometry":{"type":"Point","coordinates":[1.4495423,43.6159627]},"properties":{"name":"IPN","category":"Concert Bar","icon":"fa-music","address":"30 rue des Jumeaux 31000 Toulouse","logo":"","events":[{"date":"2026-02-12","time":"19h","price":"7€ prévente / 10€ sur place (+ 1€ adhésion)","desc":"THE SERFS (synthpk indus) + BODY MAINTENANCE (postpk goth) + LAURA BOLT (synthpop éthérée) + friperie Hyperpop","artist":"THE SERFS (synthpk indus) + BODY MAINTENANCE (postpk goth) + LAURA BOLT (synthpop éthérée) + friperie Hyperpop","youtube_video_id":"TdB3K0mQKs4","bandcamp_url":"","bandcamp_embed_url":""}]}}]}