{"type":"FeatureCollection","features":[{"type":"Feature","id":"toulouse-distorama-boudu-pont","geometry":{"type":"Point","coordinates":[1.4363272,43.5988936]},"properties":{"name":"Boudu pont","category":"Concert Bar","icon":"🎵","address":"1 rue de la République 31300 Toulouse","logo":"","events":[{"date":"2026-01-23","time":"21h","price":"Gratuit","desc":"COLLECTIF LE NOÏO : ODY b2b CARRAD + WALLACE b2b GROMIX (dj set new wave/ electronica bass/ break/ techno/ fiesta)","artist":"COLLECTIF LE NOÏO : ODY b2b CARRAD + WALLACE b2b GROMIX"}]}},{"type":"Feature","id":"toulouse-distorama-gloria","geometry":{"type":"Point","coordinates":[1.4439408,43.6014516]},"properties":{"name":"Gloria","category":"Concert Bar","icon":"🎵","address":"4 rue Peyras 31000 Toulouse","logo":"","events":[{"date":"2026-01-23","time":"21h","price":"Gratuit","desc":"Blind test","artist":"Blind test"}]}},{"type":"Feature","id":"toulouse-distorama-bistrot-ducoin","geometry":{"type":"Point","coordinates":[1.4559708,43.6090065]},"properties":{"name":"Bistrot Ducoin","category":"Concert Bar","icon":"🎵","address":"40 rue du Général Jean Compans 31500 Toulouse","logo":"bistrot_ducoin.jpg","events":[{"date":"2026-01-23","time":"21h","price":"Prix Libre","desc":"BLACK MEADOWS + guest","artist":"BLACK MEADOWS + guest"}]}},{"type":"Feature","id":"toulouse-distorama-l-engrenage","geometry":{"type":"Point","coordinates":[1.4880684,43.6274411]},"properties":{"name":"L'Engrenage","category":"Concert Bar","icon":"🎵","address":"14 rue Louis Renault 31130 Balma","logo":"","events":[{"date":"2026-01-23","time":"21h","price":"Prix Libre","desc":"SOULSPLITTER (metalcore) + SRAIL (mathcore)","artist":"SOULSPLITTER (metalcore) + SRAIL"}]}},{"type":"Feature","id":"toulouse-distorama-le-dada","geometry":{"type":"Point","coordinates":[1.4383337,43.6123398]},"properties":{"name":"Le Dada","category":"Concert Bar","icon":"🎵","address":"27 avenue Honoré Serres 31000 Toulouse","logo":"","events":[{"date":"2026-01-23","time":"20h","price":"7/10€","desc":"RUHR (synth pkwave/Berlin) + Djs PAULINA PANIK + KONSTROY","artist":"RUHR (synth pkwave/Berlin) + Djs PAULINA PANIK + KONSTROY"}]}}]}