{"type":"FeatureCollection","features":[{"type":"Feature","id":"toulouse-distorama-la-mecanique-des-fluides","geometry":{"type":"Point","coordinates":[1.4537749,43.6002765]},"properties":{"name":"La Mécanique des Fluides","category":"Concert Bar","icon":"fa-music","address":"1 rue Riquet 31000 Toulouse","logo":"","events":[{"date":"2026-01-17","time":"20h","price":"Prix Libre","desc":"ENFANTS DES ETOILES (rituel/indus hxc) + ORGANES EN SOLDES (hard noise/électronique)","artist":"ENFANTS DES ETOILES (rituel/indus hxc) + ORGANES EN SOLDES","youtube_video_id":"","bandcamp_url":"","bandcamp_embed_url":""}]}},{"type":"Feature","id":"toulouse-distorama-local-piquemil","geometry":{"type":"Point","coordinates":[1.4324351,43.5992796]},"properties":{"name":"Local Piquemil","category":"Concert Bar","icon":"fa-music","address":"6 rue Piquemil 31300 Toulouse","logo":"","events":[{"date":"2026-01-17","time":"20h","price":"Prix Libre","desc":"« Rêves ravagés » → HAXARKHANE (ambient noise) + MINITELLE XEROXE (trip wave post-dub) + MUSÉE DE LA MATIÈRE NOIRE (noise) + LA GATOUN & LES ENFANTS MAUDITS (hoop dance) + expos","artist":"","youtube_video_id":"","bandcamp_url":"","bandcamp_embed_url":""}]}},{"type":"Feature","id":"toulouse-distorama-boudu-pont","geometry":{"type":"Point","coordinates":[1.4363272,43.5988936]},"properties":{"name":"Boudu pont","category":"Concert Bar","icon":"fa-music","address":"1 rue de la République 31300 Toulouse","logo":"","events":[{"date":"2026-01-17","time":"22h","price":"Gratuit","desc":"Blind Test + Bootyshake","artist":"Blind Test + Bootyshake","youtube_video_id":"","bandcamp_url":"","bandcamp_embed_url":""}]}},{"type":"Feature","id":"toulouse-distorama-le-dada","geometry":{"type":"Point","coordinates":[1.4383337,43.6123398]},"properties":{"name":"Le Dada","category":"Concert Bar","icon":"fa-music","address":"27 avenue Honoré Serres 31000 Toulouse","logo":"","events":[{"date":"2026-01-17","time":"20h","price":"7/9€","desc":"MUMUSE (electro cold speed) + BUZZKILL (post pk / dark wave) + FRANCKY LANIGHT DJ set","artist":"MUMUSE (electro cold speed) + BUZZKILL (post pk / dark wave) + FRANCKY LANIGHT DJ set","youtube_video_id":"","bandcamp_url":"","bandcamp_embed_url":""}]}}]}