{"type":"FeatureCollection","features":[{"type":"Feature","id":"toulouse-distorama-boudu-pont","geometry":{"type":"Point","coordinates":[1.4363272,43.5988936]},"properties":{"name":"Boudu pont","category":"Concert Bar","icon":"fa-music","address":"1 rue de la République 31300 Toulouse","logo":"","events":[{"date":"2026-05-15","time":"20h","price":"Gratuit","desc":"CASCADES (electro rk prog)","artist":"CASCADES"}]}},{"type":"Feature","id":"toulouse-distorama-bistrot-ducoin","geometry":{"type":"Point","coordinates":[1.4559708,43.6090065]},"properties":{"name":"Bistrot Ducoin","category":"Concert Bar","icon":"fa-music","address":"40 rue du Général Jean Compans 31500 Toulouse","logo":"bistrot_ducoin.jpg","events":[{"date":"2026-05-15","time":"21h","price":"Prix Libre","desc":"PROJET SERPICO (rk)","artist":"PROJET SERPICO"}]}},{"type":"Feature","id":"toulouse-distorama-gloria","geometry":{"type":"Point","coordinates":[1.4439408,43.6014516]},"properties":{"name":"Gloria","category":"Concert Bar","icon":"fa-music","address":"4 rue Peyras 31000 Toulouse","logo":"","events":[{"date":"2026-05-15","time":"21h","price":"Gratuit","desc":"Blind test par Ju’","artist":"Blind test par Ju’"}]}},{"type":"Feature","id":"toulouse-distorama-le-dada","geometry":{"type":"Point","coordinates":[1.4383337,43.6123398]},"properties":{"name":"Le Dada","category":"Concert Bar","icon":"fa-music","address":"27 avenue Honoré Serres 31000 Toulouse","logo":"","events":[{"date":"2026-05-15","time":"20h","price":"6/8/10€","desc":"EDGES (post-pk / esp) + NEWBORN GHOST (darkwave / esp)","artist":"EDGES (post-pk / esp) + NEWBORN GHOST"}]}},{"type":"Feature","id":"toulouse-distorama-little-o-clock","geometry":{"type":"Point","coordinates":[1.5208073,43.6444525]},"properties":{"name":"Little O'Clock","category":"Concert Bar","icon":"fa-music","address":"75 allée Jean Jaurès 31000 Toulouse","logo":"","events":[{"date":"2026-05-15","time":"20h","price":"Prix Libre","desc":"LIOTTA SEOUL (grunge / pop pk) + AUSTER (psych pk) + HOMEGROUND (pk rk)","artist":"LIOTTA SEOUL (grunge / pop pk) + AUSTER (psych pk) + HOMEGROUND"}]}},{"type":"Feature","id":"toulouse-distorama-le-declic","geometry":{"type":"Point","coordinates":[1.4543659,43.6041704]},"properties":{"name":"Le Déclic","category":"Concert Bar","icon":"fa-music","address":"Le Déclic Toulouse","logo":"","events":[{"date":"2026-05-15","time":"","price":"19h30 à 23h – Gratuit","desc":"Jam session","artist":"Jam session"}]}},{"type":"Feature","id":"toulouse-distorama-face-b-friperie","geometry":{"type":"Point","coordinates":[1.4528685,43.60564]},"properties":{"name":"Face B Friperie","category":"Boutique","icon":"fa-store","address":"7 place Damloup 31000 Toulouse","logo":"face_b.jpg","events":[{"date":"2026-05-15","time":"","price":"12h-19h","desc":"Exposition des couvertures de mai du Distorama, de 2016 à 2026","artist":""}]}},{"type":"Feature","id":"toulouse-distorama-the-petit-london","geometry":{"type":"Point","coordinates":[1.4538883,43.6008176]},"properties":{"name":"The Petit London","category":"Concert Bar","icon":"fa-music","address":"7 rue Pierre-Paul Riquet 31000 Toulouse","logo":"","events":[{"date":"2026-05-15","time":"22h","price":"Gratuit","desc":"PYROLIZ (groove, groove tech)","artist":"PYROLIZ"}]}}]}