{"type":"FeatureCollection","features":[{"type":"Feature","id":"toulouse-distorama-le-ravelin","geometry":{"type":"Point","coordinates":[1.4282089,43.599082]},"properties":{"name":"Le Ravelin","category":"Concert Bar","icon":"🎵","address":"6 place du Ravelin 31300 Toulouse","logo":"le_ravelin.png","events":[{"date":"2026-03-14","time":"19h","price":"5/8/10€","desc":"ENLÒC + LUNDI BRÛLE + LOGGERHEADS (pk rk)","artist":"ENLÒC + LUNDI BRÛLE + LOGGERHEADS"}]}},{"type":"Feature","id":"toulouse-distorama-boudu-pont","geometry":{"type":"Point","coordinates":[1.4363272,43.5988936]},"properties":{"name":"Boudu pont","category":"Concert Bar","icon":"🎵","address":"1 rue de la République 31300 Toulouse","logo":"","events":[{"date":"2026-03-14","time":"22h","price":"Gratuit","desc":"Dj set MAMELLE BENT (hip hop, rnb)","artist":"Dj set MAMELLE BENT"}]}},{"type":"Feature","id":"toulouse-distorama-gloria","geometry":{"type":"Point","coordinates":[1.4439408,43.6014516]},"properties":{"name":"Gloria","category":"Concert Bar","icon":"🎵","address":"4 rue Peyras 31000 Toulouse","logo":"","events":[{"date":"2026-03-14","time":"19h30","price":"5€+","desc":"LE RENARD (comedy gris noir) + CITY DRAGON (solo voix saxe jouets) + BUENO WHITE (basses fidélités)","artist":"LE RENARD (comedy gris noir) + CITY DRAGON (solo voix saxe jouets) + BUENO WHITE"}]}},{"type":"Feature","id":"toulouse-distorama-la-mecanique-des-fluides","geometry":{"type":"Point","coordinates":[1.4537749,43.6002765]},"properties":{"name":"La Mécanique des Fluides","category":"Concert Bar","icon":"🎵","address":"1 rue Riquet 31000 Toulouse","logo":"","events":[{"date":"2026-03-14","time":"22h","price":"Gratuit","desc":"DJ set R.2614 (techno/EBM/dark) + Guest","artist":"DJ set R.2614 (techno/EBM/dark) + Guest"}]}},{"type":"Feature","id":"toulouse-distorama-face-b-friperie","geometry":{"type":"Point","coordinates":[1.4528685,43.60564]},"properties":{"name":"Face B Friperie","category":"Boutique","icon":"🛍️","address":"7 place Damloup 31000 Toulouse","logo":"face_b.jpg","events":[{"date":"2026-03-14","time":"","price":"11h à 19h","desc":"Méga Braderie Face B Friperie","artist":"Méga Braderie Face B Friperie"}]}},{"type":"Feature","id":"toulouse-distorama-hangar-de-la-cepiere-19h-23h-10","geometry":{"type":"Point","coordinates":[1.411634,43.589859]},"properties":{"name":"Hangar de la Cépière","category":"Concert Bar","icon":"🎵","address":"8 impasse de Bagnolet 31300 Toulouse","logo":"","events":[{"date":"2026-03-14","time":"","price":"","desc":"ACTION CLUB (trap alternative) + ATTENTION L'ORAGE (électro-rock) + GLITSH (rap hybride) + KONTROLL TEK (tekno punk rap) ","artist":"ACTION CLUB (trap alternative) + ATTENTION L'ORAGE (électro-rock) + GLITSH (rap hybride) + KONTROLL TEK"}]}}]}