{"type":"FeatureCollection","features":[{"type":"Feature","id":"toulouse-distorama-dagobar","geometry":{"type":"Point","coordinates":[1.4437868,43.5983682]},"properties":{"name":"Dagobar","category":"Concert Bar","icon":"fa-music","address":"Dagobar Toulouse","logo":"","events":[{"date":"2026-01-09","time":"21h","price":"Gratuit","desc":"LAPLAGE + SEAGULL + HELLISHA SAUVAGE (DJ sets house, indie dance, psytech)","artist":"LAPLAGE + SEAGULL + HELLISHA SAUVAGE"}]}},{"type":"Feature","id":"toulouse-distorama-boudu-pont","geometry":{"type":"Point","coordinates":[1.4363272,43.5988936]},"properties":{"name":"Boudu pont","category":"Concert Bar","icon":"fa-music","address":"1 rue de la République 31300 Toulouse","logo":"","events":[{"date":"2026-01-09","time":"21h","price":"Gratuit","desc":"DJ set, EKYOZ (tropical bass, bass music et drum&bass)","artist":"DJ set, EKYOZ"}]}},{"type":"Feature","id":"toulouse-distorama-le-winger","geometry":{"type":"Point","coordinates":[1.4516526,43.6108151]},"properties":{"name":"Le Winger","category":"Concert Bar","icon":"fa-music","address":"68 rue de Bayard 31000 Toulouse","logo":"","events":[{"date":"2026-01-09","time":"19h","price":"Prix Libre","desc":"Expo photo BÉBERT RATURE + STRIE (perf.audio.visu) + LARME INCENDIE (VJing & DJ) + Guests (guitare-chanson)","artist":""}]}},{"type":"Feature","id":"toulouse-distorama-bistrot-ducoin","geometry":{"type":"Point","coordinates":[1.4559708,43.6090065]},"properties":{"name":"Bistrot Ducoin","category":"Concert Bar","icon":"fa-music","address":"40 rue du Général Jean Compans 31500 Toulouse","logo":"bistrot_ducoin.jpg","events":[{"date":"2026-01-09","time":"21h","price":"Prix Libre","desc":"Soirée « QUEER & SALES CONNES » avec AKALY & SPINI + DJ PATO (pk/hiphop/hxc/post pk)","artist":""}]}}]}