{"type":"FeatureCollection","features":[{"type":"Feature","id":"toulouse-distorama-le-ravelin","geometry":{"type":"Point","coordinates":[1.4282089,43.599082]},"properties":{"name":"Le Ravelin","category":"Concert Bar","icon":"🎵","address":"6 place du Ravelin 31300 Toulouse","logo":"le_ravelin.png","events":[{"time":"20h","price":"Prix Libre","desc":"MISTY WHITE AND THE COUNTRY BRAVIDOS (indie pop) + JÉRÔME SAGE (chansons françaises en vrille)","artist":"MISTY WHITE AND THE COUNTRY BRAVIDOS (indie pop) + JÉRÔME SAGE"}]}},{"type":"Feature","id":"toulouse-distorama-boudu-pont","geometry":{"type":"Point","coordinates":[1.4363272,43.5988936]},"properties":{"name":"Boudu pont","category":"Concert Bar","icon":"🎵","address":"1 rue de la République 31300 Toulouse","logo":"","events":[{"time":"21h","price":"Gratuit","desc":"Dj set CHEMICAL DISTRICT (funky hip-hop/UK grg/drum'n'bass)","artist":"Dj set CHEMICAL DISTRICT"}]}},{"type":"Feature","id":"toulouse-distorama-gloria","geometry":{"type":"Point","coordinates":[1.4439408,43.6014516]},"properties":{"name":"Gloria","category":"Concert Bar","icon":"🎵","address":"4 rue Peyras 31000 Toulouse","logo":"","events":[{"time":"","price":"21H","desc":"Blind test par Ju'","artist":"Blind test par Ju'"}]}},{"type":"Feature","id":"toulouse-distorama-bistrot-ducoin","geometry":{"type":"Point","coordinates":[1.4559708,43.6090065]},"properties":{"name":"Bistrot Ducoin","category":"Concert Bar","icon":"🎵","address":"40 rue du Général Jean Compans 31500 Toulouse","logo":"bistrot_ducoin.jpg","events":[{"time":"21h","price":"Prix Libre","desc":"AIL & HIGH 3 (reggae dub)","artist":"AIL & HIGH 3"}]}},{"type":"Feature","id":"toulouse-distorama-le-winger","geometry":{"type":"Point","coordinates":[1.4516526,43.6108151]},"properties":{"name":"Le Winger","category":"Concert Bar","icon":"🎵","address":"68 rue de Bayard 31000 Toulouse","logo":"","events":[{"time":"19h","price":"Prix Libre","desc":"JAZZ PRANK (mathrock) +ZAPOÏ (stoner/garage)","artist":"JAZZ PRANK (mathrock) +ZAPOÏ"}]}}]}