{"type":"FeatureCollection","features":[{"type":"Feature","id":"toulouse-distorama-labo-des-arts","geometry":{"type":"Point","coordinates":[1.4652089,43.6055126]},"properties":{"name":"Labo Des Arts","category":"Concert Bar","icon":"fa-music","address":"8 rue Clément 31500 Toulouse","logo":"","events":[{"date":"2026-03-22","time":"","price":"19H","desc":"BLACK VIIOLET (neo soul/US) + MISTY WHITE (country blues)","artist":"BLACK VIIOLET (neo soul/US) + MISTY WHITE","youtube_video_id":"cZaRU5vwIgY","bandcamp_url":"","bandcamp_embed_url":""}]}},{"type":"Feature","id":"toulouse-distorama-boudu-pont","geometry":{"type":"Point","coordinates":[1.4363272,43.5988936]},"properties":{"name":"Boudu pont","category":"Concert Bar","icon":"fa-music","address":"1 rue de la République 31300 Toulouse","logo":"","events":[{"date":"2026-03-22","time":"18h","price":"Gratuit","desc":"ZEPHY, ZSOFI (folk) + DJ set THE ROOMMATES","artist":"ZEPHY, ZSOFI (folk) + DJ set THE ROOMMATES","youtube_video_id":"X5xhUED9thA","bandcamp_url":"","bandcamp_embed_url":""}]}}]}