{"type":"FeatureCollection","features":[{"type":"Feature","id":"toulouse-distorama-la-mecanique-des-fluides","geometry":{"type":"Point","coordinates":[1.4537749,43.6002765]},"properties":{"name":"La Mécanique des Fluides","category":"Concert Bar","icon":"fa-music","address":"1 rue Riquet 31000 Toulouse","logo":"","events":[{"date":"2026-06-06","time":"19h","price":"Prix Libre","desc":"Soirée Drag 'n' Roll → AKA (riot rap queer) + drag shows + DJ set LOU STRUMMER","artist":"","youtube_video_id":"","bandcamp_url":"","bandcamp_embed_url":""}]}},{"type":"Feature","id":"toulouse-distorama-bistrot-ducoin","geometry":{"type":"Point","coordinates":[1.4559708,43.6090065]},"properties":{"name":"Bistrot Ducoin","category":"Concert Bar","icon":"fa-music","address":"40 rue du Général Jean Compans 31500 Toulouse","logo":"bistrot_ducoin.jpg","events":[{"date":"2026-06-06","time":"21h","price":"Prix Libre","desc":"EVENS & THE SOULJACKERS (pure soul Daptone style)","artist":"EVENS & THE SOULJACKERS","youtube_video_id":"NywYUFy65Cw","bandcamp_url":"","bandcamp_embed_url":""}]}},{"type":"Feature","id":"toulouse-distorama-le-ravelin","geometry":{"type":"Point","coordinates":[1.4282089,43.599082]},"properties":{"name":"Le Ravelin","category":"Concert Bar","icon":"fa-music","address":"6 place du Ravelin 31300 Toulouse","logo":"le_ravelin.png","events":[{"date":"2026-06-06","time":"20h","price":"Prix Libre","desc":"THE WYLDE TRYFLES (garage fuzz) + DJ sets (garage pk/sixties/northern soul)","artist":"THE WYLDE TRYFLES (garage fuzz) + DJ sets","youtube_video_id":"txPFBrDgOh4","bandcamp_url":"","bandcamp_embed_url":""}]}},{"type":"Feature","id":"toulouse-distorama-le-dada","geometry":{"type":"Point","coordinates":[1.4383337,43.6123398]},"properties":{"name":"Le Dada","category":"Concert Bar","icon":"fa-music","address":"27 avenue Honoré Serres 31000 Toulouse","logo":"","events":[{"date":"2026-06-06","time":"20h","price":"10 €","desc":"PINK STILETTO (synthwave) + GLORIA BEFANA (synth post-pk) + GOLIATH (perf drag queer) + DJ set","artist":"PINK STILETTO (synthwave) + GLORIA BEFANA (synth post-pk) + GOLIATH (perf drag queer) + DJ set","youtube_video_id":"ZxIymA1ep8Y","bandcamp_url":"","bandcamp_embed_url":""}]}},{"type":"Feature","id":"toulouse-distorama-le-declic","geometry":{"type":"Point","coordinates":[1.4543659,43.6041704]},"properties":{"name":"Le Déclic","category":"Concert Bar","icon":"fa-music","address":"Le Déclic Toulouse","logo":"","events":[{"date":"2026-06-06","time":"","price":"19h30 à 23h – Gratuit","desc":"Jam Session","artist":"Jam Session","youtube_video_id":"J5udg-imtjo","bandcamp_url":"https://bandcamp.com/discover/jam-session","bandcamp_embed_url":""}]}},{"type":"Feature","id":"toulouse-distorama-the-petit-london","geometry":{"type":"Point","coordinates":[1.4538883,43.6008176]},"properties":{"name":"The Petit London","category":"Concert Bar","icon":"fa-music","address":"7 rue Pierre-Paul Riquet 31000 Toulouse","logo":"","events":[{"date":"2026-06-06","time":"22h","price":"Gratuit","desc":"KONSTROY (dark wave, ebm, goth)","artist":"KONSTROY","youtube_video_id":"tHuEt9cxqy0","bandcamp_url":"","bandcamp_embed_url":""}]}}]}