{"type":"FeatureCollection","features":[{"type":"Feature","id":"toulouse-distorama-le-ravelin","geometry":{"type":"Point","coordinates":[1.4282089,43.599082]},"properties":{"name":"Le Ravelin","category":"Concert Bar","icon":"fa-music","address":"6 place du Ravelin 31300 Toulouse","logo":"le_ravelin.png","events":[{"date":"2026-09-30","time":"20h","price":"5/7€","desc":"LEROY SE MEURT (electronic duo) + TBD","artist":"LEROY SE MEURT (electronic duo) + TBD","youtube_video_id":"_ZmFfyBzbnY","bandcamp_url":"","bandcamp_embed_url":""}]}}]}