{"type":"FeatureCollection","features":[{"type":"Feature","id":"toulouse-distorama-le-ravelin","geometry":{"type":"Point","coordinates":[1.4282089,43.599082]},"properties":{"name":"Le Ravelin","category":"Concert Bar","icon":"🎵","address":"6 place du Ravelin 31300 Toulouse","logo":"le_ravelin.png","events":[{"date":"2026-01-30","time":"19h30","price":"5€","desc":"JOE BOYLE (solo folk) + NOVO SKELTER (post pk) + PRETTY INSIDE (indie rk noisy pop)","artist":"JOE BOYLE (solo folk) + NOVO SKELTER (post pk) + PRETTY INSIDE"}]}},{"type":"Feature","id":"toulouse-distorama-boudu-pont","geometry":{"type":"Point","coordinates":[1.4363272,43.5988936]},"properties":{"name":"Boudu pont","category":"Concert Bar","icon":"🎵","address":"1 rue de la République 31300 Toulouse","logo":"","events":[{"date":"2026-01-30","time":"21h","price":"Gratuit","desc":"COLLECTIF THE ROOM MATES : IRIS (c'est le miel) + DASHL + BRAISE + DJ WALKIN (DJset rap/hiphop/funk)","artist":"COLLECTIF THE ROOM MATES : IRIS (c'est le miel) + DASHL + BRAISE + DJ WALKIN"}]}},{"type":"Feature","id":"toulouse-distorama-bistrot-ducoin","geometry":{"type":"Point","coordinates":[1.4559708,43.6090065]},"properties":{"name":"Bistrot Ducoin","category":"Concert Bar","icon":"🎵","address":"40 rue du Général Jean Compans 31500 Toulouse","logo":"bistrot_ducoin.jpg","events":[{"date":"2026-01-30","time":"21h","price":"Prix Libre","desc":"TOURISTE (trio pop)","artist":"TOURISTE"}]}}]}