{"type":"FeatureCollection","features":[{"type":"Feature","id":"toulouse-distorama-le-ravelin","geometry":{"type":"Point","coordinates":[1.4282089,43.599082]},"properties":{"name":"Le Ravelin","category":"Concert Bar","icon":"fa-music","address":"6 place du Ravelin 31300 Toulouse","logo":"le_ravelin.png","events":[{"date":"2026-06-14","time":"","price":"13h/19h","desc":"Fripe & Spritz","artist":"Fripe & Spritz","youtube_video_id":"cmSApBkT0HE","bandcamp_url":"https://kakakidsrecords.bandcamp.com/merch/t-shirt-massicot","bandcamp_embed_url":""}]}}]}