{"type":"FeatureCollection","features":[{"type":"Feature","id":"toulouse-distorama-le-ravelin","geometry":{"type":"Point","coordinates":[1.4282089,43.599082]},"properties":{"name":"Le Ravelin","category":"Concert Bar","icon":"🎵","address":"6 place du Ravelin 31300 Toulouse","logo":"le_ravelin.png","events":[{"time":"20h","price":"Gratuit","desc":"Soirée Karaoke par Sabrina","artist":""}]}},{"type":"Feature","id":"toulouse-distorama-la-mecanique-des-fluides","geometry":{"type":"Point","coordinates":[1.4537749,43.6002765]},"properties":{"name":"La Mécanique des Fluides","category":"Concert Bar","icon":"🎵","address":"1 rue Riquet 31000 Toulouse","logo":"mecanique_des_fluides.png","events":[{"time":"20h","price":"Prix Libre","desc":"THOM SUYEUR ET LES PETIS GREGORYS","artist":"THOM SUYEUR ET LES PETIS GREGORYS"}]}},{"type":"Feature","id":"toulouse-distorama-gloria","geometry":{"type":"Point","coordinates":[1.4439408,43.6014516]},"properties":{"name":"Gloria","category":"Concert Bar","icon":"🎵","address":"4 rue Peyras 31000 Toulouse","logo":"","events":[{"time":"21h","price":"Gratuit","desc":"Blind test organisé par Ju'","artist":"Blind test organisé par Ju'"}]}},{"type":"Feature","id":"toulouse-distorama-bistrot-ducoin","geometry":{"type":"Point","coordinates":[1.4559708,43.6090065]},"properties":{"name":"Bistrot Ducoin","category":"Concert Bar","icon":"🎵","address":"40 rue du Général Jean Compans 31500 Toulouse","logo":"bistrot_ducoin.jpg","events":[{"time":"21h","price":"Prix Libre","desc":"THE DIOGENES (pk grunge 90s)","artist":"THE DIOGENES"}]}},{"type":"Feature","id":"toulouse-distorama-flashback-cafe","geometry":{"type":"Point","coordinates":[1.4228928,43.6088839]},"properties":{"name":"Flashback Café","category":"Concert Bar","icon":"🎵","address":"Allée de Brienne 31000 Toulouse","logo":"","events":[{"time":"19h","price":"Gratuit","desc":"15.15 (rk indé)","artist":"15.15"}]}},{"type":"Feature","id":"toulouse-distorama-the-petit-london","geometry":{"type":"Point","coordinates":[1.4538883,43.6008176]},"properties":{"name":"The Petit London","category":"Concert Bar","icon":"🎵","address":"7 rue Pierre-Paul Riquet 31000 Toulouse","logo":"","events":[{"time":"22h","price":"Gratuit","desc":"SYNAPS (tekno, trance, DnB)","artist":"SYNAPS"}]}}]}