{"type":"FeatureCollection","features":[{"type":"Feature","id":"toulouse-distorama-gloria","geometry":{"type":"Point","coordinates":[1.4439408,43.6014516]},"properties":{"name":"Gloria","category":"Concert Bar","icon":"🎵","address":"4 rue Peyras 31000 Toulouse","logo":"","events":[{"time":"21h","price":"Gratuit","desc":"« Island Orgy Fuck Party » : DJ set from boogaloo to synthwave","artist":"« Island Orgy Fuck Party » : DJ set from boogaloo to synthwave"}]}},{"type":"Feature","id":"toulouse-distorama-le-ravelin","geometry":{"type":"Point","coordinates":[1.4282089,43.599082]},"properties":{"name":"Le Ravelin","category":"Concert Bar","icon":"🎵","address":"6 place du Ravelin 31300 Toulouse","logo":"le_ravelin.png","events":[{"time":"20h","price":"5/7/10€","desc":"YUCABA (100% hxc radikal) + FRACTION SQUAD (power electro)","artist":"YUCABA (100% hxc radikal) + FRACTION SQUAD"}]}},{"type":"Feature","id":"toulouse-distorama-boudu-pont","geometry":{"type":"Point","coordinates":[1.4363272,43.5988936]},"properties":{"name":"Boudu pont","category":"Concert Bar","icon":"🎵","address":"1 rue de la République 31300 Toulouse","logo":"","events":[{"time":"21h","price":"Gratuit","desc":"Karaoke et after work","artist":"Karaoke et after work"}]}},{"type":"Feature","id":"toulouse-distorama-le-dada","geometry":{"type":"Point","coordinates":[1.4383337,43.6123398]},"properties":{"name":"Le Dada","category":"Concert Bar","icon":"🎵","address":"27 avenue Honoré Serres 31000 Toulouse","logo":"","events":[{"time":"20h30","price":"5/7/9€","desc":"BARREZ VOUS (tek machin.e) + VIVE LA POP (indus dub) + UNOM (synth pk) + PRRIEE PCION (DJ set amb dub)","artist":"BARREZ VOUS (tek machin.e) + VIVE LA POP (indus dub) + UNOM (synth pk) + PRRIEE PCION"}]}}]}