{"type":"FeatureCollection","features":[{"type":"Feature","id":"toulouse-distorama-le-ravelin","geometry":{"type":"Point","coordinates":[1.4282089,43.599082]},"properties":{"name":"Le Ravelin","category":"Concert Bar","icon":"fa-music","address":"6 place du Ravelin 31300 Toulouse","logo":"le_ravelin.png","events":[{"date":"2026-05-06","time":"20h","price":"5+€","desc":"VEMBERLAIN (pop jangle gling-glong rk) + PART TIME LEGEND (grg psyché pop)","artist":"VEMBERLAIN (pop jangle gling-glong rk) + PART TIME LEGEND","youtube_video_id":"lOyt38ooO0I","bandcamp_url":"","bandcamp_embed_url":""}]}},{"type":"Feature","id":"toulouse-distorama-bar-belfort","geometry":{"type":"Point","coordinates":[1.4527628,43.6057612]},"properties":{"name":"Bar Belfort","category":"Concert Bar","icon":"fa-music","address":"9 place Belfort 31000 Toulouse","logo":"","events":[{"date":"2026-05-06","time":"20h","price":"Prix Libre","desc":"DAVE PERZO (dvpt antipersonnel) + ZORRO DU CUL","artist":"DAVE PERZO (dvpt antipersonnel) + ZORRO DU CUL","youtube_video_id":"cYsRimIYQlc","bandcamp_url":"","bandcamp_embed_url":""}]}},{"type":"Feature","id":"toulouse-distorama-face-b-friperie","geometry":{"type":"Point","coordinates":[1.4528685,43.60564]},"properties":{"name":"Face B Friperie","category":"Boutique","icon":"fa-store","address":"7 place Damloup 31000 Toulouse","logo":"face_b.jpg","events":[{"date":"2026-05-06","time":"","price":"12h-19h","desc":"Exposition des couvertures de mai du Distorama, de 2016 à 2026","artist":"","youtube_video_id":"","bandcamp_url":"","bandcamp_embed_url":""}]}}]}