{"type":"FeatureCollection","features":[{"type":"Feature","id":"toulouse-distorama-boudu-pont","geometry":{"type":"Point","coordinates":[1.4363272,43.5988936]},"properties":{"name":"Boudu pont","category":"Concert Bar","icon":"fa-music","address":"1 rue de la République 31300 Toulouse","logo":"","events":[{"date":"2026-01-31","time":"22h","price":"Gratuit","desc":"Karaoké + Bootyshake","artist":"Karaoké + Bootyshake"}]}},{"type":"Feature","id":"toulouse-distorama-l-autan","geometry":{"type":"Point","coordinates":[1.43883,43.6117922]},"properties":{"name":"L'Autan","category":"Concert Bar","icon":"fa-music","address":"58 boulevard d'Arcole 31000 Toulouse","logo":"","events":[{"date":"2026-01-31","time":"20h","price":"Prix Libre","desc":"BLACK DROP (stoner/grunge)","artist":"BLACK DROP"}]}},{"type":"Feature","id":"toulouse-distorama-l-engrenage","geometry":{"type":"Point","coordinates":[1.4880684,43.6274411]},"properties":{"name":"L'Engrenage","category":"Concert Bar","icon":"fa-music","address":"14 rue Louis Renault 31130 Balma","logo":"","events":[{"date":"2026-01-31","time":"20h","price":"15€","desc":"COMBUST + SPEEDWAY + COLD STRESS + LOSING PATIENCE (hardcore)","artist":"COMBUST + SPEEDWAY + COLD STRESS + LOSING PATIENCE"}]}}]}