{"type":"FeatureCollection","features":[{"type":"Feature","id":"toulouse-distorama-bistrot-ducoin","geometry":{"type":"Point","coordinates":[1.4559708,43.6090065]},"properties":{"name":"Bistrot Ducoin","category":"Concert Bar","icon":"fa-music","address":"40 rue du Général Jean Compans 31500 Toulouse","logo":"bistrot_ducoin.jpg","events":[{"date":"2026-03-27","time":"21h","price":"Prix Libre","desc":"CASCADES (électro organique)","artist":"CASCADES","youtube_video_id":"ItNIwAOLZDw","bandcamp_url":"https://magic-wands.bandcamp.com/album/cascades","bandcamp_embed_url":""}]}},{"type":"Feature","id":"toulouse-distorama-la-mecanique-des-fluides","geometry":{"type":"Point","coordinates":[1.4537749,43.6002765]},"properties":{"name":"La Mécanique des Fluides","category":"Concert Bar","icon":"fa-music","address":"1 rue Riquet 31000 Toulouse","logo":"","events":[{"date":"2026-03-27","time":"20h","price":"5€ sugg","desc":"CHATEAU COSCO + LUCAS PA + Guest?","artist":"CHATEAU COSCO + LUCAS PA + Guest?","youtube_video_id":"xqXjQ3pjPGw","bandcamp_url":"","bandcamp_embed_url":""}]}},{"type":"Feature","id":"toulouse-distorama-boudu-pont","geometry":{"type":"Point","coordinates":[1.4363272,43.5988936]},"properties":{"name":"Boudu pont","category":"Concert Bar","icon":"fa-music","address":"1 rue de la République 31300 Toulouse","logo":"","events":[{"date":"2026-03-27","time":"21h","price":"Gratuit","desc":"Dj set CARABINE (disco/ house/ indie)","artist":"Dj set CARABINE","youtube_video_id":"civv4_Z_2l4","bandcamp_url":"","bandcamp_embed_url":""}]}},{"type":"Feature","id":"toulouse-distorama-gloria","geometry":{"type":"Point","coordinates":[1.4439408,43.6014516]},"properties":{"name":"Gloria","category":"Concert Bar","icon":"fa-music","address":"4 rue Peyras 31000 Toulouse","logo":"","events":[{"date":"2026-03-27","time":"21h","price":"Gratuit","desc":"Blind test","artist":"Blind test","youtube_video_id":"wRyD81oBUSM","bandcamp_url":"","bandcamp_embed_url":""}]}},{"type":"Feature","id":"toulouse-distorama-the-petit-london","geometry":{"type":"Point","coordinates":[1.4538883,43.6008176]},"properties":{"name":"The Petit London","category":"Concert Bar","icon":"fa-music","address":"7 rue Pierre-Paul Riquet 31000 Toulouse","logo":"","events":[{"date":"2026-03-27","time":"22h","price":"Gratuit","desc":"FUKU (full grg)","artist":"FUKU","youtube_video_id":"37SusVgFHqw","bandcamp_url":"","bandcamp_embed_url":""}]}},{"type":"Feature","id":"toulouse-distorama-bar-belfort","geometry":{"type":"Point","coordinates":[1.4527628,43.6057612]},"properties":{"name":"Bar Belfort","category":"Concert Bar","icon":"fa-music","address":"9 place Belfort 31000 Toulouse","logo":"","events":[{"date":"2026-03-27","time":"20h","price":"Prix Libre","desc":"FOSCO (screamo)","artist":"FOSCO","youtube_video_id":"BcDf-Lbom_s","bandcamp_url":"","bandcamp_embed_url":""}]}}]}