{"type":"FeatureCollection","features":[{"type":"Feature","id":"toulouse-distorama-le-ravelin","geometry":{"type":"Point","coordinates":[1.4282089,43.599082]},"properties":{"name":"Le Ravelin","category":"Concert Bar","icon":"fa-music","address":"6 place du Ravelin 31300 Toulouse","logo":"le_ravelin.png","events":[{"date":"2026-05-01","time":"20h","price":"5/7/10€","desc":"FLUFFY MACHINE (surfpkindierk) + OUTATIME BAND (RP 90's)","artist":"FLUFFY MACHINE (surfpkindierk) + OUTATIME BAND","youtube_video_id":"IlVeeiTKuMU","bandcamp_url":"","bandcamp_embed_url":""},{"date":"2026-05-03","time":"","price":"14h-19h","desc":"Fripe & Spritz","artist":"Fripe & Spritz","youtube_video_id":"cmSApBkT0HE","bandcamp_url":"https://kakakidsrecords.bandcamp.com/merch/t-shirt-massicot","bandcamp_embed_url":""},{"date":"2026-05-06","time":"20h","price":"5+€","desc":"VEMBERLAIN (pop jangle gling-glong rk) + PART TIME LEGEND (grg psyché pop)","artist":"VEMBERLAIN (pop jangle gling-glong rk) + PART TIME LEGEND","youtube_video_id":"lOyt38ooO0I","bandcamp_url":"","bandcamp_embed_url":""},{"date":"2026-05-07","time":"20h","price":"5€","desc":"SILLY WALK (power pk rk) + BARREL KICK (pk rk/Rennes)","artist":"SILLY WALK (power pk rk) + BARREL KICK","youtube_video_id":"iV2ViNJFZC8","bandcamp_url":"https://sillywalk.bandcamp.com/","bandcamp_embed_url":""},{"date":"2026-05-08","time":"20h","price":"5/7/9€","desc":"PUBLIC CIRCUIT (trio électro) + BUTTER KNIFE (electro sur beats estivaux)","artist":"PUBLIC CIRCUIT (trio électro) + BUTTER KNIFE","youtube_video_id":"GGgBCQ5QiRc","bandcamp_url":"","bandcamp_embed_url":""},{"date":"2026-05-14","time":"20h","price":"5/7/9 €","desc":"FANTÔME JOSEPHA (krautrk post-pk) + KOWAI MONO (electro horror pop) + DJ Set BRUIT BLANC (weirdo pk)","artist":"FANTÔME JOSEPHA (krautrk post-pk) + KOWAI MONO (electro horror pop) + DJ Set BRUIT BLANC","youtube_video_id":"V5TzrYF6Cr8","bandcamp_url":"","bandcamp_embed_url":""},{"date":"2026-05-17","time":"20h","price":"5/7/9€","desc":"PAL (egg pk) + COUP DROIT (noise pk)","artist":"PAL (egg pk) + COUP DROIT","youtube_video_id":"w8LcxY43N5Y","bandcamp_url":"","bandcamp_embed_url":""},{"date":"2026-05-21","time":"20h","price":"Prix?","desc":"HUMMINGBIRD (haunted rk)","artist":"HUMMINGBIRD","youtube_video_id":"TENzstSjsus","bandcamp_url":"","bandcamp_embed_url":""},{"date":"2026-05-22","time":"20h","price":"5+€","desc":"NESTTER DONUTS (Flamenco Trash) + L'ORCHESTRE DE JÉRÔME SAGE (musique d'avant Internet)","artist":"NESTTER DONUTS (Flamenco Trash) + L'ORCHESTRE DE JÉRÔME SAGE","youtube_video_id":"hWDkz8zEcPc","bandcamp_url":"","bandcamp_embed_url":""},{"date":"2026-05-23","time":"20h","price":"Prix?","desc":"DESERT DEW (alt rk) + HOLYFISH (alt rk)","artist":"DESERT DEW (alt rk) + HOLYFISH","youtube_video_id":"kWYdTOxMipQ","bandcamp_url":"","bandcamp_embed_url":""},{"date":"2026-05-24","time":"","price":"12h-19h","desc":"Vermut Musical","artist":"Vermut Musical","youtube_video_id":"VQo9DBkMXC4","bandcamp_url":"","bandcamp_embed_url":""},{"date":"2026-05-26","time":"20h","price":"5+€","desc":"CLOCHETTES (3 batteries boom boom) + ARC-EN-CIEL (solo new wave)","artist":"CLOCHETTES (3 batteries boom boom) + ARC-EN-CIEL","youtube_video_id":"TlsGmt0ALpg","bandcamp_url":"","bandcamp_embed_url":""},{"date":"2026-05-27","time":"20h","price":"8€","desc":"YAGUARATÉ CREW (hip-hop) + ANGRY ZETA (pk Hillbilly folk)","artist":"YAGUARATÉ CREW (hip-hop) + ANGRY ZETA","youtube_video_id":"q1Oq--SBr04","bandcamp_url":"","bandcamp_embed_url":""},{"date":"2026-05-28","time":"20h","price":"5/7/10€","desc":"CASABLANCA (indie rk) + BLUE HARRISON (rk)","artist":"CASABLANCA (indie rk) + BLUE HARRISON","youtube_video_id":"rjrcALUu8LY","bandcamp_url":"","bandcamp_embed_url":""},{"date":"2026-05-29","time":"20h","price":"5+€","desc":"JB HANAK (electronic spoken word) + CLAIRE VON CORDA (spoken word)","artist":"JB HANAK (electronic spoken word) + CLAIRE VON CORDA","youtube_video_id":"sQ0wze3Pixo","bandcamp_url":"","bandcamp_embed_url":""},{"date":"2026-05-30","time":"20h","price":"Prix?","desc":"SUBTLE TURNHIPS (DIY pop pk) + MAMMOÜTH (grg)","artist":"SUBTLE TURNHIPS (DIY pop pk) + MAMMOÜTH","youtube_video_id":"MMqfwZYX8a4","bandcamp_url":"","bandcamp_embed_url":""}]}},{"type":"Feature","id":"toulouse-distorama-boudu-pont","geometry":{"type":"Point","coordinates":[1.4363272,43.5988936]},"properties":{"name":"Boudu pont","category":"Concert Bar","icon":"fa-music","address":"1 rue de la République 31300 Toulouse","logo":"","events":[{"date":"2026-05-02","time":"21h","price":"Gratuit","desc":"Blind test et bootyshake","artist":"Blind test et bootyshake","youtube_video_id":"wRyD81oBUSM","bandcamp_url":"","bandcamp_embed_url":""},{"date":"2026-05-04","time":"18h","price":"Gratuit","desc":"Vernissage","artist":"","youtube_video_id":"","bandcamp_url":"","bandcamp_embed_url":""},{"date":"2026-05-07","time":"20h","price":"Gratuit","desc":"GOD SAVE THE CUIVRE (fanfare)","artist":"GOD SAVE THE CUIVRE","youtube_video_id":"fU0l9qBdYTQ","bandcamp_url":"","bandcamp_embed_url":""},{"date":"2026-05-09","time":"22h","price":"Gratuit","desc":"DJ set CHEMICAL DISTRICT (funky hip hop, UK grg, drum'n'bass)","artist":"DJ set CHEMICAL DISTRICT","youtube_video_id":"yOXo3q5d2Ak","bandcamp_url":"","bandcamp_embed_url":""},{"date":"2026-05-13","time":"20h","price":"Gratuit","desc":"ELY PINEDA (latino musique du monde)","artist":"ELY PINEDA","youtube_video_id":"hm4VY-t32x4","bandcamp_url":"","bandcamp_embed_url":""},{"date":"2026-05-14","time":"","price":"18H","desc":"Quizz et afterwork","artist":"Quizz et afterwork","youtube_video_id":"xYpbZQE5Wn8","bandcamp_url":"","bandcamp_embed_url":""},{"date":"2026-05-15","time":"20h","price":"Gratuit","desc":"CASCADES (electro rk prog)","artist":"CASCADES","youtube_video_id":"ItNIwAOLZDw","bandcamp_url":"https://magic-wands.bandcamp.com/album/cascades","bandcamp_embed_url":""},{"date":"2026-05-16","time":"20h","price":"Gratuit","desc":"Anniversaire du Boudu Pont (12 ans) → DJ set JUMIEN JUMINI (French touch / tech house)","artist":"","youtube_video_id":"","bandcamp_url":"","bandcamp_embed_url":""},{"date":"2026-05-19","time":"","price":"20H","desc":"Jam irlandaise","artist":"Jam irlandaise","youtube_video_id":"xviP4-z_iRY","bandcamp_url":"","bandcamp_embed_url":""},{"date":"2026-05-22","time":"20h","price":"Gratuit","desc":"SLIM PAUL (blues)","artist":"SLIM PAUL","youtube_video_id":"XvK5CUpe0ww","bandcamp_url":"","bandcamp_embed_url":""},{"date":"2026-05-23","time":"","price":"21H","desc":"Blindtest et bootyshake","artist":"Blindtest et bootyshake","youtube_video_id":"yTmSLHWx5pk","bandcamp_url":"","bandcamp_embed_url":""},{"date":"2026-05-28","time":"18h","price":"Gratuit","desc":"Karaoke et afterwork","artist":"Karaoke et afterwork","youtube_video_id":"7e6JR4Eif9U","bandcamp_url":"","bandcamp_embed_url":""},{"date":"2026-05-29","time":"20h","price":"Gratuit","desc":"JEFF ZIMA (rk/blues)","artist":"JEFF ZIMA","youtube_video_id":"RGTG3t_AhJ4","bandcamp_url":"","bandcamp_embed_url":""},{"date":"2026-05-30","time":"22h","price":"Gratuit","desc":"Dj Pasteq (groove shaker)","artist":"Dj Pasteq","youtube_video_id":"qDJubqN3VkY","bandcamp_url":"","bandcamp_embed_url":""},{"date":"2026-05-31","time":"20h","price":"Gratuit","desc":"FRÈRES POUETARDS (fanfare/ska/rk/swing)","artist":"FRÈRES POUETARDS","youtube_video_id":"kSMhB9FiCgE","bandcamp_url":"","bandcamp_embed_url":""}]}},{"type":"Feature","id":"toulouse-distorama-le-circographe","geometry":{"type":"Point","coordinates":[1.4222551,43.6196165]},"properties":{"name":"Le Circographe","category":"Concert Bar","icon":"fa-music","address":"Le Circographe Toulouse","logo":"","events":[{"date":"2026-05-02","time":"","price":"18h30/23h30","desc":"Boum des Pussycat Molles → DULCINE (downtempo/house/techno) + LAO (latino/tech house/reggaeton)","artist":"Boum des Pussycat Molles → DULCINE (downtempo/house/techno) + LAO","youtube_video_id":"xfuBvv47qI0","bandcamp_url":"","bandcamp_embed_url":""}]}},{"type":"Feature","id":"toulouse-distorama-face-b-friperie","geometry":{"type":"Point","coordinates":[1.4528685,43.60564]},"properties":{"name":"Face B Friperie","category":"Boutique","icon":"fa-store","address":"7 place Damloup 31000 Toulouse","logo":"face_b.jpg","events":[{"date":"2026-05-02","time":"","price":"12h-19h","desc":"Exposition des couvertures de mai du Distorama, de 2016 à 2026","artist":"","youtube_video_id":"","bandcamp_url":"","bandcamp_embed_url":""},{"date":"2026-05-03","time":"","price":"11h-14h","desc":"Exposition des couvertures de mai du Distorama, de 2016 à 2026","artist":"","youtube_video_id":"","bandcamp_url":"","bandcamp_embed_url":""},{"date":"2026-05-04","time":"","price":"12h-19h","desc":"Exposition des couvertures de mai du Distorama, de 2016 à 2026","artist":"","youtube_video_id":"","bandcamp_url":"","bandcamp_embed_url":""},{"date":"2026-05-06","time":"","price":"12h-19h","desc":"Exposition des couvertures de mai du Distorama, de 2016 à 2026","artist":"","youtube_video_id":"","bandcamp_url":"","bandcamp_embed_url":""},{"date":"2026-05-07","time":"","price":"12h-19h","desc":"Exposition des couvertures de mai du Distorama, de 2016 à 2026","artist":"","youtube_video_id":"","bandcamp_url":"","bandcamp_embed_url":""},{"date":"2026-05-09","time":"","price":"12h-19h","desc":"Exposition des couvertures de mai du Distorama, de 2016 à 2026","artist":"","youtube_video_id":"","bandcamp_url":"","bandcamp_embed_url":""},{"date":"2026-05-10","time":"","price":"11h-14h","desc":"Exposition des couvertures de mai du Distorama, de 2016 à 2026","artist":"","youtube_video_id":"","bandcamp_url":"","bandcamp_embed_url":""},{"date":"2026-05-11","time":"","price":"12h-19h","desc":"Exposition des couvertures de mai du Distorama, de 2016 à 2026","artist":"","youtube_video_id":"","bandcamp_url":"","bandcamp_embed_url":""},{"date":"2026-05-12","time":"","price":"12h-19h","desc":"Exposition des couvertures de mai du Distorama, de 2016 à 2026","artist":"","youtube_video_id":"","bandcamp_url":"","bandcamp_embed_url":""},{"date":"2026-05-13","time":"","price":"12h-19h","desc":"Exposition des couvertures de mai du Distorama, de 2016 à 2026","artist":"","youtube_video_id":"","bandcamp_url":"","bandcamp_embed_url":""},{"date":"2026-05-15","time":"","price":"12h-19h","desc":"Exposition des couvertures de mai du Distorama, de 2016 à 2026","artist":"","youtube_video_id":"","bandcamp_url":"","bandcamp_embed_url":""},{"date":"2026-05-16","time":"","price":"12h-19h","desc":"Exposition des couvertures de mai du Distorama, de 2016 à 2026","artist":"","youtube_video_id":"","bandcamp_url":"","bandcamp_embed_url":""},{"date":"2026-05-17","time":"","price":"11h-14h","desc":"Exposition des couvertures de mai du Distorama, de 2016 à 2026","artist":"","youtube_video_id":"","bandcamp_url":"","bandcamp_embed_url":""},{"date":"2026-05-18","time":"","price":"12h-19h","desc":"Exposition des couvertures de mai du Distorama, de 2016 à 2026","artist":"","youtube_video_id":"","bandcamp_url":"","bandcamp_embed_url":""},{"date":"2026-05-19","time":"","price":"12h-19h","desc":"Exposition des couvertures de mai du Distorama, de 2016 à 2026","artist":"","youtube_video_id":"","bandcamp_url":"","bandcamp_embed_url":""},{"date":"2026-05-20","time":"","price":"12h-19h","desc":"Exposition des couvertures de mai du Distorama, de 2016 à 2026","artist":"","youtube_video_id":"","bandcamp_url":"","bandcamp_embed_url":""},{"date":"2026-05-21","time":"","price":"12h-19h","desc":"Exposition des couvertures de mai du Distorama, de 2016 à 2026","artist":"","youtube_video_id":"","bandcamp_url":"","bandcamp_embed_url":""},{"date":"2026-05-22","time":"","price":"12h-19h","desc":"Exposition des couvertures de mai du Distorama, de 2016 à 2026","artist":"","youtube_video_id":"","bandcamp_url":"","bandcamp_embed_url":""},{"date":"2026-05-23","time":"","price":"12h-19h","desc":"Exposition des couvertures de mai du Distorama, de 2016 à 2026","artist":"","youtube_video_id":"","bandcamp_url":"","bandcamp_embed_url":""},{"date":"2026-05-24","time":"","price":"11h-14h","desc":"Exposition des couvertures de mai du Distorama, de 2016 à 2026","artist":"","youtube_video_id":"","bandcamp_url":"","bandcamp_embed_url":""},{"date":"2026-05-25","time":"","price":"12h-19h","desc":"Exposition des couvertures de mai du Distorama, de 2016 à 2026","artist":"","youtube_video_id":"","bandcamp_url":"","bandcamp_embed_url":""},{"date":"2026-05-26","time":"","price":"12h-19h","desc":"Exposition des couvertures de mai du Distorama, de 2016 à 2026","artist":"","youtube_video_id":"","bandcamp_url":"","bandcamp_embed_url":""},{"date":"2026-05-27","time":"","price":"12h-19h","desc":"Exposition des couvertures de mai du Distorama, de 2016 à 2026","artist":"","youtube_video_id":"","bandcamp_url":"","bandcamp_embed_url":""}]}},{"type":"Feature","id":"toulouse-distorama-le-dada","geometry":{"type":"Point","coordinates":[1.4383337,43.6123398]},"properties":{"name":"Le Dada","category":"Concert Bar","icon":"fa-music","address":"27 avenue Honoré Serres 31000 Toulouse","logo":"","events":[{"date":"2026-05-04","time":"20h30","price":"5€ adhésion annuelle","desc":"Les Vidéophages (Projection de courts-métrages)","artist":"","youtube_video_id":"","bandcamp_url":"","bandcamp_embed_url":""},{"date":"2026-05-07","time":"20h","price":"5/7/9€","desc":"OLAIIA_ (expé) + STRIE [NON-LIEU] (perf) + VIOLETTE DU PASQUIER (chant triphop) + LARME INCENDIE (mixs visuels) + INDUSTRIAL MATERIAL (tekno live)","artist":"OLAIIA_ (expé) + STRIE [NON-LIEU] (perf) + VIOLETTE DU PASQUIER (chant triphop) + LARME INCENDIE (mixs visuels) + INDUSTRIAL MATERIAL","youtube_video_id":"5KtG6A2sZsU","bandcamp_url":"","bandcamp_embed_url":""},{"date":"2026-05-14","time":"20h","price":"5/7€","desc":"I.WOKE.UP.CHINESE (coldwave) + LAURA BOLT (darkpop) + SUKKUBE (dj set)","artist":"I.WOKE.UP.CHINESE (coldwave) + LAURA BOLT (darkpop) + SUKKUBE","youtube_video_id":"5iqgoer8P80","bandcamp_url":"","bandcamp_embed_url":""},{"date":"2026-05-15","time":"20h","price":"6/8/10€","desc":"EDGES (post-pk / esp) + NEWBORN GHOST (darkwave / esp)","artist":"EDGES (post-pk / esp) + NEWBORN GHOST","youtube_video_id":"kEu1AGpw8L4","bandcamp_url":"","bandcamp_embed_url":""},{"date":"2026-05-22","time":"21h30","price":"gratuit","desc":"AKI GRATTE-CIEL (acoustic & computer disco dub punk dance music) + PS STAMPS BACK (noire électronique)","artist":"AKI GRATTE-CIEL (acoustic & computer disco dub punk dance music) + PS STAMPS BACK","youtube_video_id":"VRl1pUCFXxU","bandcamp_url":"","bandcamp_embed_url":""}]}},{"type":"Feature","id":"toulouse-distorama-bar-belfort","geometry":{"type":"Point","coordinates":[1.4527628,43.6057612]},"properties":{"name":"Bar Belfort","category":"Concert Bar","icon":"fa-music","address":"9 place Belfort 31000 Toulouse","logo":"","events":[{"date":"2026-05-06","time":"20h","price":"Prix Libre","desc":"DAVE PERZO (dvpt antipersonnel) + ZORRO DU CUL","artist":"DAVE PERZO (dvpt antipersonnel) + ZORRO DU CUL","youtube_video_id":"cYsRimIYQlc","bandcamp_url":"","bandcamp_embed_url":""},{"date":"2026-05-08","time":"20h","price":"Gratuit","desc":"Vernissage → Aurélie Garnier + guest","artist":"","youtube_video_id":"","bandcamp_url":"","bandcamp_embed_url":""},{"date":"2026-05-09","time":"20h","price":"Prix Libre","desc":"GIGI DUO (world music)","artist":"GIGI DUO","youtube_video_id":"V2QMZxq2AKo","bandcamp_url":"","bandcamp_embed_url":""},{"date":"2026-05-21","time":"19h","price":"Prix libre","desc":"Expo Sauvage + concert LA MINE","artist":"","youtube_video_id":"","bandcamp_url":"","bandcamp_embed_url":""},{"date":"2026-05-29","time":"19h","price":"5/7€","desc":"WET DREAM WAR MACHINE (pk hxc) + friends","artist":"WET DREAM WAR MACHINE (pk hxc) + friends","youtube_video_id":"K-rVlxSoVg0","bandcamp_url":"","bandcamp_embed_url":""}]}},{"type":"Feature","id":"toulouse-distorama-la-mecanique-des-fluides","geometry":{"type":"Point","coordinates":[1.4537749,43.6002765]},"properties":{"name":"La Mécanique des Fluides","category":"Concert Bar","icon":"fa-music","address":"1 rue Riquet 31000 Toulouse","logo":"","events":[{"date":"2026-05-07","time":"20h","price":"5/7€","desc":"SCIENCE MAN (pk hxc, Buffalo, USA) + SHADOW TIDES (pop pk Tls)","artist":"SCIENCE MAN (pk hxc, Buffalo, USA) + SHADOW TIDES","youtube_video_id":"ELedm6W4Z08","bandcamp_url":"","bandcamp_embed_url":""},{"date":"2026-05-14","time":"20h","price":"3/5€","desc":"ICONOCLAST (oldschool hxc pk, USA) + guest","artist":"ICONOCLAST (oldschool hxc pk, USA) + guest","youtube_video_id":"5nIQ9hEZ_90","bandcamp_url":"","bandcamp_embed_url":""},{"date":"2026-05-16","time":"20h","price":"5/7€","desc":"GRUESOME PLEDGE (death metal/Rennes) + SIGNIFICANT DAMAGE (hxc/Nord Pas de Calais)","artist":"GRUESOME PLEDGE (death metal/Rennes) + SIGNIFICANT DAMAGE","youtube_video_id":"S8ztvVYzxo4","bandcamp_url":"","bandcamp_embed_url":""},{"date":"2026-05-22","time":"19h","price":"Prix Libre","desc":"ZAPOÏ (stoner/grg) + KESSLER SYNDROME (electronic/metal)","artist":"ZAPOÏ (stoner/grg) + KESSLER SYNDROME","youtube_video_id":"jtXzsO6TUbw","bandcamp_url":"","bandcamp_embed_url":""},{"date":"2026-05-23","time":"20h","price":"3/5€","desc":"PRUNG (nu metal, Tls) + DEADBANE (metal alt, Tls)","artist":"PRUNG (nu metal, Tls) + DEADBANE","youtube_video_id":"23rnAs9BHkk","bandcamp_url":"","bandcamp_embed_url":""},{"date":"2026-05-24","time":"20h","price":"3/5€","desc":"FRANX (pk hxc) + SRAIL (chaotic hxc)","artist":"FRANX (pk hxc) + SRAIL","youtube_video_id":"HsJ097Z3Rfg","bandcamp_url":"","bandcamp_embed_url":""},{"date":"2026-05-27","time":"20h","price":"3/5€","desc":"DISCOZERO (rk grunge, Tls)","artist":"DISCOZERO","youtube_video_id":"TQi0n0D2vzI","bandcamp_url":"","bandcamp_embed_url":""},{"date":"2026-05-29","time":"19h30","price":"5€/8€/10€ suggérés","desc":"PANIC MONSTER (pk folk) + MARTY WENT BACK (pk rk) + LAME SHOT! (Pop pk)","artist":"PANIC MONSTER (pk folk) + MARTY WENT BACK (pk rk) + LAME SHOT!","youtube_video_id":"arj7oStGLkU","bandcamp_url":"","bandcamp_embed_url":""}]}},{"type":"Feature","id":"toulouse-distorama-bistrot-ducoin","geometry":{"type":"Point","coordinates":[1.4559708,43.6090065]},"properties":{"name":"Bistrot Ducoin","category":"Concert Bar","icon":"fa-music","address":"40 rue du Général Jean Compans 31500 Toulouse","logo":"bistrot_ducoin.jpg","events":[{"date":"2026-05-07","time":"21h","price":"Prix Libre","desc":"LES RENTIERS (rap hxc) + TOTO SADYK (pk rap)","artist":"LES RENTIERS (rap hxc) + TOTO SADYK","youtube_video_id":"T7sQ602k8oI","bandcamp_url":"https://lesrentiers.bandcamp.com/","bandcamp_embed_url":""},{"date":"2026-05-14","time":"19h30","price":"Prix Libre","desc":"TWO SEASONS (standard jazz)","artist":"TWO SEASONS","youtube_video_id":"IFLb3mGdoM4","bandcamp_url":"","bandcamp_embed_url":""},{"date":"2026-05-15","time":"21h","price":"Prix Libre","desc":"PROJET SERPICO (rk)","artist":"PROJET SERPICO","youtube_video_id":"cu3A3-mCg8k","bandcamp_url":"","bandcamp_embed_url":""},{"date":"2026-05-21","time":"19h30","price":"Prix Libre","desc":"YANNICK BOUDRUCHE (release party « Englishious »)","artist":"YANNICK BOUDRUCHE","youtube_video_id":"rtIec1eT17o","bandcamp_url":"","bandcamp_embed_url":""},{"date":"2026-05-22","time":"21h","price":"Prix Libre","desc":"TRES OMBRES (blues rk)","artist":"TRES OMBRES","youtube_video_id":"3-dxpinUORo","bandcamp_url":"","bandcamp_embed_url":""},{"date":"2026-05-26","time":"19h","price":"Gratuit","desc":"Dévernissage de l'Expo « Triangle d'émeraude » d'Anahi","artist":"","youtube_video_id":"","bandcamp_url":"","bandcamp_embed_url":""},{"date":"2026-05-28","time":"19h30","price":"Prix Libre","desc":"Blues au Coin du Zinc","artist":"Blues au Coin du Zinc","youtube_video_id":"DtH8ajkSaj4","bandcamp_url":"https://djparental.bandcamp.com/album/trouble","bandcamp_embed_url":""},{"date":"2026-05-29","time":"21h","price":"Prix Libre","desc":"TEXARKANA (american roots)","artist":"TEXARKANA","youtube_video_id":"Tai1lWFS_jY","bandcamp_url":"","bandcamp_embed_url":""}]}},{"type":"Feature","id":"toulouse-distorama-gloria","geometry":{"type":"Point","coordinates":[1.4439408,43.6014516]},"properties":{"name":"Gloria","category":"Concert Bar","icon":"fa-music","address":"4 rue Peyras 31000 Toulouse","logo":"","events":[{"date":"2026-05-07","time":"20h30","price":"Prix Libre","desc":"JÉRÔME SAGE (antiyéyé paradoxal)","artist":"JÉRÔME SAGE","youtube_video_id":"RKS3mRIHUf0","bandcamp_url":"","bandcamp_embed_url":""},{"date":"2026-05-15","time":"21h","price":"Gratuit","desc":"Blind test par Ju’","artist":"Blind test par Ju’","youtube_video_id":"Lc9VXAgm7rE","bandcamp_url":"","bandcamp_embed_url":""},{"date":"2026-05-28","time":"20h","price":"Prix Libre","desc":"Ciné-concert PETIT BUREAU + NO FLUTE","artist":"","youtube_video_id":"","bandcamp_url":"","bandcamp_embed_url":""}]}},{"type":"Feature","id":"toulouse-distorama-thirsty-monk","geometry":{"type":"Point","coordinates":[1.4538991,43.6090951]},"properties":{"name":"The Thirsty Monk","category":"Concert Bar","icon":"fa-music","address":"Allées Jean Jaurès 31000 Toulouse","logo":"","events":[{"date":"2026-05-08","time":"22h","price":"Gratuit","desc":"CERNIA (rk fusion)","artist":"CERNIA","youtube_video_id":"MRtjNc2EDMc","bandcamp_url":"","bandcamp_embed_url":""}]}},{"type":"Feature","id":"toulouse-distorama-the-petit-london","geometry":{"type":"Point","coordinates":[1.4538883,43.6008176]},"properties":{"name":"The Petit London","category":"Concert Bar","icon":"fa-music","address":"7 rue Pierre-Paul Riquet 31000 Toulouse","logo":"","events":[{"date":"2026-05-08","time":"21h","price":"Prix Libre (5€ conseillé)","desc":"100% Techno Live Machine → GRIT SALT + FABULATOR + REDRØWEN","artist":"100% Techno Live Machine → GRIT SALT + FABULATOR + REDRØWEN","youtube_video_id":"n5FieRk-42Y","bandcamp_url":"","bandcamp_embed_url":""},{"date":"2026-05-15","time":"22h","price":"Gratuit","desc":"PYROLIZ (groove, groove tech)","artist":"PYROLIZ","youtube_video_id":"BOpEtUhSWm0","bandcamp_url":"","bandcamp_embed_url":""},{"date":"2026-05-16","time":"22h","price":"Gratuit","desc":"ARTISANS BANGER (disco house, tech house, hard house)","artist":"ARTISANS BANGER","youtube_video_id":"KjseaUPSqTQ","bandcamp_url":"https://italomoderni.bandcamp.com/album/mellow-bangers-vol-2","bandcamp_embed_url":""},{"date":"2026-05-22","time":"22h","price":"Gratuit","desc":"ARNAVALL (live techno instrumentale)","artist":"ARNAVALL","youtube_video_id":"","bandcamp_url":"","bandcamp_embed_url":""},{"date":"2026-05-23","time":"22h","price":"Gratuit","desc":"DJ KONSTROY (post pk/darkwave)","artist":"DJ KONSTROY","youtube_video_id":"JEyZfckbUaQ","bandcamp_url":"","bandcamp_embed_url":""},{"date":"2026-05-29","time":"22h","price":"Gratuit","desc":"MAMELLE BENT (RnB Dancehall)","artist":"MAMELLE BENT","youtube_video_id":"t6BYBVCBYYk","bandcamp_url":"","bandcamp_embed_url":""},{"date":"2026-05-30","time":"22h","price":"Gratuit","desc":"MONKEY LEO (hip hop house groovy to techno hardgroove)","artist":"MONKEY LEO","youtube_video_id":"Mr0mKggInKY","bandcamp_url":"","bandcamp_embed_url":""}]}},{"type":"Feature","id":"toulouse-distorama-little-o-clock","geometry":{"type":"Point","coordinates":[1.5208073,43.6444525]},"properties":{"name":"Little O'Clock","category":"Concert Bar","icon":"fa-music","address":"75 allée Jean Jaurès 31000 Toulouse","logo":"","events":[{"date":"2026-05-14","time":"20h","price":"Prix Libre","desc":"NOTHING FOR FREE + DRAW ME A BUTT + LITTLE TRICKS (pk rk)","artist":"NOTHING FOR FREE + DRAW ME A BUTT + LITTLE TRICKS","youtube_video_id":"WeOFimyghIA","bandcamp_url":"","bandcamp_embed_url":""},{"date":"2026-05-15","time":"20h","price":"Prix Libre","desc":"LIOTTA SEOUL (grunge / pop pk) + AUSTER (psych pk) + HOMEGROUND (pk rk)","artist":"LIOTTA SEOUL (grunge / pop pk) + AUSTER (psych pk) + HOMEGROUND","youtube_video_id":"V8wImrvR8Tw","bandcamp_url":"","bandcamp_embed_url":""},{"date":"2026-05-18","time":"20h","price":"Prix Libre","desc":"MERCURE 22 (rk alt) + LEUF DOR (rk alt) + PARIASS (indie pk)","artist":"MERCURE 22 (rk alt) + LEUF DOR (rk alt) + PARIASS","youtube_video_id":"fhWKMhQGlRs","bandcamp_url":"","bandcamp_embed_url":""}]}},{"type":"Feature","id":"toulouse-distorama-le-declic","geometry":{"type":"Point","coordinates":[1.4543659,43.6041704]},"properties":{"name":"Le Déclic","category":"Concert Bar","icon":"fa-music","address":"Le Déclic Toulouse","logo":"","events":[{"date":"2026-05-15","time":"","price":"19h30 à 23h – Gratuit","desc":"Jam session","artist":"Jam session","youtube_video_id":"WjoL8Pw3oDg","bandcamp_url":"","bandcamp_embed_url":""},{"date":"2026-05-16","time":"","price":"19h30 à 23h – Gratuit","desc":"Jam session","artist":"Jam session","youtube_video_id":"WjoL8Pw3oDg","bandcamp_url":"","bandcamp_embed_url":""},{"date":"2026-05-23","time":"","price":"19h30 à 23h – Gratuit","desc":"Jam session","artist":"Jam session","youtube_video_id":"WjoL8Pw3oDg","bandcamp_url":"","bandcamp_embed_url":""},{"date":"2026-05-29","time":"","price":"19h30 à 23h – Gratuit","desc":"Jam session","artist":"Jam session","youtube_video_id":"WjoL8Pw3oDg","bandcamp_url":"","bandcamp_embed_url":""}]}},{"type":"Feature","id":"toulouse-distorama-local-piquemil","geometry":{"type":"Point","coordinates":[1.4324351,43.5992796]},"properties":{"name":"Local Piquemil","category":"Concert Bar","icon":"fa-music","address":"6 rue Piquemil 31300 Toulouse","logo":"","events":[{"date":"2026-05-16","time":"19h","price":"Prix Libre","desc":"« Rêves Ravagés II » : FANNY MARCON + MUSÉE DE LA MATIÈRE NOIRE + CORIOLAN & AGRAFUZZ + Expo collages","artist":"","youtube_video_id":"","bandcamp_url":"","bandcamp_embed_url":""}]}},{"type":"Feature","id":"toulouse-distorama-betty-pop-s","geometry":{"type":"Point","coordinates":[1.4285574,43.5988092]},"properties":{"name":"Betty Pop's","category":"Concert Bar","icon":"fa-music","address":"Place du Ravelin 31300 Toulouse","logo":"","events":[{"date":"2026-05-16","time":"21h30","price":"Gratuit","desc":"DJ KONSTROY (post-pk, darkwave)","artist":"DJ KONSTROY","youtube_video_id":"JEyZfckbUaQ","bandcamp_url":"","bandcamp_embed_url":""}]}},{"type":"Feature","id":"toulouse-distorama-le-motor","geometry":{"type":"Point","coordinates":[1.4502034,43.6225201]},"properties":{"name":"Le Motor","category":"Concert Bar","icon":"fa-music","address":"Le Motor Toulouse","logo":"","events":[{"date":"2026-05-21","time":"19h","price":"Prix Libre","desc":"GUTBUGS (eggpk Tls) + LITOVSK (pk Brest) + NIGHTWATCHERS (pk Tls)","artist":"GUTBUGS (eggpk Tls) + LITOVSK (pk Brest) + NIGHTWATCHERS","youtube_video_id":"IDqMB6C1uys","bandcamp_url":"","bandcamp_embed_url":""}]}},{"type":"Feature","id":"toulouse-distorama-axis-musique","geometry":{"type":"Point","coordinates":[1.3974931,43.5472325]},"properties":{"name":"Axis Music","category":"Concert Bar","icon":"fa-music","address":"7 impasse Boudeville 31100 Toulouse","logo":"","events":[{"date":"2026-05-21","time":"","price":"19H45","desc":"Soirée soutien au Labo des Arts : PACKAGING (Indie Psych New Wave US)","artist":"","youtube_video_id":"","bandcamp_url":"","bandcamp_embed_url":""}]}},{"type":"Feature","id":"toulouse-distorama-metronum","geometry":{"type":"Point","coordinates":[1.4506,43.6415]},"properties":{"name":"Le Metronum","category":"Concert Bar","icon":"fa-music","address":"Rond-Point de Mondonville 31200 Toulouse","logo":"","events":[{"date":"2026-05-22","time":"20h","price":"17€ prévente / 20€ sur place","desc":"KAS PRODUCT RELOAD (after pk electro) + MALEFIXIO (goth) + AUGUST ANGST (cinematic goth)","artist":"KAS PRODUCT RELOAD (after pk electro) + MALEFIXIO (goth) + AUGUST ANGST","youtube_video_id":"q7ufDPbr35Y","bandcamp_url":"","bandcamp_embed_url":""}]}},{"type":"Feature","id":"toulouse-distorama-l-engrenage","geometry":{"type":"Point","coordinates":[1.4880684,43.6274411]},"properties":{"name":"L'Engrenage","category":"Concert Bar","icon":"fa-music","address":"14 rue Louis Renault 31130 Balma","logo":"","events":[{"date":"2026-05-22","time":"20h","price":"15€","desc":"OUTTA POCKET + HOLD MY OWN (USA) + PUSH! (Portugal) + NO SELF + SPURCITIA (metal hxc)","artist":"OUTTA POCKET + HOLD MY OWN (USA) + PUSH! (Portugal) + NO SELF + SPURCITIA","youtube_video_id":"N974XnBsxNM","bandcamp_url":"","bandcamp_embed_url":""},{"date":"2026-05-23","time":"","price":"20h – Prix libre","desc":"RED QUIET (sludge/noise) - CHIHUAS OF DEPTHS (rock alternatif) - KAALBAÅR (stoner/doom)","artist":"RED QUIET (sludge/noise) - CHIHUAS OF DEPTHS (rock alternatif) - KAALBAÅR","youtube_video_id":"polJWzHnbgU","bandcamp_url":"","bandcamp_embed_url":""}]}},{"type":"Feature","id":"toulouse-distorama-centre-culturel-la-brique-rouge","geometry":{"type":"Point","coordinates":[1.439374,43.5776521]},"properties":{"name":"Centre culturel La Brique Rouge","category":"Concert Bar","icon":"fa-music","address":"Place d'Empalot 31400 Toulouse","logo":"","events":[{"date":"2026-05-22","time":"19h","price":"Gratuit","desc":"LAMPEROUGE (prog rock) + 1° partie (rock) ","artist":"LAMPEROUGE (prog rock) + 1° partie","youtube_video_id":"5ZYtHupa9io","bandcamp_url":"","bandcamp_embed_url":""}]}},{"type":"Feature","id":"toulouse-distorama-le-metronum-music-box","geometry":{"type":"Point","coordinates":[1.4506,43.6415]},"properties":{"name":"Le Metronum","category":"Concert Bar","icon":"fa-music","address":"Rond-Point de Mondonville 31200 Toulouse","logo":"","events":[{"date":"2026-05-24","time":"","price":"20H","desc":"Soirée soutien au Labo des Arts - Elysian Fields (Rock noir - US) + Douharesse  (Matt Low chante Murat)","artist":"","youtube_video_id":"","bandcamp_url":"","bandcamp_embed_url":""}]}},{"type":"Feature","id":"toulouse-distorama-le-winger-a-confirmer","geometry":{"type":"Point","coordinates":[1.4516526,43.6108151]},"properties":{"name":"Le Winger","category":"Concert Bar","icon":"fa-music","address":"68 rue de Bayard 31000 Toulouse","logo":"","events":[{"date":"2026-05-31","time":"18h","price":"Prix Libre","desc":"I FINNEGANS (Milano, post-pk) + NUIT BLEUE (Tls, pk/noise)","artist":"I FINNEGANS (Milano, post-pk) + NUIT BLEUE","youtube_video_id":"joT2FNq4eTs","bandcamp_url":"","bandcamp_embed_url":""}]}}]}