{"type":"FeatureCollection","features":[{"type":"Feature","id":"toulouse-distorama-le-ravelin","geometry":{"type":"Point","coordinates":[1.4282089,43.599082]},"properties":{"name":"Le Ravelin","category":"Concert Bar","icon":"fa-music","address":"6 place du Ravelin 31300 Toulouse","logo":"le_ravelin.png","events":[{"date":"2026-02-18","time":"20h","price":"5€+","desc":"MOONBACK STAGE (rk grg/psyche) + BANKSTER (post pk)","artist":"MOONBACK STAGE (rk grg/psyche) + BANKSTER","youtube_video_id":"","bandcamp_url":"","bandcamp_embed_url":""}]}}]}