{"type":"FeatureCollection","features":[{"type":"Feature","id":"toulouse-distorama-bistrot-ducoin","geometry":{"type":"Point","coordinates":[1.4559708,43.6090065]},"properties":{"name":"Bistrot Ducoin","category":"Concert Bar","icon":"🎵","address":"40 rue du Général Jean Compans 31500 Toulouse","logo":"bistrot_ducoin.jpg","events":[{"time":"19h","price":"?€","desc":"Les 3 ans du Bistrot : LAS BOMBAS + BOURDY COLLECTIF + SHOESHINERS (surf rk)","artist":"Les 3 ans du Bistrot : LAS BOMBAS + BOURDY COLLECTIF + SHOESHINERS"}]}},{"type":"Feature","id":"toulouse-distorama-le-ravelin","geometry":{"type":"Point","coordinates":[1.4282089,43.599082]},"properties":{"name":"Le Ravelin","category":"Concert Bar","icon":"🎵","address":"6 place du Ravelin 31300 Toulouse","logo":"le_ravelin.png","events":[{"time":"20h","price":"?€","desc":"PRIX LIBRE (pk hxc doom) + ADOLF HIBOU (noise rkexpépkgrind)","artist":"PRIX LIBRE (pk hxc doom) + ADOLF HIBOU"}]}},{"type":"Feature","id":"toulouse-distorama-boudu-pont","geometry":{"type":"Point","coordinates":[1.4363272,43.5988936]},"properties":{"name":"Boudu pont","category":"Concert Bar","icon":"🎵","address":"1 rue de la République 31300 Toulouse","logo":"","events":[{"time":"21h","price":"Gratuit","desc":"DJ set AUDREY LYS (disco)","artist":"DJ set AUDREY LYS"}]}},{"type":"Feature","id":"toulouse-distorama-le-dada","geometry":{"type":"Point","coordinates":[1.4383337,43.6123398]},"properties":{"name":"Le Dada","category":"Concert Bar","icon":"🎵","address":"27 avenue Honoré Serres 31000 Toulouse","logo":"","events":[{"time":"20h30","price":"6/8/10€","desc":"LOVATARAXX (elctro wave/ebm, FR) + K.A.R.L. (coldwave, post-punk, FR)","artist":"LOVATARAXX (elctro wave/ebm, FR) + K.A.R.L."}]}},{"type":"Feature","id":"toulouse-distorama-the-petit-london","geometry":{"type":"Point","coordinates":[1.4538883,43.6008176]},"properties":{"name":"The Petit London","category":"Concert Bar","icon":"🎵","address":"7 rue Pierre-Paul Riquet 31000 Toulouse","logo":"","events":[{"time":"22h","price":"Gratuit","desc":"KONSTROY (post-punk/darkwave dj set)","artist":"KONSTROY"}]}}]}