{"type":"FeatureCollection","features":[{"type":"Feature","id":"toulouse-distorama-bistrot-ducoin","geometry":{"type":"Point","coordinates":[1.4559708,43.6090065]},"properties":{"name":"Bistrot Ducoin","category":"Concert Bar","icon":"🎵","address":"40 rue du Général Jean Compans 31500 Toulouse","logo":"bistrot_ducoin.jpg","events":[{"date":"2026-03-26","time":"19h30","price":"Prix Libre","desc":"Blues au coin du zinc","artist":"Blues au coin du zinc"}]}},{"type":"Feature","id":"toulouse-distorama-le-ravelin","geometry":{"type":"Point","coordinates":[1.4282089,43.599082]},"properties":{"name":"Le Ravelin","category":"Concert Bar","icon":"🎵","address":"6 place du Ravelin 31300 Toulouse","logo":"le_ravelin.png","events":[{"date":"2026-03-26","time":"20h","price":"12€","desc":"ZËRO (post noise psyche) + MARC SENS (gtr impro)","artist":"ZËRO (post noise psyche) + MARC SENS"}]}},{"type":"Feature","id":"toulouse-distorama-hangar-de-la-cepiere-14h-00h","geometry":{"type":"Point","coordinates":[1.411634,43.589859]},"properties":{"name":"Hangar de la Cépière","category":"Concert Bar","icon":"🎵","address":"8 impasse de Bagnolet 31300 Toulouse","logo":"","events":[{"date":"2026-03-26","time":"","price":"7/10€","desc":"Soirée DRAG & FEST : Drag show, marché d'artistes, prises de parole","artist":""}]}}]}