{"type":"FeatureCollection","features":[{"type":"Feature","id":"toulouse-distorama-le-ravelin","geometry":{"type":"Point","coordinates":[1.4282089,43.599082]},"properties":{"name":"Le Ravelin","category":"Concert Bar","icon":"🎵","address":"6 place du Ravelin 31300 Toulouse","logo":"le_ravelin.png","events":[{"time":"20h","price":"5/7/9€","desc":"PUBLIC CIRCUIT (trio électro) + BUTTER KNIFE (electro sur beats estivaux)","artist":"PUBLIC CIRCUIT (trio électro) + BUTTER KNIFE"}]}},{"type":"Feature","id":"toulouse-distorama-bar-belfort","geometry":{"type":"Point","coordinates":[1.4527628,43.6057612]},"properties":{"name":"Bar Belfort","category":"Concert Bar","icon":"🎵","address":"9 place Belfort 31000 Toulouse","logo":"","events":[{"time":"20h","price":"Gratuit","desc":"Vernissage → Aurélie Garnier + guest","artist":""}]}},{"type":"Feature","id":"toulouse-distorama-the-petit-london","geometry":{"type":"Point","coordinates":[1.4538883,43.6008176]},"properties":{"name":"The Petit London","category":"Concert Bar","icon":"🎵","address":"7 rue Pierre-Paul Riquet 31000 Toulouse","logo":"","events":[{"time":"21h","price":"Prix Libre (5€ conseillé)","desc":"100% Techno Live Machine → GRIT SALT + FABULATOR + REDRØWEN","artist":"100% Techno Live Machine → GRIT SALT + FABULATOR + REDRØWEN"}]}}]}