{"type":"FeatureCollection","features":[{"type":"Feature","id":"toulouse-distorama-le-ravelin","geometry":{"type":"Point","coordinates":[1.4282089,43.599082]},"properties":{"name":"Le Ravelin","category":"Concert Bar","icon":"fa-music","address":"6 place du Ravelin 31300 Toulouse","logo":"le_ravelin.png","events":[{"date":"2026-06-03","time":"20h","price":"5/7€","desc":"THE BAD PLUG (synth pk) + ARMURE (rock'n'roll piñata)","artist":"THE BAD PLUG (synth pk) + ARMURE","youtube_video_id":"EUsf0zlRlls","bandcamp_url":"","bandcamp_embed_url":""}]}}]}