{"type":"FeatureCollection","features":[{"type":"Feature","id":"toulouse-distorama-le-ravelin","geometry":{"type":"Point","coordinates":[1.4282089,43.599082]},"properties":{"name":"Le Ravelin","category":"Concert Bar","icon":"fa-music","address":"6 place du Ravelin 31300 Toulouse","logo":"le_ravelin.png","events":[{"date":"2026-04-30","time":"20h30","price":"?€","desc":"TH’ LOSIN STREAKS (sixties grg pk)","artist":"TH’ LOSIN STREAKS"}]}},{"type":"Feature","id":"toulouse-distorama-boudu-pont","geometry":{"type":"Point","coordinates":[1.4363272,43.5988936]},"properties":{"name":"Boudu pont","category":"Concert Bar","icon":"fa-music","address":"1 rue de la République 31300 Toulouse","logo":"","events":[{"date":"2026-04-30","time":"21h","price":"Gratuit","desc":"Dj set ELDELSTEIN","artist":"Dj set ELDELSTEIN"}]}},{"type":"Feature","id":"toulouse-distorama-la-mecanique-des-fluides","geometry":{"type":"Point","coordinates":[1.4537749,43.6002765]},"properties":{"name":"La Mécanique des Fluides","category":"Concert Bar","icon":"fa-music","address":"1 rue Riquet 31000 Toulouse","logo":"","events":[{"date":"2026-04-30","time":"20h","price":"?€","desc":"MOLYKOTE (oldschool deathmetal/Bilbao) + PARENTESIS 536 (crust pk/Astigarraga)","artist":"MOLYKOTE (oldschool deathmetal/Bilbao) + PARENTESIS 536"}]}},{"type":"Feature","id":"toulouse-distorama-bistrot-ducoin","geometry":{"type":"Point","coordinates":[1.4559708,43.6090065]},"properties":{"name":"Bistrot Ducoin","category":"Concert Bar","icon":"fa-music","address":"40 rue du Général Jean Compans 31500 Toulouse","logo":"bistrot_ducoin.jpg","events":[{"date":"2026-04-30","time":"19h30","price":"Prix Libre","desc":"Blues au Coin du Zinc","artist":"Blues au Coin du Zinc"}]}}]}