{"type":"FeatureCollection","features":[{"type":"Feature","id":"toulouse-distorama-boudu-pont","geometry":{"type":"Point","coordinates":[1.4363272,43.5988936]},"properties":{"name":"Boudu pont","category":"Concert Bar","icon":"🎵","address":"1 rue de la République 31300 Toulouse","logo":"","events":[{"time":"18h30","price":"Gratuit","desc":"Le Yassa de Tonton (cuisine sénégalaise)","artist":"Le Yassa de Tonton"}]}},{"type":"Feature","id":"toulouse-distorama-bar-belfort","geometry":{"type":"Point","coordinates":[1.4527628,43.6057612]},"properties":{"name":"Bar Belfort","category":"Concert Bar","icon":"🎵","address":"9 place Belfort 31000 Toulouse","logo":"","events":[{"time":"19h","price":"Gratuit","desc":"GASPARD LE VENTRE (chanson française - hard karaoke wave - pop fusion) + DJ FONDUE","artist":"GASPARD LE VENTRE (chanson française - hard karaoke wave - pop fusion) + DJ FONDUE"}]}}]}