{"type":"FeatureCollection","features":[{"type":"Feature","id":"toulouse-distorama-le-ravelin","geometry":{"type":"Point","coordinates":[1.4282089,43.599082]},"properties":{"name":"Le Ravelin","category":"Concert Bar","icon":"fa-music","address":"6 place du Ravelin 31300 Toulouse","logo":"le_ravelin.png","events":[{"date":"2026-04-02","time":"19h30","price":"5/7€","desc":"UMRA (pk furieux) + KONTAMINATE (crust raw pk)","artist":"UMRA (pk furieux) + KONTAMINATE"}]}},{"type":"Feature","id":"toulouse-distorama-bistrot-ducoin","geometry":{"type":"Point","coordinates":[1.4559708,43.6090065]},"properties":{"name":"Bistrot Ducoin","category":"Concert Bar","icon":"fa-music","address":"40 rue du Général Jean Compans 31500 Toulouse","logo":"bistrot_ducoin.jpg","events":[{"date":"2026-04-02","time":"19h30","price":"Prix Libre","desc":"LILITH SONG (pop rk)","artist":"LILITH SONG"}]}},{"type":"Feature","id":"toulouse-distorama-le-dada","geometry":{"type":"Point","coordinates":[1.4383337,43.6123398]},"properties":{"name":"Le Dada","category":"Concert Bar","icon":"fa-music","address":"27 avenue Honoré Serres 31000 Toulouse","logo":"","events":[{"date":"2026-04-02","time":"20h","price":"Prix Libre","desc":"PRONOSTIC VITAL (synth pk) + SHITTY SHED (dactylotek) + ORGANES EN SOLDES (noise) + KAYO DAYO BELIT (rap)","artist":"PRONOSTIC VITAL (synth pk) + SHITTY SHED (dactylotek) + ORGANES EN SOLDES (noise) + KAYO DAYO BELIT"}]}}]}