{"type":"FeatureCollection","features":[{"type":"Feature","id":"toulouse-distorama-boudu-pont","geometry":{"type":"Point","coordinates":[1.4363272,43.5988936]},"properties":{"name":"Boudu pont","category":"Concert Bar","icon":"🎵","address":"1 rue de la République 31300 Toulouse","logo":"","events":[{"time":"22h","price":"Gratuit","desc":"Dj set COLLECTIF CABANE (house techno)","artist":"Dj set COLLECTIF CABANE"}]}},{"type":"Feature","id":"toulouse-distorama-le-ravelin","geometry":{"type":"Point","coordinates":[1.4282089,43.599082]},"properties":{"name":"Le Ravelin","category":"Concert Bar","icon":"🎵","address":"6 place du Ravelin 31300 Toulouse","logo":"le_ravelin.png","events":[{"time":"20h","price":"?€","desc":"APRIL FOOLS (style ?)","artist":"APRIL FOOLS"}]}},{"type":"Feature","id":"toulouse-distorama-le-cameleon","geometry":{"type":"Point","coordinates":[1.433005,43.599585]},"properties":{"name":"Le Caméléon","category":"Concert Bar","icon":"🎵","address":"19 rue Pont Saint Pierre 31300 Toulouse","logo":"","events":[{"time":"20h","price":"3/5/7€","desc":"DANI BARN (dreampop/folk/trip-hop) + POMMADE (electropop alt en FR) + MAXWELL FARRINGTON (pop crooner décalé)","artist":"DANI BARN (dreampop/folk/trip-hop) + POMMADE (electropop alt en FR) + MAXWELL FARRINGTON"}]}}]}