{"type":"FeatureCollection","features":[{"type":"Feature","id":"toulouse-distorama-le-winger-a-confirmer","geometry":{"type":"Point","coordinates":[1.4516526,43.6108151]},"properties":{"name":"Le Winger","category":"Concert Bar","icon":"fa-music","address":"68 rue de Bayard 31000 Toulouse","logo":"","events":[{"date":"2026-05-31","time":"18h","price":"Prix Libre","desc":"I FINNEGANS (Milano, post-pk) + NUIT BLEUE (Tls, pk/noise)","artist":"I FINNEGANS (Milano, post-pk) + NUIT BLEUE","youtube_video_id":"joT2FNq4eTs","bandcamp_url":"","bandcamp_embed_url":""}]}},{"type":"Feature","id":"toulouse-distorama-boudu-pont","geometry":{"type":"Point","coordinates":[1.4363272,43.5988936]},"properties":{"name":"Boudu pont","category":"Concert Bar","icon":"fa-music","address":"1 rue de la République 31300 Toulouse","logo":"","events":[{"date":"2026-05-31","time":"20h","price":"Gratuit","desc":"FRÈRES POUETARDS (fanfare/ska/rk/swing)","artist":"FRÈRES POUETARDS","youtube_video_id":"kSMhB9FiCgE","bandcamp_url":"","bandcamp_embed_url":""}]}}]}