{"type":"FeatureCollection","features":[{"type":"Feature","id":"toulouse-distorama-le-winger","geometry":{"type":"Point","coordinates":[1.4516526,43.6108151]},"properties":{"name":"Le Winger","category":"Concert Bar","icon":"fa-music","address":"68 rue de Bayard 31000 Toulouse","logo":"","events":[{"date":"2026-02-01","time":"16h","price":"5€","desc":"ENTRY (USA) + VINDICTE + BLACK DROSERA (hxc/pk)","artist":"ENTRY (USA) + VINDICTE + BLACK DROSERA","youtube_video_id":"","bandcamp_url":"","bandcamp_embed_url":""},{"date":"2026-02-13","time":"19h","price":"Prix Libre","desc":"JAZZ PRANK (mathrock) +ZAPOÏ (stoner/garage)","artist":"JAZZ PRANK (mathrock) +ZAPOÏ","youtube_video_id":"jtXzsO6TUbw","bandcamp_url":"","bandcamp_embed_url":""}]}},{"type":"Feature","id":"toulouse-distorama-le-dada","geometry":{"type":"Point","coordinates":[1.4383337,43.6123398]},"properties":{"name":"Le Dada","category":"Concert Bar","icon":"fa-music","address":"27 avenue Honoré Serres 31000 Toulouse","logo":"","events":[{"date":"2026-02-02","time":"20h30","price":"5€ adhésion annuelle","desc":"Les Vidéophages (Projection de courts-métrages)","artist":"","youtube_video_id":"","bandcamp_url":"","bandcamp_embed_url":""},{"date":"2026-02-07","time":"19h","price":"5/7/9€","desc":"LOA FRIDA (electronica magnétique) + ZELEZNA (ambient sauvage) + 2 DJ sets (techno, acid, psyche)","artist":"LOA FRIDA (electronica magnétique) + ZELEZNA (ambient sauvage) + 2 DJ sets","youtube_video_id":"","bandcamp_url":"","bandcamp_embed_url":""},{"date":"2026-02-19","time":"19h30","price":"5/7/9 €","desc":"FANNY MARCON (incantations sonores hypnotiques) + PERPETTE (traditionnel cyclique) + CAILLETTE (dj set techno, break, pk...) + ROCHEL (dj set dub, post pk, acid) + PRIEE PCION (dj set ambient, dub)","artist":"FANNY MARCON (incantations sonores hypnotiques) + PERPETTE (traditionnel cyclique) + CAILLETTE (dj set techno, break, pk...) + ROCHEL (dj set dub, post pk, acid) + PRIEE PCION","youtube_video_id":"","bandcamp_url":"","bandcamp_embed_url":""}]}},{"type":"Feature","id":"toulouse-distorama-bistrot-ducoin","geometry":{"type":"Point","coordinates":[1.4559708,43.6090065]},"properties":{"name":"Bistrot Ducoin","category":"Concert Bar","icon":"fa-music","address":"40 rue du Général Jean Compans 31500 Toulouse","logo":"bistrot_ducoin.jpg","events":[{"date":"2026-02-05","time":"19h30","price":"","desc":"Les punks à crêpes (soirée à thème)","artist":"","youtube_video_id":"","bandcamp_url":"","bandcamp_embed_url":""},{"date":"2026-02-06","time":"21h","price":"Prix Libre","desc":"TODO MATCH + LITTLE HAVANA (pk rk)","artist":"TODO MATCH + LITTLE HAVANA","youtube_video_id":"","bandcamp_url":"","bandcamp_embed_url":""},{"date":"2026-02-11","time":"19h30","price":"Gratuit","desc":"Vernissage BLITZ","artist":"","youtube_video_id":"","bandcamp_url":"","bandcamp_embed_url":""},{"date":"2026-02-12","time":"19h30","price":"Prix Libre","desc":"Tribute (solo) to BOB DYLAN","artist":"Tribute (solo) to BOB DYLAN","youtube_video_id":"","bandcamp_url":"","bandcamp_embed_url":""},{"date":"2026-02-13","time":"21h","price":"Prix Libre","desc":"AIL & HIGH 3 (reggae dub)","artist":"AIL & HIGH 3","youtube_video_id":"-7fXUhwZJiI","bandcamp_url":"","bandcamp_embed_url":""},{"date":"2026-02-19","time":"19h30","price":"Prix Libre","desc":"CELTIC LILY (duo folk/celte/pop)","artist":"CELTIC LILY","youtube_video_id":"","bandcamp_url":"","bandcamp_embed_url":""},{"date":"2026-02-20","time":"21h","price":"5€","desc":"GATTACA (rk du coin)","artist":"GATTACA","youtube_video_id":"","bandcamp_url":"","bandcamp_embed_url":""},{"date":"2026-02-26","time":"19h30","price":"Prix Libre","desc":"Blues au coin du zinc","artist":"Blues au coin du zinc","youtube_video_id":"DtH8ajkSaj4","bandcamp_url":"","bandcamp_embed_url":""},{"date":"2026-02-27","time":"21h","price":"Prix Libre","desc":"Tribute JANIS JOPLIN","artist":"Tribute JANIS JOPLIN","youtube_video_id":"","bandcamp_url":"","bandcamp_embed_url":""}]}},{"type":"Feature","id":"toulouse-distorama-gloria","geometry":{"type":"Point","coordinates":[1.4439408,43.6014516]},"properties":{"name":"Gloria","category":"Concert Bar","icon":"fa-music","address":"4 rue Peyras 31000 Toulouse","logo":"","events":[{"date":"2026-02-05","time":"18h","price":"Gratuit","desc":"Vernissage exposition « Camille Mancy »","artist":"","youtube_video_id":"","bandcamp_url":"","bandcamp_embed_url":""},{"date":"2026-02-06","time":"20h","price":"Prix Libre","desc":"RÉMI + NATHAN (esthétique folk /indé)","artist":"RÉMI + NATHAN","youtube_video_id":"","bandcamp_url":"","bandcamp_embed_url":""},{"date":"2026-02-13","time":"","price":"21H","desc":"Blind test par Ju'","artist":"Blind test par Ju'","youtube_video_id":"","bandcamp_url":"","bandcamp_embed_url":""},{"date":"2026-02-14","time":"","price":"22H","desc":"DJ set by OZAN (acid oriental)","artist":"DJ set by OZAN","youtube_video_id":"","bandcamp_url":"","bandcamp_embed_url":""},{"date":"2026-02-21","time":"20h","price":"5/7€ suggérés","desc":"NATHAN ROCHE (avant-garde crooning) + MINITELLE XEROXE (trip wave)","artist":"NATHAN ROCHE (avant-garde crooning) + MINITELLE XEROXE","youtube_video_id":"","bandcamp_url":"","bandcamp_embed_url":""},{"date":"2026-02-26","time":"20h30","price":"Prix Libre","desc":"AM HIGGINS (folk pop moderne)","artist":"AM HIGGINS","youtube_video_id":"L2qH6mXrrSE","bandcamp_url":"","bandcamp_embed_url":""}]}},{"type":"Feature","id":"toulouse-distorama-la-mecanique-des-fluides","geometry":{"type":"Point","coordinates":[1.4537749,43.6002765]},"properties":{"name":"La Mécanique des Fluides","category":"Concert Bar","icon":"fa-music","address":"1 rue Riquet 31000 Toulouse","logo":"","events":[{"date":"2026-02-06","time":"20h","price":"Prix Libre","desc":"Kids Production 31 → ONE BURNING MATCH (pk hxc/ Clermont Ferrand) + LUNDI BRÛLE (pk rk/ Tls)","artist":"Kids Production 31 → ONE BURNING MATCH (pk hxc/ Clermont Ferrand) + LUNDI BRÛLE","youtube_video_id":"HjoYs_3v5z4","bandcamp_url":"","bandcamp_embed_url":""},{"date":"2026-02-07","time":"22h","price":"Gratuit","desc":"DJ set LIQUEUR + HELLISHA SAUVAGE (dark electro/ dark disco/ synthwave, EBM)","artist":"DJ set LIQUEUR + HELLISHA SAUVAGE","youtube_video_id":"","bandcamp_url":"","bandcamp_embed_url":""},{"date":"2026-02-12","time":"20h","price":"5/7€","desc":"SACROSANTA DECADENCIA OCCIDENTAL (crust metallique/ Esp) + UP RIGHTS (oldschool hxc pk/ Tls)","artist":"SACROSANTA DECADENCIA OCCIDENTAL (crust metallique/ Esp) + UP RIGHTS","youtube_video_id":"","bandcamp_url":"","bandcamp_embed_url":""},{"date":"2026-02-14","time":"21h30","price":"Gratuit","desc":"Soirée St Valentin de bon goût par LES TAZ UNIS + Guest","artist":"","youtube_video_id":"","bandcamp_url":"","bandcamp_embed_url":""},{"date":"2026-02-20","time":"20h","price":"3/5/7€","desc":"REAL DEAL (hxc/Tours) + GET REAL (hxc/Albi)","artist":"REAL DEAL (hxc/Tours) + GET REAL","youtube_video_id":"","bandcamp_url":"","bandcamp_embed_url":""},{"date":"2026-02-21","time":"20h","price":"Prix Libre","desc":"MUDDY (stoner gunge/Bdx) + BLACK DROP (stoner grunge)","artist":"MUDDY (stoner gunge/Bdx) + BLACK DROP","youtube_video_id":"","bandcamp_url":"","bandcamp_embed_url":""},{"date":"2026-02-24","time":"20h","price":"5/7€","desc":"YOUTH CRUSHER (hxc pk/Grèce) + ANIFORA (pk hxc/Grèce)","artist":"YOUTH CRUSHER (hxc pk/Grèce) + ANIFORA","youtube_video_id":"","bandcamp_url":"","bandcamp_embed_url":""},{"date":"2026-02-28","time":"19h30","price":"Prix Libre (5/7€ suggerés)","desc":"PÉNITENT (hard rk éméché/Marseille) + BATAILLE (métal Noir / donjon synth/Nantes)","artist":"PÉNITENT (hard rk éméché/Marseille) + BATAILLE","youtube_video_id":"","bandcamp_url":"","bandcamp_embed_url":""}]}},{"type":"Feature","id":"toulouse-distorama-le-ravelin","geometry":{"type":"Point","coordinates":[1.4282089,43.599082]},"properties":{"name":"Le Ravelin","category":"Concert Bar","icon":"fa-music","address":"6 place du Ravelin 31300 Toulouse","logo":"le_ravelin.png","events":[{"date":"2026-02-06","time":"20h","price":"5€","desc":"ROBERT & MITCHUM (pop rk) + HANDY CURSE (indie-folk)","artist":"ROBERT & MITCHUM (pop rk) + HANDY CURSE","youtube_video_id":"","bandcamp_url":"","bandcamp_embed_url":""},{"date":"2026-02-08","time":"","price":"14h-19h","desc":"Fripe & Spritz","artist":"Fripe & Spritz","youtube_video_id":"cmSApBkT0HE","bandcamp_url":"https://kakakidsrecords.bandcamp.com/merch/t-shirt-massicot","bandcamp_embed_url":""},{"date":"2026-02-13","time":"20h","price":"Prix Libre","desc":"MISTY WHITE AND THE COUNTRY BRAVIDOS (indie pop) + JÉRÔME SAGE (chansons françaises en vrille)","artist":"MISTY WHITE AND THE COUNTRY BRAVIDOS (indie pop) + JÉRÔME SAGE","youtube_video_id":"RKS3mRIHUf0","bandcamp_url":"","bandcamp_embed_url":""},{"date":"2026-02-14","time":"20h","price":"6€","desc":"CHALEUR (post pk tropical) + NAAN (pk rap)","artist":"CHALEUR (post pk tropical) + NAAN","youtube_video_id":"","bandcamp_url":"","bandcamp_embed_url":""},{"date":"2026-02-15","time":"20h","price":"Prix Libre","desc":"SHARP PINS (pop psychédélique)","artist":"SHARP PINS","youtube_video_id":"","bandcamp_url":"","bandcamp_embed_url":""},{"date":"2026-02-18","time":"20h","price":"5€+","desc":"MOONBACK STAGE (rk grg/psyche) + BANKSTER (post pk)","artist":"MOONBACK STAGE (rk grg/psyche) + BANKSTER","youtube_video_id":"","bandcamp_url":"","bandcamp_embed_url":""},{"date":"2026-02-20","time":"20h","price":"Prix Libre","desc":" *ANNULE!!* IRE (post hxc)","artist":"*ANNULE!!* IRE","youtube_video_id":"V6JZW0rTqcs","bandcamp_url":"","bandcamp_embed_url":""},{"date":"2026-02-21","time":"19h","price":"5€ ou +","desc":"Week-end d’inauguration → BIG T AND THE NUTS + VOISINS VIGILANTS + KAVALIER KASQUES (new wave) + Dj set (ARTÈRE FÉMORALE DANCING CLUB w/ KRIS VON RANCE)","artist":"","youtube_video_id":"","bandcamp_url":"","bandcamp_embed_url":""},{"date":"2026-02-22","time":"12h","price":"Gratuit","desc":"Week-end d’inauguration → Vermut Musical (apéro catalan et tapas + DJ set [JORDI from Spanish Harlems w/ DUKE OF EARLY])","artist":"","youtube_video_id":"","bandcamp_url":"","bandcamp_embed_url":""},{"date":"2026-02-25","time":"20h","price":"TBA","desc":"USERBAND (indie pop) + Guest","artist":"USERBAND (indie pop) + Guest","youtube_video_id":"7-5Upq2hcOA","bandcamp_url":"","bandcamp_embed_url":""},{"date":"2026-02-28","time":"20h","price":"5€ min","desc":"CP WESTMAN ORKESTER (grg pk no borders - release party) + ARMURE (medieval post pop)","artist":"CP WESTMAN ORKESTER (grg pk no borders - release party) + ARMURE","youtube_video_id":"CPcYy3Xkuco","bandcamp_url":"","bandcamp_embed_url":""}]}},{"type":"Feature","id":"toulouse-distorama-boudu-pont","geometry":{"type":"Point","coordinates":[1.4363272,43.5988936]},"properties":{"name":"Boudu pont","category":"Concert Bar","icon":"fa-music","address":"1 rue de la République 31300 Toulouse","logo":"","events":[{"date":"2026-02-06","time":"21h","price":"Gratuit","desc":"Dj set EKYOZ (tropical bass, bass music et drum&bass)","artist":"Dj set EKYOZ","youtube_video_id":"SJZoEN1yfB0","bandcamp_url":"","bandcamp_embed_url":""},{"date":"2026-02-07","time":"22h","price":"Gratuit","desc":"Blind test + Bootyshake","artist":"Blind test + Bootyshake","youtube_video_id":"wRyD81oBUSM","bandcamp_url":"","bandcamp_embed_url":""},{"date":"2026-02-08","time":"18h","price":"Gratuit","desc":"Concert « Soll » folk","artist":"","youtube_video_id":"","bandcamp_url":"","bandcamp_embed_url":""},{"date":"2026-02-12","time":"","price":"17h à 23h","desc":"Blind test et karaoké, anniversaire LA CLOCHE","artist":"","youtube_video_id":"","bandcamp_url":"","bandcamp_embed_url":""},{"date":"2026-02-13","time":"21h","price":"Gratuit","desc":"Dj set CHEMICAL DISTRICT (funky hip-hop/UK grg/drum'n'bass)","artist":"Dj set CHEMICAL DISTRICT","youtube_video_id":"","bandcamp_url":"","bandcamp_embed_url":""},{"date":"2026-02-14","time":"22h","price":"Gratuit","desc":"Quiz et blind test spécial Saint Valentin","artist":"Quiz et blind test spécial Saint Valentin","youtube_video_id":"","bandcamp_url":"","bandcamp_embed_url":""},{"date":"2026-02-15","time":"17h","price":"Gratuit","desc":"Jam irlandaise","artist":"Jam irlandaise","youtube_video_id":"xviP4-z_iRY","bandcamp_url":"","bandcamp_embed_url":""},{"date":"2026-02-20","time":"21h","price":"Gratuit","desc":"TRAKOEUR + LIIZI + LUCILLE ONDES + ELISPEN (rap/pop electro)","artist":"TRAKOEUR + LIIZI + LUCILLE ONDES + ELISPEN","youtube_video_id":"","bandcamp_url":"","bandcamp_embed_url":""},{"date":"2026-02-21","time":"22h","price":"Gratuit","desc":"Karaoké + Bootyshake","artist":"Karaoké + Bootyshake","youtube_video_id":"","bandcamp_url":"","bandcamp_embed_url":""},{"date":"2026-02-25","time":"21h","price":"Gratuit","desc":"Marionnettissimo → Puppets night « Chouchou Tour » (spectacle de marionnettes)","artist":"Marionnettissimo → Puppets night « Chouchou Tour »","youtube_video_id":"","bandcamp_url":"","bandcamp_embed_url":""},{"date":"2026-02-27","time":"21h","price":"Gratuit","desc":"Dj set éclectique → ALEX ARMEN (open format)","artist":"Dj set éclectique → ALEX ARMEN","youtube_video_id":"","bandcamp_url":"","bandcamp_embed_url":""},{"date":"2026-02-28","time":"21h","price":"Gratuit","desc":"PAMELA NIGHTS (chansons groovy/funk/groove/disco)","artist":"PAMELA NIGHTS","youtube_video_id":"","bandcamp_url":"","bandcamp_embed_url":""}]}},{"type":"Feature","id":"toulouse-distorama-dalidaark","geometry":{"type":"Point","coordinates":[1.4318769,43.5988684]},"properties":{"name":"Dalidaark","category":"Concert Bar","icon":"fa-music","address":"39 rue Réclusane 31300 Toulouse","logo":"dalidaark.png","events":[{"date":"2026-02-07","time":"20h","price":"5€","desc":"LE BARON DE VINCÈSE (mathrk) + FWK (stoner)","artist":"LE BARON DE VINCÈSE (mathrk) + FWK","youtube_video_id":"y8zTFbPQzxE","bandcamp_url":"","bandcamp_embed_url":""}]}},{"type":"Feature","id":"toulouse-distorama-les-merles-moqueurs","geometry":{"type":"Point","coordinates":[1.422521,43.5958665]},"properties":{"name":"Les Merles Moqueurs","category":"Concert Bar","icon":"fa-music","address":"8 allées Maurice Sarraut 31300 Toulouse","logo":"","events":[{"date":"2026-02-07","time":"20h30","price":"Gratuit","desc":"BEHIND THE WINDOW (pop folk)","artist":"BEHIND THE WINDOW","youtube_video_id":"","bandcamp_url":"","bandcamp_embed_url":""}]}},{"type":"Feature","id":"toulouse-distorama-mjc-roguet-pink-night","geometry":{"type":"Point","coordinates":[1.4268874,43.5963024]},"properties":{"name":"MJC Roguet","category":"Concert Bar","icon":"fa-music","address":"9 rue de Gascogne 31300 Toulouse","logo":"","events":[{"date":"2026-02-07","time":"18h","price":"Prix Libre","desc":"CERNIA (rock fusion) + BIMORPH (metal prog) + LAMPE ROUGE (rock cosmique) ","artist":"CERNIA (rock fusion) + BIMORPH (metal prog) + LAMPE ROUGE","youtube_video_id":"MRtjNc2EDMc","bandcamp_url":"","bandcamp_embed_url":""}]}},{"type":"Feature","id":"toulouse-distorama-ipn","geometry":{"type":"Point","coordinates":[1.4495423,43.6159627]},"properties":{"name":"IPN","category":"Concert Bar","icon":"fa-music","address":"30 rue des Jumeaux 31000 Toulouse","logo":"","events":[{"date":"2026-02-12","time":"19h","price":"7€ prévente / 10€ sur place (+ 1€ adhésion)","desc":"THE SERFS (synthpk indus) + BODY MAINTENANCE (postpk goth) + LAURA BOLT (synthpop éthérée) + friperie Hyperpop","artist":"THE SERFS (synthpk indus) + BODY MAINTENANCE (postpk goth) + LAURA BOLT (synthpop éthérée) + friperie Hyperpop","youtube_video_id":"Vc2Bu7TJgEs","bandcamp_url":"","bandcamp_embed_url":""}]}},{"type":"Feature","id":"toulouse-distorama-labo-des-arts","geometry":{"type":"Point","coordinates":[1.4652089,43.6055126]},"properties":{"name":"Labo Des Arts","category":"Concert Bar","icon":"fa-music","address":"8 rue Clément 31500 Toulouse","logo":"","events":[{"date":"2026-02-20","time":"","price":"19H30","desc":"ASTROMILK (rk indé) + STEPHAN (pop folk)","artist":"ASTROMILK (rk indé) + STEPHAN","youtube_video_id":"hxW1FqWtH8g","bandcamp_url":"","bandcamp_embed_url":""}]}},{"type":"Feature","id":"toulouse-distorama-thirsty-monk","geometry":{"type":"Point","coordinates":[1.4538991,43.6090951]},"properties":{"name":"The Thirsty Monk","category":"Concert Bar","icon":"fa-music","address":"Allées Jean Jaurès 31000 Toulouse","logo":"","events":[{"date":"2026-02-20","time":"21h30","price":"Prix Libre","desc":"VOLTA (rock) + YAPA (punk rock)","artist":"VOLTA (rock) + YAPA","youtube_video_id":"C9Z8n_D6DsQ","bandcamp_url":"","bandcamp_embed_url":""}]}},{"type":"Feature","id":"toulouse-distorama-le-cameleon","geometry":{"type":"Point","coordinates":[1.433005,43.599585]},"properties":{"name":"Le Caméléon","category":"Concert Bar","icon":"fa-music","address":"19 rue Pont Saint Pierre 31300 Toulouse","logo":"","events":[{"date":"2026-02-20","time":"20h","price":"3/5/7€","desc":"DONKET STOCK PARTY x ÉTIENNE GAZEL (folk) + CHEVALIERE DU JAZZ (live solo de adorablesteak96)","artist":"DONKET STOCK PARTY x ÉTIENNE GAZEL (folk) + CHEVALIERE DU JAZZ","youtube_video_id":"","bandcamp_url":"","bandcamp_embed_url":""}]}},{"type":"Feature","id":"toulouse-distorama-le-circographe","geometry":{"type":"Point","coordinates":[1.4222551,43.6196165]},"properties":{"name":"Le Circographe","category":"Concert Bar","icon":"fa-music","address":"Le Circographe Toulouse","logo":"","events":[{"date":"2026-02-21","time":"","price":"17:30/23:30","desc":"BOUM DES PUSSYCAT MOLLES avec HELLISHA (downtempo) + LAO (Techno to shatta) + NABLAST x ASKATA (psytrance orchestrale)","artist":"BOUM DES PUSSYCAT MOLLES avec HELLISHA (downtempo) + LAO (Techno to shatta) + NABLAST x ASKATA","youtube_video_id":"q4cHTy_OdvI","bandcamp_url":"","bandcamp_embed_url":""}]}},{"type":"Feature","id":"toulouse-distorama-the-petit-london","geometry":{"type":"Point","coordinates":[1.4538883,43.6008176]},"properties":{"name":"The Petit London","category":"Concert Bar","icon":"fa-music","address":"7 rue Pierre-Paul Riquet 31000 Toulouse","logo":"","events":[{"date":"2026-02-21","time":"22h","price":"Prix Libre","desc":"SONS OF ACHAB (industrial footwork) + KONTROLL TEK (teckno punk) + SPAGHETTICORE (harsh techno) ","artist":"SONS OF ACHAB (industrial footwork) + KONTROLL TEK (teckno punk) + SPAGHETTICORE","youtube_video_id":"I3YDzpxnhm0","bandcamp_url":"","bandcamp_embed_url":""}]}},{"type":"Feature","id":"toulouse-distorama-betty-pop-s-22h","geometry":{"type":"Point","coordinates":[1.4285574,43.5988092]},"properties":{"name":"Betty Pop's","category":"Concert Bar","icon":"fa-music","address":"Place du Ravelin 31300 Toulouse","logo":"","events":[{"date":"2026-02-21","time":"","price":"Gratuit","desc":"LADY MISS PENELOPE - Dj set vinyl Untypical girls (From funk to punk)  ","artist":"LADY MISS PENELOPE - Dj set vinyl Untypical girls","youtube_video_id":"","bandcamp_url":"","bandcamp_embed_url":""}]}},{"type":"Feature","id":"toulouse-distorama-local-piquemil","geometry":{"type":"Point","coordinates":[1.4324351,43.5992796]},"properties":{"name":"Local Piquemil","category":"Concert Bar","icon":"fa-music","address":"6 rue Piquemil 31300 Toulouse","logo":"","events":[{"date":"2026-02-21","time":"21h","price":"Prix Libre","desc":"DIS MIST (folk emo aquarelle) + ARC EN CIEL (solo synth speed punk caverneux) + SUKKUBE (DJ techno mélo)","artist":"DIS MIST (folk emo aquarelle) + ARC EN CIEL (solo synth speed punk caverneux) + SUKKUBE","youtube_video_id":"E-xQrSI_nAg","bandcamp_url":"","bandcamp_embed_url":""}]}},{"type":"Feature","id":"toulouse-distorama-l-autan-bar","geometry":{"type":"Point","coordinates":[1.43883,43.6117922]},"properties":{"name":"L'Autan","category":"Concert Bar","icon":"fa-music","address":"58 boulevard d'Arcole 31000 Toulouse","logo":"","events":[{"date":"2026-02-26","time":"18h30","price":"Gratuit","desc":"THE TENSIONS (grg pk) + BIG T AND THE NUTS (pk rk)","artist":"THE TENSIONS (grg pk) + BIG T AND THE NUTS","youtube_video_id":"","bandcamp_url":"","bandcamp_embed_url":""}]}},{"type":"Feature","id":"toulouse-distorama-betty-pop-s","geometry":{"type":"Point","coordinates":[1.4285574,43.5988092]},"properties":{"name":"Betty Pop's","category":"Concert Bar","icon":"fa-music","address":"Place du Ravelin 31300 Toulouse","logo":"","events":[{"date":"2026-02-27","time":"22h","price":"Gratuit","desc":"Fin de série DJ set (indus, electropk, synthpk, devocore, darkwave, EBM)","artist":"Fin de série DJ set","youtube_video_id":"","bandcamp_url":"","bandcamp_embed_url":""}]}}]}