{"type":"FeatureCollection","features":[{"type":"Feature","id":"toulouse-distorama-le-ravelin","geometry":{"type":"Point","coordinates":[1.4282089,43.599082]},"properties":{"name":"Le Ravelin","category":"Concert Bar","icon":"🎵","address":"6 place du Ravelin 31300 Toulouse","logo":"le_ravelin.png","events":[{"time":"19h","price":"5€ ou +","desc":"Week-end d’inauguration → BIG T AND THE NUTS + VOISINS VIGILANTS + KAVALIER KASQUES (new wave) + Dj set (ARTÈRE FÉMORALE DANCING CLUB w/ KRIS VON RANCE)","artist":""}]}},{"type":"Feature","id":"toulouse-distorama-gloria","geometry":{"type":"Point","coordinates":[1.4439408,43.6014516]},"properties":{"name":"Gloria","category":"Concert Bar","icon":"🎵","address":"4 rue Peyras 31000 Toulouse","logo":"","events":[{"time":"20h","price":"5/7€ suggérés","desc":"NATHAN ROCHE (avant-garde crooning) + MINITELLE XEROXE (trip wave)","artist":"NATHAN ROCHE (avant-garde crooning) + MINITELLE XEROXE"}]}},{"type":"Feature","id":"toulouse-distorama-boudu-pont","geometry":{"type":"Point","coordinates":[1.4363272,43.5988936]},"properties":{"name":"Boudu pont","category":"Concert Bar","icon":"🎵","address":"1 rue de la République 31300 Toulouse","logo":"","events":[{"time":"22h","price":"Gratuit","desc":"Karaoké + Bootyshake","artist":"Karaoké + Bootyshake"}]}},{"type":"Feature","id":"toulouse-distorama-la-mecanique-des-fluides","geometry":{"type":"Point","coordinates":[1.4537749,43.6002765]},"properties":{"name":"La Mécanique des Fluides","category":"Concert Bar","icon":"🎵","address":"1 rue Riquet 31000 Toulouse","logo":"mecanique_des_fluides.png","events":[{"time":"20h","price":"Prix Libre","desc":"MUDDY (stoner gunge/Bdx) + BLACK DROP (stoner grunge)","artist":"MUDDY (stoner gunge/Bdx) + BLACK DROP"}]}},{"type":"Feature","id":"toulouse-distorama-the-petit-london","geometry":{"type":"Point","coordinates":[1.4538883,43.6008176]},"properties":{"name":"The Petit London","category":"Concert Bar","icon":"🎵","address":"7 rue Pierre-Paul Riquet 31000 Toulouse","logo":"","events":[{"time":"22h","price":"Prix Libre","desc":"SONS OF ACHAB (industrial footwork) + KONTROLL TEK (teckno punk) + SPAGHETTICORE (harsh techno) ","artist":"SONS OF ACHAB (industrial footwork) + KONTROLL TEK (teckno punk) + SPAGHETTICORE"}]}}]}