{"type":"FeatureCollection","features":[{"type":"Feature","id":"toulouse-distorama-boudu-pont","geometry":{"type":"Point","coordinates":[1.4363272,43.5988936]},"properties":{"name":"Boudu pont","category":"Concert Bar","icon":"🎵","address":"1 rue de la République 31300 Toulouse","logo":"","events":[{"date":"2026-03-06","time":"21h","price":"Gratuit","desc":"Dj set EKYOZ (tropical bass music + D’n’B)","artist":"Dj set EKYOZ"}]}},{"type":"Feature","id":"toulouse-distorama-la-mecanique-des-fluides","geometry":{"type":"Point","coordinates":[1.4537749,43.6002765]},"properties":{"name":"La Mécanique des Fluides","category":"Concert Bar","icon":"🎵","address":"1 rue Riquet 31000 Toulouse","logo":"","events":[{"date":"2026-03-06","time":"20h","price":"5€","desc":"DISTOPIANOMEN (death metal, Salamanca) + DELIVER THE SUFFERING (thrash-death metal)","artist":"DISTOPIANOMEN (death metal, Salamanca) + DELIVER THE SUFFERING"}]}},{"type":"Feature","id":"toulouse-distorama-le-ravelin","geometry":{"type":"Point","coordinates":[1.4282089,43.599082]},"properties":{"name":"Le Ravelin","category":"Concert Bar","icon":"🎵","address":"6 place du Ravelin 31300 Toulouse","logo":"le_ravelin.png","events":[{"date":"2026-03-06","time":"20h","price":"Prix Libre","desc":"ARRROGANT (pk noisy) + ROTI BONDAGE (pk hxc)","artist":"ARRROGANT (pk noisy) + ROTI BONDAGE"}]}},{"type":"Feature","id":"toulouse-distorama-bistrot-ducoin","geometry":{"type":"Point","coordinates":[1.4559708,43.6090065]},"properties":{"name":"Bistrot Ducoin","category":"Concert Bar","icon":"🎵","address":"40 rue du Général Jean Compans 31500 Toulouse","logo":"bistrot_ducoin.jpg","events":[{"date":"2026-03-06","time":"21h","price":"Prix Libre","desc":"TAK ! (post pk)","artist":"TAK !"}]}},{"type":"Feature","id":"toulouse-distorama-the-petit-london","geometry":{"type":"Point","coordinates":[1.4538883,43.6008176]},"properties":{"name":"The Petit London","category":"Concert Bar","icon":"🎵","address":"7 rue Pierre-Paul Riquet 31000 Toulouse","logo":"","events":[{"date":"2026-03-06","time":"22h","price":"Gratuit","desc":"MAMELLE BENT (RnB, dancehall)","artist":"MAMELLE BENT"}]}},{"type":"Feature","id":"toulouse-distorama-l-astronef","geometry":{"type":"Point","coordinates":[1.4602098,43.5769862]},"properties":{"name":"L'Astronef","category":"Concert Bar","icon":"🎵","address":"L'Astronef Toulouse","logo":"","events":[{"date":"2026-03-06","time":"","price":"","desc":"Exposition de gravures de Delphine Klos (jusqu'au 7 avril)","artist":""}]}}]}