{"type":"FeatureCollection","features":[{"type":"Feature","id":"toulouse-distorama-la-mecanique-des-fluides","geometry":{"type":"Point","coordinates":[1.4537647,43.6072494]},"properties":{"name":"La Mécanique des Fluides","category":"Concert Bar","icon":"fa-music","address":"1 rue Riquet 31000 Toulouse","logo":"","events":[{"date":"2026-04-29","time":"20h","price":"5/7€","desc":"EDHOCHULI (post hxc/USA) + TROMBLON (emo violence)","artist":"EDHOCHULI (post hxc/USA) + TROMBLON","youtube_video_id":"","bandcamp_url":"","bandcamp_embed_url":""}]}}]}