{"type":"FeatureCollection","features":[{"type":"Feature","id":"toulouse-distorama-boudu-pont","geometry":{"type":"Point","coordinates":[1.4363272,43.5988936]},"properties":{"name":"Boudu pont","category":"Concert Bar","icon":"fa-music","address":"1 rue de la République 31300 Toulouse","logo":"","events":[{"date":"2026-01-10","time":"21h","price":"Gratuit","desc":"DJ set, COLLECTIF CARABINE (disco, house, indie)","artist":"DJ set, COLLECTIF CARABINE","youtube_video_id":"","bandcamp_url":"","bandcamp_embed_url":""}]}},{"type":"Feature","id":"toulouse-distorama-dagobar","geometry":{"type":"Point","coordinates":[1.4437868,43.5983682]},"properties":{"name":"Dagobar","category":"Concert Bar","icon":"fa-music","address":"Dagobar Toulouse","logo":"","events":[{"date":"2026-01-10","time":"21h","price":"Gratuit","desc":"BASS UNITED : NUANCE + DUBKILLAH (dubstep/d&b)","artist":"BASS UNITED : NUANCE + DUBKILLAH","youtube_video_id":"","bandcamp_url":"","bandcamp_embed_url":""}]}}]}