{"type":"FeatureCollection","features":[{"type":"Feature","id":"toulouse-distorama-la-mecanique-des-fluides","geometry":{"type":"Point","coordinates":[1.4537749,43.6002765]},"properties":{"name":"La Mécanique des Fluides","category":"Concert Bar","icon":"🎵","address":"1 rue Riquet 31000 Toulouse","logo":"","events":[{"date":"2026-02-06","time":"20h","price":"Prix Libre","desc":"Kids Production 31 → ONE BURNING MATCH (pk hxc/ Clermont Ferrand) + LUNDI BRÛLE (pk rk/ Tls)","artist":"Kids Production 31 → ONE BURNING MATCH (pk hxc/ Clermont Ferrand) + LUNDI BRÛLE"}]}},{"type":"Feature","id":"toulouse-distorama-bistrot-ducoin","geometry":{"type":"Point","coordinates":[1.4559708,43.6090065]},"properties":{"name":"Bistrot Ducoin","category":"Concert Bar","icon":"🎵","address":"40 rue du Général Jean Compans 31500 Toulouse","logo":"bistrot_ducoin.jpg","events":[{"date":"2026-02-06","time":"21h","price":"Prix Libre","desc":"TODO MATCH + LITTLE HAVANA (pk rk)","artist":"TODO MATCH + LITTLE HAVANA"}]}},{"type":"Feature","id":"toulouse-distorama-le-ravelin","geometry":{"type":"Point","coordinates":[1.4282089,43.599082]},"properties":{"name":"Le Ravelin","category":"Concert Bar","icon":"🎵","address":"6 place du Ravelin 31300 Toulouse","logo":"le_ravelin.png","events":[{"date":"2026-02-06","time":"20h","price":"5€","desc":"ROBERT & MITCHUM (pop rk) + HANDY CURSE (indie-folk)","artist":"ROBERT & MITCHUM (pop rk) + HANDY CURSE"}]}},{"type":"Feature","id":"toulouse-distorama-boudu-pont","geometry":{"type":"Point","coordinates":[1.4363272,43.5988936]},"properties":{"name":"Boudu pont","category":"Concert Bar","icon":"🎵","address":"1 rue de la République 31300 Toulouse","logo":"","events":[{"date":"2026-02-06","time":"21h","price":"Gratuit","desc":"Dj set EKYOZ (tropical bass, bass music et drum&bass)","artist":"Dj set EKYOZ"}]}},{"type":"Feature","id":"toulouse-distorama-gloria","geometry":{"type":"Point","coordinates":[1.4439408,43.6014516]},"properties":{"name":"Gloria","category":"Concert Bar","icon":"🎵","address":"4 rue Peyras 31000 Toulouse","logo":"","events":[{"date":"2026-02-06","time":"20h","price":"Prix Libre","desc":"RÉMI + NATHAN (esthétique folk /indé)","artist":"RÉMI + NATHAN"}]}}]}