{"type":"FeatureCollection","features":[{"type":"Feature","id":"toulouse-distorama-la-mecanique-des-fluides","geometry":{"type":"Point","coordinates":[1.4537749,43.6002765]},"properties":{"name":"La Mécanique des Fluides","category":"Concert Bar","icon":"fa-music","address":"1 rue Riquet 31000 Toulouse","logo":"","events":[{"date":"2026-04-27","time":"19h30","price":"3/5/7€","desc":"NATURE MORTE (blackgaze/Paris) + AETHERIA CONSCIENTIA (prog black/Nantes)","artist":"NATURE MORTE (blackgaze/Paris) + AETHERIA CONSCIENTIA","youtube_video_id":"LqIKle5atJI","bandcamp_url":"","bandcamp_embed_url":""}]}}]}