{"type":"FeatureCollection","features":[{"type":"Feature","id":"toulouse-distorama-le-ravelin","geometry":{"type":"Point","coordinates":[1.4282089,43.599082]},"properties":{"name":"Le Ravelin","category":"Concert Bar","icon":"🎵","address":"6 place du Ravelin 31300 Toulouse","logo":"le_ravelin.png","events":[{"time":"20h","price":"Prix Libre","desc":"INDIOS DIEGO (style ?)","artist":"INDIOS DIEGO"}]}},{"type":"Feature","id":"toulouse-distorama-la-mecanique-des-fluides","geometry":{"type":"Point","coordinates":[1.4537749,43.6002765]},"properties":{"name":"La Mécanique des Fluides","category":"Concert Bar","icon":"🎵","address":"1 rue Riquet 31000 Toulouse","logo":"mecanique_des_fluides.png","events":[{"time":"20h","price":"Prix Libre","desc":"SWESOR BHRATER (dark wave/neo folk) + AUGUST ANGST (gothic rk/dark folk)","artist":"SWESOR BHRATER (dark wave/neo folk) + AUGUST ANGST"}]}}]}