{"type":"FeatureCollection","features":[{"type":"Feature","id":"toulouse-distorama-little-o-clock","geometry":{"type":"Point","coordinates":[1.5208073,43.6444525]},"properties":{"name":"Little O'Clock","category":"Concert Bar","icon":"fa-music","address":"75 allée Jean Jaurès 31000 Toulouse","logo":"","events":[{"date":"2026-01-19","time":"21h","price":"Gratuit","desc":"FRANTIC FORMS (grunge/pk) + FREEDOM UTOPIA (rk alternatif)","artist":"FRANTIC FORMS (grunge/pk) + FREEDOM UTOPIA","youtube_video_id":"QswcNcXkXRc","bandcamp_url":"","bandcamp_embed_url":""}]}}]}