{"type":"FeatureCollection","features":[{"type":"Feature","id":"toulouse-distorama-bistrot-ducoin","geometry":{"type":"Point","coordinates":[1.4559708,43.6090065]},"properties":{"name":"Bistrot Ducoin","category":"Concert Bar","icon":"🎵","address":"40 rue du Général Jean Compans 31500 Toulouse","logo":"bistrot_ducoin.jpg","events":[{"time":"21h","price":"Prix Libre","desc":"ANDRÉ GÉRARD (pk)","artist":"ANDRÉ GÉRARD"}]}},{"type":"Feature","id":"toulouse-distorama-radio-fmr-booster","geometry":{"type":"Point","coordinates":[1.4487374,43.6153004]},"properties":{"name":"Radio FMR","category":"Radio","icon":"📻","address":"9 boulevard des Minimes 31200 Toulouse","logo":"","events":[{"time":"19h","price":"Prix Libre","desc":"50/50 Release Party (rap) → RUNO + MAI DE RIMAS + SINCE + SUN + ABUDAM + CARA","artist":"50/50 Release Party (rap) → RUNO + MAI DE RIMAS + SINCE + SUN + ABUDAM + CARA"}]}},{"type":"Feature","id":"toulouse-distorama-le-ravelin","geometry":{"type":"Point","coordinates":[1.4282089,43.599082]},"properties":{"name":"Le Ravelin","category":"Concert Bar","icon":"🎵","address":"6 place du Ravelin 31300 Toulouse","logo":"le_ravelin.png","events":[{"time":"20h","price":"10€ (Prévente uniquement)","desc":"LE PRINCE HARRY (electro synth pk) + FRACTURE SQUAD (power electric)","artist":"LE PRINCE HARRY (electro synth pk) + FRACTURE SQUAD"}]}},{"type":"Feature","id":"toulouse-distorama-boudu-pont","geometry":{"type":"Point","coordinates":[1.4363272,43.5988936]},"properties":{"name":"Boudu pont","category":"Concert Bar","icon":"🎵","address":"1 rue de la République 31300 Toulouse","logo":"","events":[{"time":"18h","price":"Gratuit","desc":"Afterwork dj set JUMIEN JUMINI","artist":"Afterwork dj set JUMIEN JUMINI"}]}},{"type":"Feature","id":"toulouse-distorama-le-declic","geometry":{"type":"Point","coordinates":[1.4543659,43.6041704]},"properties":{"name":"Le Déclic","category":"Concert Bar","icon":"🎵","address":"Le Déclic Toulouse","logo":"","events":[{"time":"","price":"19h30 à 23h – Gratuit","desc":"Jam Session","artist":"Jam Session"}]}},{"type":"Feature","id":"toulouse-distorama-the-petit-london","geometry":{"type":"Point","coordinates":[1.4538883,43.6008176]},"properties":{"name":"The Petit London","category":"Concert Bar","icon":"🎵","address":"7 rue Pierre-Paul Riquet 31000 Toulouse","logo":"","events":[{"time":"22h","price":"Gratuit","desc":"SISMIK (DnB, Dubstep & hardcore)","artist":"SISMIK"}]}}]}