{"type":"FeatureCollection","features":[{"type":"Feature","id":"toulouse-distorama-le-ravelin","geometry":{"type":"Point","coordinates":[1.4282089,43.599082]},"properties":{"name":"Le Ravelin","category":"Concert Bar","icon":"fa-music","address":"6 place du Ravelin 31300 Toulouse","logo":"le_ravelin.png","events":[{"date":"2026-10-07","time":"20h","price":"8/10€","desc":"SPLIT SYSTEM (pk/Melbourne) + ASPHALT (pk)","artist":"SPLIT SYSTEM (pk/Melbourne) + ASPHALT","youtube_video_id":"TOCkvnawgbg","bandcamp_url":"","bandcamp_embed_url":""},{"date":"2026-10-08","time":"20h","price":"5/7€","desc":"CENTRAL HASHISH STORE (60's grg) + TEXARKANA (country)","artist":"CENTRAL HASHISH STORE (60's grg) + TEXARKANA","youtube_video_id":"","bandcamp_url":"","bandcamp_embed_url":""},{"date":"2026-10-09","time":"20h","price":"5+€","desc":"TONY GERRANO (chanson alt synth) + JOSY BASAR (chanson approximative et cathartique)","artist":"TONY GERRANO (chanson alt synth) + JOSY BASAR","youtube_video_id":"WWwMieWXLck","bandcamp_url":"","bandcamp_embed_url":""},{"date":"2026-10-10","time":"20h","price":"5+€","desc":"VOLCAÏNE (rk français)","artist":"VOLCAÏNE","youtube_video_id":"x9VizcbtIbw","bandcamp_url":"","bandcamp_embed_url":""},{"date":"2026-10-11","time":"20h","price":"5/7€","desc":"WESLEY AND THE BOYS (grg pk) + OK.KENNY (ctrl+d core)","artist":"WESLEY AND THE BOYS (grg pk) + OK.KENNY","youtube_video_id":"7RxUkX5lZjI","bandcamp_url":"","bandcamp_embed_url":""},{"date":"2026-10-15","time":"20h","price":"5/7/10€","desc":"ELLEN & THE BOYS (crank wv - post pk) + TBD","artist":"ELLEN & THE BOYS (crank wv - post pk) + TBD","youtube_video_id":"","bandcamp_url":"","bandcamp_embed_url":""},{"date":"2026-10-16","time":"20h","price":"5+€","desc":"LOUIS POISON (grg folk psych) + BUBBLEGUM CORAIL (synth pop it/fr)","artist":"LOUIS POISON (grg folk psych) + BUBBLEGUM CORAIL","youtube_video_id":"dSoc2BFGBXc","bandcamp_url":"","bandcamp_embed_url":""},{"date":"2026-10-17","time":"19h30","price":"5/7/9 €","desc":"DIRTY FIVE (rk) + VERNOSOLEM (rk alt)","artist":"DIRTY FIVE (rk) + VERNOSOLEM","youtube_video_id":"D4SFj6CAdPk","bandcamp_url":"","bandcamp_embed_url":""},{"date":"2026-10-20","time":"20h","price":"5+€","desc":"CHEVAL (indie pop) + BOURBIER BOUEUX (happy noise)","artist":"CHEVAL (indie pop) + BOURBIER BOUEUX","youtube_video_id":"","bandcamp_url":"","bandcamp_embed_url":""},{"date":"2026-10-22","time":"19h30","price":"5/7€","desc":"URIN (d-beat) + CH'TITE DIASPORA (synth pop) + LÉONARD KOTIK (alternative)","artist":"URIN (d-beat) + CH'TITE DIASPORA (synth pop) + LÉONARD KOTIK","youtube_video_id":"","bandcamp_url":"","bandcamp_embed_url":""},{"date":"2026-10-23","time":"20h","price":"5+€","desc":"OOZING PALMS (grg pk)","artist":"OOZING PALMS","youtube_video_id":"","bandcamp_url":"","bandcamp_embed_url":""},{"date":"2026-10-24","time":"","price":"20h -5+€","desc":"GHOST TWIST (orient grg) + FOGGY TAPES (sativa rk)","artist":"GHOST TWIST (orient grg) + FOGGY TAPES","youtube_video_id":"","bandcamp_url":"","bandcamp_embed_url":""},{"date":"2026-10-27","time":"20h","price":"5€ suggéré","desc":"LES AGAMEMNONZ (surf) + FAUSTINE SEILMAN (alt pop)","artist":"LES AGAMEMNONZ (surf) + FAUSTINE SEILMAN","youtube_video_id":"","bandcamp_url":"","bandcamp_embed_url":""},{"date":"2026-10-28","time":"20h","price":"","desc":"KELLEY STOLTZ (pop lo-fi)","artist":"KELLEY STOLTZ","youtube_video_id":"-DMLYa74AVY","bandcamp_url":"","bandcamp_embed_url":""},{"date":"2026-10-30","time":"20h","price":"Prix Libre","desc":"Soirée Dragothique : CORTO MALAISE (electroclash) + AKASPI (riot rap queer) + JANE TENIC (hosting dragshow)","artist":"","youtube_video_id":"","bandcamp_url":"","bandcamp_embed_url":""}]}},{"type":"Feature","id":"toulouse-distorama-little-o-clock","geometry":{"type":"Point","coordinates":[1.5208073,43.6444525]},"properties":{"name":"Little O'Clock","category":"Concert Bar","icon":"fa-music","address":"75 allée Jean Jaurès 31000 Toulouse","logo":"","events":[{"date":"2026-10-07","time":"20h30","price":"Prix Libre","desc":"BASIL (indie rk) + BLEEDING NOODLES (power pasta rk)","artist":"BASIL (indie rk) + BLEEDING NOODLES","youtube_video_id":"RPSkqU_Qn-Y","bandcamp_url":"","bandcamp_embed_url":""}]}},{"type":"Feature","id":"toulouse-distorama-la-mecanique-des-fluides","geometry":{"type":"Point","coordinates":[1.4537647,43.6072494]},"properties":{"name":"La Mécanique des Fluides","category":"Concert Bar","icon":"fa-music","address":"1 rue Riquet 31000 Toulouse","logo":"mecanique_des_fluides.png","events":[{"date":"2026-10-08","time":"20h","price":"Prix Libre","desc":"NOT YOUR MOTHER (heavy rk) + CHRISTMAS (pk rk)","artist":"NOT YOUR MOTHER (heavy rk) + CHRISTMAS","youtube_video_id":"","bandcamp_url":"","bandcamp_embed_url":""},{"date":"2026-10-09","time":"20h","price":"Prix Libre","desc":"PESTICIDE (metal crust/ghent - be) + DELIVER THE SUFFERING (thrash-deathmetal - toulouse)","artist":"PESTICIDE (metal crust/ghent - be) + DELIVER THE SUFFERING","youtube_video_id":"","bandcamp_url":"","bandcamp_embed_url":""},{"date":"2026-10-10","time":"20h","price":"Prix Libre","desc":"ELICERE (modern metal) + KILL CHRONOS (nu metal/occitanie)","artist":"ELICERE (modern metal) + KILL CHRONOS","youtube_video_id":"","bandcamp_url":"","bandcamp_embed_url":""},{"date":"2026-10-14","time":"20h","price":"3/5€","desc":"ZVACKA (hxc pk/suède) + DAMN HIT (hxc pk)","artist":"ZVACKA (hxc pk/suède) + DAMN HIT","youtube_video_id":"HJ62z5Xw5sY","bandcamp_url":"","bandcamp_embed_url":""},{"date":"2026-10-15","time":"19h","price":"3/5€","desc":"UNSAFE (hxc) + NORTHERN LIGHTS + HILLDALE (nantes)","artist":"UNSAFE (hxc) + NORTHERN LIGHTS + HILLDALE","youtube_video_id":"BkladDLNaQs","bandcamp_url":"","bandcamp_embed_url":""},{"date":"2026-10-16","time":"20h","price":"Prix Libre","desc":"SOUTH SIDE FURY (hxc/pérpi) + LOSING PATIENCE (hxc)","artist":"SOUTH SIDE FURY (hxc/pérpi) + LOSING PATIENCE","youtube_video_id":"jKFOXF-Nri8","bandcamp_url":"","bandcamp_embed_url":""},{"date":"2026-10-17","time":"22h","price":"Gratuit","desc":"DJ/VJ PIET DU CONGO (breakcore mashup)","artist":"DJ/VJ PIET DU CONGO","youtube_video_id":"","bandcamp_url":"","bandcamp_embed_url":""},{"date":"2026-10-23","time":"21h30","price":"Gratuit","desc":"DJ set AKRAV (new wv/post pk/dark disco) + Guest","artist":"DJ set AKRAV (new wv/post pk/dark disco) + Guest","youtube_video_id":"","bandcamp_url":"","bandcamp_embed_url":""},{"date":"2026-10-24","time":"","price":"Concert 20h30 (Prix Libre) / DJ Set 22h (Gratuit)","desc":"DALLAS (hip hop fun/bdx) + DJ Set surprise","artist":"DALLAS (hip hop fun/bdx) + DJ Set surprise","youtube_video_id":"","bandcamp_url":"","bandcamp_embed_url":""},{"date":"2026-10-30","time":"20h","price":"3/5€","desc":"SMALLTALKERS (pop pk rk) + MUFF DIVER (heavy southern rk)","artist":"SMALLTALKERS (pop pk rk) + MUFF DIVER","youtube_video_id":"w99W1zOgFoQ","bandcamp_url":"","bandcamp_embed_url":""},{"date":"2026-10-31","time":"20h","price":"Concert 3/5€/After Gratuit","desc":"LANES (post pk/toulon) + TRANXHAINE (dark wv) + After DJ Set TAZ UNIS & guest (beauferie boomboom)","artist":"LANES (post pk/toulon) + TRANXHAINE (dark wv) + After DJ Set TAZ UNIS & guest","youtube_video_id":"","bandcamp_url":"","bandcamp_embed_url":""}]}},{"type":"Feature","id":"toulouse-distorama-bistrot-ducoin","geometry":{"type":"Point","coordinates":[1.4559708,43.6090065]},"properties":{"name":"Bistrot Ducoin","category":"Concert Bar","icon":"fa-music","address":"40 rue du Général Jean Compans 31500 Toulouse","logo":"bistrot_ducoin.jpg","events":[{"date":"2026-10-08","time":"19h30","price":"Prix Libre","desc":"LE GLAUDE (folk/chanson)","artist":"LE GLAUDE","youtube_video_id":"","bandcamp_url":"","bandcamp_embed_url":""},{"date":"2026-10-09","time":"21h","price":"Prix Libre","desc":"TRIBUTE RATM (cover) + MYP (rk)","artist":"TRIBUTE RATM (cover) + MYP","youtube_video_id":"7pOSXj5Ytd4","bandcamp_url":"","bandcamp_embed_url":""},{"date":"2026-10-15","time":"19h30","price":"Prix Libre","desc":"Poésie sonore","artist":"Poésie sonore","youtube_video_id":"EXDsDMG2VZY","bandcamp_url":"","bandcamp_embed_url":""},{"date":"2026-10-16","time":"21h","price":"Prix Libre","desc":"THE STINGERS (hypnotising rk)","artist":"THE STINGERS","youtube_video_id":"Kf-4-fG3s6s","bandcamp_url":"","bandcamp_embed_url":""},{"date":"2026-10-22","time":"19h30","price":"Prix Libre","desc":"Fred et Marie célèbrent l'amour (théâtre de rue)","artist":"Fred et Marie célèbrent l'amour","youtube_video_id":"","bandcamp_url":"","bandcamp_embed_url":""},{"date":"2026-10-23","time":"21h","price":"Prix Libre","desc":"BOURDY AND CO (rk de rue!)","artist":"BOURDY AND CO","youtube_video_id":"","bandcamp_url":"","bandcamp_embed_url":""},{"date":"2026-10-29","time":"19h30","price":"Prix Libre","desc":"Blues au Coin du Zinc","artist":"Blues au Coin du Zinc","youtube_video_id":"","bandcamp_url":"","bandcamp_embed_url":""},{"date":"2026-10-30","time":"21h","price":"Gratuit","desc":"Soirée Débile Halloween","artist":"","youtube_video_id":"","bandcamp_url":"","bandcamp_embed_url":""}]}},{"type":"Feature","id":"toulouse-distorama-the-petit-london","geometry":{"type":"Point","coordinates":[1.4538883,43.6008176]},"properties":{"name":"The Petit London","category":"Concert Bar","icon":"fa-music","address":"7 rue Pierre-Paul Riquet 31000 Toulouse","logo":"","events":[{"date":"2026-10-09","time":"22h","price":"Gratuit","desc":"INEFFABLE ASSO (bass house, groove tech, drum&bass)","artist":"INEFFABLE ASSO","youtube_video_id":"","bandcamp_url":"","bandcamp_embed_url":""},{"date":"2026-10-10","time":"22h","price":"Gratuit","desc":"ARTISANS BANGER (house)","artist":"ARTISANS BANGER","youtube_video_id":"","bandcamp_url":"","bandcamp_embed_url":""},{"date":"2026-10-16","time":"22h","price":"Gratuit","desc":"MAMELLE BENT (rnb, dancehall)","artist":"MAMELLE BENT","youtube_video_id":"VMLxLlaqz10","bandcamp_url":"","bandcamp_embed_url":""},{"date":"2026-10-17","time":"22h","price":"Gratuit","desc":"EKYOZ (jungle, drum&bass)","artist":"EKYOZ","youtube_video_id":"SJZoEN1yfB0","bandcamp_url":"","bandcamp_embed_url":""},{"date":"2026-10-23","time":"22h","price":"Gratuit","desc":"PASTEQ (synthwv, space disco)","artist":"PASTEQ","youtube_video_id":"","bandcamp_url":"","bandcamp_embed_url":""},{"date":"2026-10-24","time":"22h","price":"Gratuit","desc":"GEARGEIST + guests (live machine)","artist":"GEARGEIST + guests","youtube_video_id":"","bandcamp_url":"","bandcamp_embed_url":""},{"date":"2026-10-30","time":"22h","price":"Gratuit","desc":"NUL EN TEKNO (tekno, tribe, acid)","artist":"NUL EN TEKNO","youtube_video_id":"","bandcamp_url":"","bandcamp_embed_url":""},{"date":"2026-10-31","time":"22h","price":"Gratuit","desc":"HELLISHA SAUVAGE (dark disco, techno)","artist":"HELLISHA SAUVAGE","youtube_video_id":"","bandcamp_url":"","bandcamp_embed_url":""}]}},{"type":"Feature","id":"toulouse-distorama-l-autan","geometry":{"type":"Point","coordinates":[1.43883,43.6117922]},"properties":{"name":"L'Autan","category":"Concert Bar","icon":"fa-music","address":"58 boulevard d'Arcole 31000 Toulouse","logo":"","events":[{"date":"2026-10-09","time":"","price":"","desc":"SENSITIVE SKIN (oï sensible)","artist":"SENSITIVE SKIN","youtube_video_id":"","bandcamp_url":"","bandcamp_embed_url":""}]}},{"type":"Feature","id":"toulouse-distorama-axis-music","geometry":{"type":"Point","coordinates":[1.3974931,43.5472325]},"properties":{"name":"Axis Music","category":"Concert Bar","icon":"fa-music","address":"7 impasse Boudeville 31100 Toulouse","logo":"","events":[{"date":"2026-10-09","time":"20h30","price":"12€","desc":"LE RÉPARATEUR (pk rk) + DRINK ELAPSED (ska pk)","artist":"LE RÉPARATEUR (pk rk) + DRINK ELAPSED","youtube_video_id":"RicSVgq_zGo","bandcamp_url":"","bandcamp_embed_url":""}]}},{"type":"Feature","id":"toulouse-distorama-dagobar","geometry":{"type":"Point","coordinates":[1.4437868,43.5983682]},"properties":{"name":"Dagobar","category":"Concert Bar","icon":"fa-music","address":"Dagobar Toulouse","logo":"","events":[{"date":"2026-10-13","time":"21h","price":"Gratuit","desc":"Le Fucking Jam par NOKTASIMIO + KOSAÏ (old skool soul/hip hop)","artist":"Le Fucking Jam par NOKTASIMIO + KOSAÏ","youtube_video_id":"F8qaUERvjcw","bandcamp_url":"","bandcamp_embed_url":""},{"date":"2026-10-20","time":"21h","price":"Gratuit","desc":"Le Fucking Jam par NOKTASIMIO + KOSAÏ (old skool soul/hip hop)","artist":"Le Fucking Jam par NOKTASIMIO + KOSAÏ","youtube_video_id":"F8qaUERvjcw","bandcamp_url":"","bandcamp_embed_url":""},{"date":"2026-10-27","time":"21h","price":"Gratuit","desc":"Le Fucking Jam par NOKTASIMIO + KOSAÏ (old skool soul/hip hop)","artist":"Le Fucking Jam par NOKTASIMIO + KOSAÏ","youtube_video_id":"F8qaUERvjcw","bandcamp_url":"","bandcamp_embed_url":""}]}},{"type":"Feature","id":"toulouse-distorama-le-dada","geometry":{"type":"Point","coordinates":[1.4383337,43.6123398]},"properties":{"name":"Le Dada","category":"Concert Bar","icon":"fa-music","address":"27 avenue Honoré Serres 31000 Toulouse","logo":"","events":[{"date":"2026-10-14","time":"21h","price":"5/7/9€","desc":"L'ÉCUYER (cold wv) + BUBBLEGUM CORAIL (italowv)","artist":"L'ÉCUYER (cold wv) + BUBBLEGUM CORAIL","youtube_video_id":"dSoc2BFGBXc","bandcamp_url":"","bandcamp_embed_url":""},{"date":"2026-10-16","time":"20h","price":"7/10 €","desc":"NAMID'A (goth rk/coldwv) + DIGITAL ANGST (coldwv/indus) + KONSTROY (dj set)","artist":"NAMID'A (goth rk/coldwv) + DIGITAL ANGST (coldwv/indus) + KONSTROY","youtube_video_id":"","bandcamp_url":"https://bandcamp.com/konstroy","bandcamp_embed_url":""}]}},{"type":"Feature","id":"toulouse-distorama-gloria","geometry":{"type":"Point","coordinates":[1.4439408,43.6014516]},"properties":{"name":"Gloria","category":"Concert Bar","icon":"fa-music","address":"4 rue Peyras 31000 Toulouse","logo":"","events":[{"date":"2026-10-15","time":"21h","price":"Gratuit","desc":"Blindtest","artist":"Blindtest","youtube_video_id":"0YWt4Ai8q_g","bandcamp_url":"","bandcamp_embed_url":""},{"date":"2026-10-22","time":"20h","price":"Prix Libre","desc":"THE FORMER SELF by DANIEL MARK WILLIAMs (folk) + guest","artist":"THE FORMER SELF by DANIEL MARK WILLIAMs (folk) + guest","youtube_video_id":"","bandcamp_url":"","bandcamp_embed_url":""}]}},{"type":"Feature","id":"toulouse-distorama-local-piquemil","geometry":{"type":"Point","coordinates":[1.4324351,43.5992796]},"properties":{"name":"Local Piquemil","category":"Concert Bar","icon":"fa-music","address":"6 rue Piquemil 31300 Toulouse","logo":"","events":[{"date":"2026-10-24","time":"","price":"18h/23h","desc":"Toulouse Noise Consortium : Scène ouverte de bruits et poésie sonore","artist":"Toulouse Noise Consortium : Scène ouverte de bruits et poésie sonore","youtube_video_id":"","bandcamp_url":"","bandcamp_embed_url":""}]}},{"type":"Feature","id":"toulouse-distorama-le-motor","geometry":{"type":"Point","coordinates":[1.4502034,43.6225201]},"properties":{"name":"Le Motor","category":"Concert Bar","icon":"fa-music","address":"Le Motor Toulouse","logo":"","events":[{"date":"2026-10-24","time":"","price":"Prix ?","desc":"Soirée de soutien à la COL - concerts/ateliers","artist":"","youtube_video_id":"","bandcamp_url":"","bandcamp_embed_url":""}]}},{"type":"Feature","id":"toulouse-distorama-betty-pop-s","geometry":{"type":"Point","coordinates":[1.4285574,43.5988092]},"properties":{"name":"Betty Pop's","category":"Concert Bar","icon":"fa-music","address":"Place du Ravelin 31300 Toulouse","logo":"","events":[{"date":"2026-10-24","time":"22h","price":"Gratuit","desc":"The Whip : DJ WALLIE (goth rk, new wv)","artist":"The Whip : DJ WALLIE","youtube_video_id":"","bandcamp_url":"","bandcamp_embed_url":""}]}},{"type":"Feature","id":"toulouse-distorama-le-winger","geometry":{"type":"Point","coordinates":[1.4516526,43.6108151]},"properties":{"name":"Le Winger","category":"Concert Bar","icon":"fa-music","address":"68 rue de Bayard 31000 Toulouse","logo":"","events":[{"date":"2026-10-30","time":"19h","price":"3/5/7€","desc":"LA PIGÑATA (pk) + RÔTI BONDAGE (pk hxc)","artist":"LA PIGÑATA (pk) + RÔTI BONDAGE","youtube_video_id":"","bandcamp_url":"","bandcamp_embed_url":""}]}},{"type":"Feature","id":"toulouse-distorama-le-chorus","geometry":{"type":"Point","coordinates":[1.428844,43.5852109]},"properties":{"name":"Le Chorus","category":"Concert Bar","icon":"fa-music","address":"Le Chorus Toulouse","logo":"","events":[{"date":"2026-10-30","time":"19h","price":"10€ préventes/15€ sur place","desc":"DODGEBALL THERAPY (pk rk/Hossegor) + MALADROIT (pop pk/Paris) + CHARLY FIASCO (pk rk)","artist":"","youtube_video_id":"","bandcamp_url":"","bandcamp_embed_url":""}]}}]}