{"type":"FeatureCollection","features":[{"type":"Feature","id":"toulouse-distorama-boudu-pont","geometry":{"type":"Point","coordinates":[1.4363272,43.5988936]},"properties":{"name":"Boudu pont","category":"Concert Bar","icon":"🎵","address":"1 rue de la République 31300 Toulouse","logo":"","events":[{"date":"2026-01-03","time":"22h","price":"Gratuit","desc":"BOUDU PONT → Karaoké + Bootyshake","artist":"BOUDU PONT → Karaoké + Bootyshake"}]}},{"type":"Feature","id":"toulouse-distorama-le-winger","geometry":{"type":"Point","coordinates":[1.4516526,43.6108151]},"properties":{"name":"Le Winger","category":"Concert Bar","icon":"🎵","address":"68 rue de Bayard 31000 Toulouse","logo":"","events":[{"date":"2026-01-03","time":"20h","price":"5€","desc":"FRANKY STEIN & F(R)IENDS + guest","artist":"FRANKY STEIN & F(R)IENDS + guest"}]}}]}