{"type":"FeatureCollection","features":[{"type":"Feature","id":"toulouse-distorama-le-ravelin","geometry":{"type":"Point","coordinates":[1.4282089,43.599082]},"properties":{"name":"Le Ravelin","category":"Concert Bar","icon":"fa-music","address":"6 place du Ravelin 31300 Toulouse","logo":"le_ravelin.png","events":[{"date":"2026-10-06","time":"20h","price":"5/7€","desc":"BUENOS VAMPIROS (dream pop) + CONSTANT SILK (synth wv)","artist":"BUENOS VAMPIROS (dream pop) + CONSTANT SILK","youtube_video_id":"j3owjvYsMig","bandcamp_url":"","bandcamp_embed_url":""},{"date":"2026-10-07","time":"20h","price":"8/10€","desc":"SPLIT SYSTEM (pk/Melbourne) + ASPHALT (pk)","artist":"SPLIT SYSTEM (pk/Melbourne) + ASPHALT","youtube_video_id":"TOCkvnawgbg","bandcamp_url":"","bandcamp_embed_url":""},{"date":"2026-10-08","time":"20h","price":"5/7€","desc":"CENTRAL HASHISH STORE (60's grg) + TEXARKANA (country)","artist":"CENTRAL HASHISH STORE (60's grg) + TEXARKANA","youtube_video_id":"","bandcamp_url":"","bandcamp_embed_url":""},{"date":"2026-10-09","time":"20h","price":"5+€","desc":"TONY GERRANO (chanson alt synth) + JOSY BASAR (chanson approximative et cathartique)","artist":"TONY GERRANO (chanson alt synth) + JOSY BASAR","youtube_video_id":"WWwMieWXLck","bandcamp_url":"","bandcamp_embed_url":""},{"date":"2026-10-10","time":"20h","price":"5+€","desc":"VOLCAÏNE (rk français)","artist":"VOLCAÏNE","youtube_video_id":"x9VizcbtIbw","bandcamp_url":"","bandcamp_embed_url":""},{"date":"2026-10-11","time":"20h","price":"5/7€","desc":"WESLEY AND THE BOYS (grg pk) + OK.KENNY (ctrl+d core)","artist":"WESLEY AND THE BOYS (grg pk) + OK.KENNY","youtube_video_id":"7RxUkX5lZjI","bandcamp_url":"","bandcamp_embed_url":""}]}},{"type":"Feature","id":"toulouse-distorama-dagobar","geometry":{"type":"Point","coordinates":[1.4437868,43.5983682]},"properties":{"name":"Dagobar","category":"Concert Bar","icon":"fa-music","address":"Dagobar Toulouse","logo":"","events":[{"date":"2026-10-06","time":"21h","price":"Gratuit","desc":"Le Fucking Jam par NOKTASIMIO + KOSAÏ (old skool soul/hip hop)","artist":"Le Fucking Jam par NOKTASIMIO + KOSAÏ","youtube_video_id":"F8qaUERvjcw","bandcamp_url":"","bandcamp_embed_url":""}]}},{"type":"Feature","id":"toulouse-distorama-little-o-clock","geometry":{"type":"Point","coordinates":[1.5208073,43.6444525]},"properties":{"name":"Little O'Clock","category":"Concert Bar","icon":"fa-music","address":"75 allée Jean Jaurès 31000 Toulouse","logo":"","events":[{"date":"2026-10-07","time":"20h30","price":"Prix Libre","desc":"BASIL (indie rk) + BLEEDING NOODLES (power pasta rk)","artist":"BASIL (indie rk) + BLEEDING NOODLES","youtube_video_id":"RPSkqU_Qn-Y","bandcamp_url":"","bandcamp_embed_url":""}]}},{"type":"Feature","id":"toulouse-distorama-la-mecanique-des-fluides","geometry":{"type":"Point","coordinates":[1.4537647,43.6072494]},"properties":{"name":"La Mécanique des Fluides","category":"Concert Bar","icon":"fa-music","address":"1 rue Riquet 31000 Toulouse","logo":"mecanique_des_fluides.png","events":[{"date":"2026-10-08","time":"20h","price":"Prix Libre","desc":"NOT YOUR MOTHER (heavy rk) + CHRISTMAS (pk rk)","artist":"NOT YOUR MOTHER (heavy rk) + CHRISTMAS","youtube_video_id":"","bandcamp_url":"","bandcamp_embed_url":""},{"date":"2026-10-09","time":"20h","price":"Prix Libre","desc":"PESTICIDE (metal crust/ghent - be) + DELIVER THE SUFFERING (thrash-deathmetal - toulouse)","artist":"PESTICIDE (metal crust/ghent - be) + DELIVER THE SUFFERING","youtube_video_id":"","bandcamp_url":"","bandcamp_embed_url":""},{"date":"2026-10-10","time":"20h","price":"Prix Libre","desc":"ELICERE (modern metal) + KILL CHRONOS (nu metal/occitanie)","artist":"ELICERE (modern metal) + KILL CHRONOS","youtube_video_id":"","bandcamp_url":"","bandcamp_embed_url":""}]}},{"type":"Feature","id":"toulouse-distorama-bistrot-ducoin","geometry":{"type":"Point","coordinates":[1.4559708,43.6090065]},"properties":{"name":"Bistrot Ducoin","category":"Concert Bar","icon":"fa-music","address":"40 rue du Général Jean Compans 31500 Toulouse","logo":"bistrot_ducoin.jpg","events":[{"date":"2026-10-08","time":"19h30","price":"Prix Libre","desc":"LE GLAUDE (folk/chanson)","artist":"LE GLAUDE","youtube_video_id":"","bandcamp_url":"","bandcamp_embed_url":""},{"date":"2026-10-09","time":"21h","price":"Prix Libre","desc":"TRIBUTE RATM (cover) + MYP (rk)","artist":"TRIBUTE RATM (cover) + MYP","youtube_video_id":"7pOSXj5Ytd4","bandcamp_url":"","bandcamp_embed_url":""}]}},{"type":"Feature","id":"toulouse-distorama-the-petit-london","geometry":{"type":"Point","coordinates":[1.4538883,43.6008176]},"properties":{"name":"The Petit London","category":"Concert Bar","icon":"fa-music","address":"7 rue Pierre-Paul Riquet 31000 Toulouse","logo":"","events":[{"date":"2026-10-09","time":"22h","price":"Gratuit","desc":"INEFFABLE ASSO (bass house, groove tech, drum&bass)","artist":"INEFFABLE ASSO","youtube_video_id":"","bandcamp_url":"","bandcamp_embed_url":""},{"date":"2026-10-10","time":"22h","price":"Gratuit","desc":"ARTISANS BANGER (house)","artist":"ARTISANS BANGER","youtube_video_id":"","bandcamp_url":"","bandcamp_embed_url":""}]}},{"type":"Feature","id":"toulouse-distorama-l-autan","geometry":{"type":"Point","coordinates":[1.43883,43.6117922]},"properties":{"name":"L'Autan","category":"Concert Bar","icon":"fa-music","address":"58 boulevard d'Arcole 31000 Toulouse","logo":"","events":[{"date":"2026-10-09","time":"","price":"","desc":"SENSITIVE SKIN (oï sensible)","artist":"SENSITIVE SKIN","youtube_video_id":"","bandcamp_url":"","bandcamp_embed_url":""}]}},{"type":"Feature","id":"toulouse-distorama-axis-music","geometry":{"type":"Point","coordinates":[1.3974931,43.5472325]},"properties":{"name":"Axis Music","category":"Concert Bar","icon":"fa-music","address":"7 impasse Boudeville 31100 Toulouse","logo":"","events":[{"date":"2026-10-09","time":"20h30","price":"12€","desc":"LE RÉPARATEUR (pk rk) + DRINK ELAPSED (ska pk)","artist":"LE RÉPARATEUR (pk rk) + DRINK ELAPSED","youtube_video_id":"RicSVgq_zGo","bandcamp_url":"","bandcamp_embed_url":""}]}}]}