{"type":"FeatureCollection","features":[{"type":"Feature","id":"toulouse-distorama-dagobar","geometry":{"type":"Point","coordinates":[1.4437868,43.5983682]},"properties":{"name":"Dagobar","category":"Concert Bar","icon":"fa-music","address":"Dagobar Toulouse","logo":"","events":[{"date":"2026-10-13","time":"21h","price":"Gratuit","desc":"Le Fucking Jam par NOKTASIMIO + KOSAÏ (old skool soul/hip hop)","artist":"Le Fucking Jam par NOKTASIMIO + KOSAÏ","youtube_video_id":"F8qaUERvjcw","bandcamp_url":"","bandcamp_embed_url":""}]}},{"type":"Feature","id":"toulouse-distorama-la-mecanique-des-fluides","geometry":{"type":"Point","coordinates":[1.4537647,43.6072494]},"properties":{"name":"La Mécanique des Fluides","category":"Concert Bar","icon":"fa-music","address":"1 rue Riquet 31000 Toulouse","logo":"mecanique_des_fluides.png","events":[{"date":"2026-10-14","time":"20h","price":"3/5€","desc":"ZVACKA (hxc pk/suède) + DAMN HIT (hxc pk)","artist":"ZVACKA (hxc pk/suède) + DAMN HIT","youtube_video_id":"HJ62z5Xw5sY","bandcamp_url":"","bandcamp_embed_url":""},{"date":"2026-10-15","time":"19h","price":"3/5€","desc":"UNSAFE (hxc) + NORTHERN LIGHTS + HILLDALE (nantes)","artist":"UNSAFE (hxc) + NORTHERN LIGHTS + HILLDALE","youtube_video_id":"BkladDLNaQs","bandcamp_url":"","bandcamp_embed_url":""},{"date":"2026-10-16","time":"20h","price":"Prix Libre","desc":"SOUTH SIDE FURY (hxc/pérpi) + LOSING PATIENCE (hxc)","artist":"SOUTH SIDE FURY (hxc/pérpi) + LOSING PATIENCE","youtube_video_id":"jKFOXF-Nri8","bandcamp_url":"","bandcamp_embed_url":""},{"date":"2026-10-17","time":"22h","price":"Gratuit","desc":"DJ/VJ PIET DU CONGO (breakcore mashup)","artist":"DJ/VJ PIET DU CONGO","youtube_video_id":"","bandcamp_url":"","bandcamp_embed_url":""}]}},{"type":"Feature","id":"toulouse-distorama-le-dada","geometry":{"type":"Point","coordinates":[1.4383337,43.6123398]},"properties":{"name":"Le Dada","category":"Concert Bar","icon":"fa-music","address":"27 avenue Honoré Serres 31000 Toulouse","logo":"","events":[{"date":"2026-10-14","time":"21h","price":"5/7/9€","desc":"L'ÉCUYER (cold wv) + BUBBLEGUM CORAIL (italowv)","artist":"L'ÉCUYER (cold wv) + BUBBLEGUM CORAIL","youtube_video_id":"dSoc2BFGBXc","bandcamp_url":"","bandcamp_embed_url":""},{"date":"2026-10-16","time":"20h","price":"7/10 €","desc":"NAMID'A (goth rk/coldwv) + DIGITAL ANGST (coldwv/indus) + KONSTROY (dj set)","artist":"NAMID'A (goth rk/coldwv) + DIGITAL ANGST (coldwv/indus) + KONSTROY","youtube_video_id":"","bandcamp_url":"https://bandcamp.com/konstroy","bandcamp_embed_url":""}]}},{"type":"Feature","id":"toulouse-distorama-le-ravelin","geometry":{"type":"Point","coordinates":[1.4282089,43.599082]},"properties":{"name":"Le Ravelin","category":"Concert Bar","icon":"fa-music","address":"6 place du Ravelin 31300 Toulouse","logo":"le_ravelin.png","events":[{"date":"2026-10-15","time":"20h","price":"5/7/10€","desc":"ELLEN & THE BOYS (crank wv - post pk) + TBD","artist":"ELLEN & THE BOYS (crank wv - post pk) + TBD","youtube_video_id":"","bandcamp_url":"","bandcamp_embed_url":""},{"date":"2026-10-16","time":"20h","price":"5+€","desc":"LOUIS POISON (grg folk psych) + BUBBLEGUM CORAIL (synth pop it/fr)","artist":"LOUIS POISON (grg folk psych) + BUBBLEGUM CORAIL","youtube_video_id":"dSoc2BFGBXc","bandcamp_url":"","bandcamp_embed_url":""},{"date":"2026-10-17","time":"19h30","price":"5/7/9 €","desc":"DIRTY FIVE (rk) + VERNOSOLEM (rk alt)","artist":"DIRTY FIVE (rk) + VERNOSOLEM","youtube_video_id":"D4SFj6CAdPk","bandcamp_url":"","bandcamp_embed_url":""}]}},{"type":"Feature","id":"toulouse-distorama-bistrot-ducoin","geometry":{"type":"Point","coordinates":[1.4559708,43.6090065]},"properties":{"name":"Bistrot Ducoin","category":"Concert Bar","icon":"fa-music","address":"40 rue du Général Jean Compans 31500 Toulouse","logo":"bistrot_ducoin.jpg","events":[{"date":"2026-10-15","time":"19h30","price":"Prix Libre","desc":"Poésie sonore","artist":"Poésie sonore","youtube_video_id":"EXDsDMG2VZY","bandcamp_url":"","bandcamp_embed_url":""},{"date":"2026-10-16","time":"21h","price":"Prix Libre","desc":"THE STINGERS (hypnotising rk)","artist":"THE STINGERS","youtube_video_id":"Kf-4-fG3s6s","bandcamp_url":"","bandcamp_embed_url":""}]}},{"type":"Feature","id":"toulouse-distorama-gloria","geometry":{"type":"Point","coordinates":[1.4439408,43.6014516]},"properties":{"name":"Gloria","category":"Concert Bar","icon":"fa-music","address":"4 rue Peyras 31000 Toulouse","logo":"","events":[{"date":"2026-10-15","time":"21h","price":"Gratuit","desc":"Blindtest","artist":"Blindtest","youtube_video_id":"0YWt4Ai8q_g","bandcamp_url":"","bandcamp_embed_url":""}]}},{"type":"Feature","id":"toulouse-distorama-the-petit-london","geometry":{"type":"Point","coordinates":[1.4538883,43.6008176]},"properties":{"name":"The Petit London","category":"Concert Bar","icon":"fa-music","address":"7 rue Pierre-Paul Riquet 31000 Toulouse","logo":"","events":[{"date":"2026-10-16","time":"22h","price":"Gratuit","desc":"MAMELLE BENT (rnb, dancehall)","artist":"MAMELLE BENT","youtube_video_id":"VMLxLlaqz10","bandcamp_url":"","bandcamp_embed_url":""},{"date":"2026-10-17","time":"22h","price":"Gratuit","desc":"EKYOZ (jungle, drum&bass)","artist":"EKYOZ","youtube_video_id":"SJZoEN1yfB0","bandcamp_url":"","bandcamp_embed_url":""}]}}]}