{"type":"FeatureCollection","features":[{"type":"Feature","id":"toulouse-distorama-dagobar","geometry":{"type":"Point","coordinates":[1.4437868,43.5983682]},"properties":{"name":"Dagobar","category":"Concert Bar","icon":"fa-music","address":"Dagobar Toulouse","logo":"","events":[{"date":"2026-09-15","time":"21h","price":"Gratuit","desc":"Le Fucking Jam par Noktasimio & Kosaï (old skool soul/hip-hop)","artist":"Le Fucking Jam par Noktasimio & Kosaï","youtube_video_id":"","bandcamp_url":"","bandcamp_embed_url":""}]}},{"type":"Feature","id":"toulouse-distorama-le-ravelin","geometry":{"type":"Point","coordinates":[1.4282089,43.599082]},"properties":{"name":"Le Ravelin","category":"Concert Bar","icon":"fa-music","address":"6 place du Ravelin 31300 Toulouse","logo":"le_ravelin.png","events":[{"date":"2026-09-17","time":"20h","price":"5€+ suggéré","desc":"THE SHAZZAMS (garage rk) + GATTACA (rk'n'roll mutant)","artist":"THE SHAZZAMS (garage rk) + GATTACA","youtube_video_id":"Sv32w3WcV8o","bandcamp_url":"https://theshazzams.bandcamp.com/album/another-world-2","bandcamp_embed_url":"https://bandcamp.com/EmbeddedPlayer/album=4057513625/size=small/bgcol=111111/linkcol=ffffff/transparent=true/"},{"date":"2026-09-18","time":"20h","price":"5€+ suggéré","desc":"BUUUG (trio post rk) + MERCURE 22 (grunge pk)","artist":"BUUUG (trio post rk) + MERCURE 22","youtube_video_id":"","bandcamp_url":"","bandcamp_embed_url":""},{"date":"2026-09-19","time":"20h","price":"Prix TBD","desc":"MARTY WENT BACK (experimental pk pop) + MONTEVIDEO (indie post pk) + CATHEDRALE (post pk)","artist":"MARTY WENT BACK (experimental pk pop) + MONTEVIDEO (indie post pk) + CATHEDRALE","youtube_video_id":"yPK8QtVjMF0","bandcamp_url":"","bandcamp_embed_url":""},{"date":"2026-09-20","time":"22h30","price":"Prix Libre","desc":"Vermut Musical (12h-20h) + Dernier after Fifigro DJ set NICOLAS DROLC","artist":"Vermut Musical (12h-20h) + Dernier after Fifigro DJ set NICOLAS DROLC","youtube_video_id":"VQo9DBkMXC4","bandcamp_url":"","bandcamp_embed_url":""}]}},{"type":"Feature","id":"toulouse-distorama-bistrot-ducoin","geometry":{"type":"Point","coordinates":[1.4559708,43.6090065]},"properties":{"name":"Bistrot Ducoin","category":"Concert Bar","icon":"fa-music","address":"40 rue du Général Jean Compans 31500 Toulouse","logo":"bistrot_ducoin.jpg","events":[{"date":"2026-09-17","time":"19h30","price":"Prix Libre","desc":"PIANO BARBARE (théâtre / chanson décalé)","artist":"PIANO BARBARE","youtube_video_id":"","bandcamp_url":"","bandcamp_embed_url":""},{"date":"2026-09-18","time":"21h","price":"Prix Libre","desc":"SMALLTALKERS (rk pk)","artist":"SMALLTALKERS","youtube_video_id":"w99W1zOgFoQ","bandcamp_url":"","bandcamp_embed_url":""}]}},{"type":"Feature","id":"toulouse-distorama-dalidaark","geometry":{"type":"Point","coordinates":[1.4318769,43.5988684]},"properties":{"name":"Dalidaark","category":"Concert Bar","icon":"fa-music","address":"39 rue Réclusane 31300 Toulouse","logo":"dalidaark.png","events":[{"date":"2026-09-17","time":"20h30","price":"Prix Libre","desc":"MEJNOUN (thrunge) + MARGARITA (doomgaze)","artist":"MEJNOUN (thrunge) + MARGARITA","youtube_video_id":"","bandcamp_url":"","bandcamp_embed_url":""}]}},{"type":"Feature","id":"toulouse-distorama-ipn","geometry":{"type":"Point","coordinates":[1.4495423,43.6159627]},"properties":{"name":"IPN","category":"Concert Bar","icon":"fa-music","address":"30 rue des Jumeaux 31000 Toulouse","logo":"","events":[{"date":"2026-09-18","time":"18h30","price":"Prix Libre","desc":"Vernissage « Trannie Season » (expo photo & vidéo d'Una Déas) : diffusion « Trannie Movie » + NAOSA (deconstructed club & bass) + NORAKAB (perfo drag gouine shlag thaï unique)","artist":"","youtube_video_id":"","bandcamp_url":"","bandcamp_embed_url":""},{"date":"2026-09-19","time":"","price":"14h à 19h","desc":"Expo « Trannie Season » (photo & vidéo d'Una Déas)","artist":"","youtube_video_id":"","bandcamp_url":"","bandcamp_embed_url":""},{"date":"2026-09-20","time":"","price":"14h à 19h","desc":"Expo « Trannie Season » (photo & vidéo d'Una Déas)","artist":"","youtube_video_id":"","bandcamp_url":"","bandcamp_embed_url":""}]}},{"type":"Feature","id":"toulouse-distorama-the-petit-london","geometry":{"type":"Point","coordinates":[1.4538883,43.6008176]},"properties":{"name":"The Petit London","category":"Concert Bar","icon":"fa-music","address":"7 rue Pierre-Paul Riquet 31000 Toulouse","logo":"","events":[{"date":"2026-09-18","time":"22h","price":"Prix Libre","desc":"WITH AN H (electronic, ukg, house)","artist":"WITH AN H","youtube_video_id":"IcGCJILXkp0","bandcamp_url":"","bandcamp_embed_url":""},{"date":"2026-09-19","time":"22h","price":"Prix Libre","desc":"CASUAL RAVERS (drum&bass, tribe, techno)","artist":"CASUAL RAVERS","youtube_video_id":"","bandcamp_url":"","bandcamp_embed_url":""}]}},{"type":"Feature","id":"toulouse-distorama-gloria","geometry":{"type":"Point","coordinates":[1.4439408,43.6014516]},"properties":{"name":"Gloria","category":"Concert Bar","icon":"fa-music","address":"4 rue Peyras 31000 Toulouse","logo":"","events":[{"date":"2026-09-18","time":"21h","price":"Gratuit","desc":"Blind test organisé par Ju'","artist":"Blind test organisé par Ju'","youtube_video_id":"","bandcamp_url":"","bandcamp_embed_url":""}]}},{"type":"Feature","id":"toulouse-distorama-boudu-pont","geometry":{"type":"Point","coordinates":[1.4363272,43.5988936]},"properties":{"name":"Boudu pont","category":"Concert Bar","icon":"fa-music","address":"1 rue de la République 31300 Toulouse","logo":"","events":[{"date":"2026-09-19","time":"","price":"22h à 02h30","desc":"Inauguration et DJ set JUJOBOY sur vinyles scratch","artist":"","youtube_video_id":"","bandcamp_url":"","bandcamp_embed_url":""}]}}]}