{
  "type": "FeatureCollection",
  "_meta": {
    "crs": "EPSG:4326",
    "generated": "2026-05-03",
    "source": "CSV projets_industriels_france_villes + Nominatim",
    "count": 69
  },
  "bbox": [
    -4.0916875,
    43.1396789,
    7.953219,
    51.0347708
  ],
  "features": [
    {
      "type": "Feature",
      "id": "france-projet-001-imerys",
      "geometry": {
        "type": "Point",
        "coordinates": [
          2.93389,
          46.1841
        ]
      },
      "properties": {
        "name": "Imerys",
        "category": "Matériaux critiques",
        "icon": "🔋",
        "region": "Auvergne-Rhône-Alpes",
        "departement": "Allier",
        "ville": "Échassières",
        "projet": "Projet de mine souterraine de lithium visant à produire 34 000 tonnes d’hydroxyde de lithium par an pour soutenir la filière des véhicules électriques",
        "coord_source": "nominatim",
        "coord_accuracy": "high",
        "feeds": {
          "company_rss": "https://www.imerys.com/rss",
          "company_url": "https://www.imerys.com",
          "changedetection_url": "https://www.imerys.com/media-room",
          "changedetection_uuid": null,
          "keywords": [
            "Imerys",
            "lithium",
            "Échassières",
            "hydroxyde de lithium"
          ],
          "sector_rss": [
            "https://www.usinenouvelle.com/arc/outboundfeeds/rss/"
          ],
          "rss_uuid": "430ff035-6cd6-4fa6-aa03-20f4098e4687"
        }
      }
    },
    {
      "type": "Feature",
      "id": "france-projet-002-safran",
      "geometry": {
        "type": "Point",
        "coordinates": [
          4.85831,
          45.6738
        ]
      },
      "properties": {
        "name": "Safran",
        "category": "Aéronautique & Défense",
        "icon": "✈️",
        "region": "Auvergne-Rhône-Alpes",
        "departement": "Ain",
        "ville": "Feyzin / Saint-Vulbas",
        "projet": "Usine de freins carbone : projet d’usine de production de freins carbone pour l’aéronautique, avec une mise en service prévue à l’horizon 2030",
        "coord_source": "nominatim",
        "coord_accuracy": "medium",
        "feeds": {
          "company_rss": "https://www.safran-group.com/rss/pressroom",
          "company_url": "https://www.safran-group.com",
          "changedetection_url": "https://www.safran-group.com/pressroom",
          "changedetection_uuid": null,
          "keywords": [
            "Safran",
            "freins carbone",
            "aéronautique",
            "Saint-Vulbas"
          ],
          "sector_rss": [
            "https://www.usinenouvelle.com/arc/outboundfeeds/rss/"
          ],
          "rss_uuid": "3e676572-d5f4-4af8-80f6-a6045669f989"
        }
      }
    },
    {
      "type": "Feature",
      "id": "france-projet-003-schneider-electric",
      "geometry": {
        "type": "Point",
        "coordinates": [
          4.5986733,
          44.7352708
        ]
      },
      "properties": {
        "name": "Schneider Electric",
        "category": "Data Center & IA",
        "icon": "🖥️",
        "region": "Auvergne-Rhône-Alpes",
        "departement": "Ardèche",
        "ville": "Privas",
        "projet": "Investissements industriels pour soutenir les marchés de l’énergie, du nucléaire et des datacenters",
        "coord_source": "nominatim",
        "coord_accuracy": "high",
        "feeds": {
          "company_rss": "https://blog.se.com/feed",
          "company_url": "https://www.se.com/fr/fr/",
          "changedetection_url": "https://www.se.com/fr/fr/about-us/newsroom/",
          "changedetection_uuid": null,
          "keywords": [
            "Schneider Electric",
            "datacenter",
            "nucléaire",
            "Privas"
          ],
          "sector_rss": [
            "https://www.usinenouvelle.com/arc/outboundfeeds/rss/"
          ],
          "rss_uuid": "4bccaec2-5b42-4210-a8c3-9d95cf5e756c"
        }
      }
    },
    {
      "type": "Feature",
      "id": "france-projet-004-sesterce",
      "geometry": {
        "type": "Point",
        "coordinates": [
          4.8611902,
          44.5156368
        ]
      },
      "properties": {
        "name": "Sesterce",
        "category": "Data Center & IA",
        "icon": "🖥️",
        "region": "Auvergne-Rhône-Alpes",
        "departement": "Drôme",
        "ville": "Rochefort-en-Valdaine",
        "projet": "Data center – Projet de centre de données nouvelle génération",
        "coord_source": "nominatim",
        "coord_accuracy": "high",
        "feeds": {
          "company_rss": null,
          "company_url": "https://www.sesterce.io",
          "changedetection_url": "https://www.sesterce.io/actualites",
          "keywords": [
            "Sesterce",
            "data center",
            "Rochefort-en-Valdaine",
            "Drôme"
          ],
          "sector_rss": [
            "https://www.usinenouvelle.com/arc/outboundfeeds/rss/"
          ],
          "changedetection_uuid": "afa46a55-ee39-4444-88ef-7e9baa89066d"
        }
      }
    },
    {
      "type": "Feature",
      "id": "france-projet-005-magreesource",
      "geometry": {
        "type": "Point",
        "coordinates": [
          5.6321969,
          45.2438413
        ]
      },
      "properties": {
        "name": "MagREEsource",
        "category": "Recyclage",
        "icon": "♻️",
        "region": "Auvergne-Rhône-Alpes",
        "departement": "Isère",
        "ville": "Noyarey",
        "projet": "Mag Factory : projet industriel de fabrication d’aimants permanents recyclés pour renforcer la souveraineté européenne",
        "coord_source": "nominatim",
        "coord_accuracy": "high",
        "feeds": {
          "company_rss": null,
          "company_url": "https://www.magreesource.com",
          "changedetection_url": "https://www.magreesource.com/news",
          "keywords": [
            "MagREEsource",
            "aimants permanents",
            "Noyarey",
            "terres rares"
          ],
          "sector_rss": [
            "https://www.usinenouvelle.com/arc/outboundfeeds/rss/"
          ],
          "changedetection_uuid": "b6ba5ab5-adbc-46fa-80b2-5d64d447d786"
        }
      }
    },
    {
      "type": "Feature",
      "id": "france-projet-006-dataone-oreus-core-42",
      "geometry": {
        "type": "Point",
        "coordinates": [
          5.7357819,
          45.1875602
        ]
      },
      "properties": {
        "name": "DataOne - Oreus - Core 42",
        "category": "Data Center & IA",
        "icon": "🖥️",
        "region": "Auvergne-Rhône-Alpes",
        "departement": "Isère",
        "ville": "Grenoble",
        "projet": "Data center",
        "coord_source": "nominatim",
        "coord_accuracy": "high",
        "feeds": {
          "company_rss": null,
          "company_url": "https://www.dataone.fr",
          "changedetection_url": "https://www.dataone.fr/actualites",
          "keywords": [
            "DataOne",
            "Oreus",
            "Core 42",
            "data center",
            "Grenoble"
          ],
          "sector_rss": [
            "https://www.usinenouvelle.com/arc/outboundfeeds/rss/"
          ],
          "changedetection_uuid": "61deebe7-dfdb-4358-b955-d39a3268799e"
        }
      }
    },
    {
      "type": "Feature",
      "id": "france-projet-007-urgo",
      "geometry": {
        "type": "Point",
        "coordinates": [
          4.2892399,
          45.5622913
        ]
      },
      "properties": {
        "name": "Urgo",
        "category": "Industrie",
        "icon": "🏭",
        "region": "Auvergne-Rhône-Alpes",
        "departement": "Loire",
        "ville": "Veauche",
        "projet": "Construction d’un site de production de textile médical de pointe dédié à la compression médicale",
        "coord_source": "nominatim",
        "coord_accuracy": "high",
        "feeds": {
          "company_rss": null,
          "company_url": "https://www.urgo.fr",
          "changedetection_url": "https://www.urgo.fr/presse",
          "keywords": [
            "Urgo",
            "textile médical",
            "compression médicale",
            "Veauche"
          ],
          "sector_rss": [
            "https://www.usinenouvelle.com/arc/outboundfeeds/rss/"
          ],
          "changedetection_uuid": "f51a4ee5-8214-4b30-9a85-a7b562fa4bfe"
        }
      }
    },
    {
      "type": "Feature",
      "id": "france-projet-008-derichebourg",
      "geometry": {
        "type": "Point",
        "coordinates": [
          4.855816,
          45.6329361
        ]
      },
      "properties": {
        "name": "Derichebourg",
        "category": "Recyclage",
        "icon": "♻️",
        "region": "Auvergne-Rhône-Alpes",
        "departement": "Rhône",
        "ville": "Saint-Symphorien-d'Ozon",
        "projet": "Projet de recyclage de ballons d’eau chaude avec valorisation des matériaux et réduction des émissions de CO₂",
        "coord_source": "nominatim",
        "coord_accuracy": "high",
        "feeds": {
          "company_rss": null,
          "company_url": "https://www.derichebourg.com",
          "changedetection_url": "https://www.derichebourg.com/presse",
          "keywords": [
            "Derichebourg",
            "recyclage",
            "Saint-Symphorien-d'Ozon",
            "ballons d'eau chaude"
          ],
          "sector_rss": [
            "https://www.usinenouvelle.com/arc/outboundfeeds/rss/"
          ],
          "changedetection_uuid": "14c3bb53-e632-468f-8c2d-129635470f53"
        }
      }
    },
    {
      "type": "Feature",
      "id": "france-projet-009-bordet",
      "geometry": {
        "type": "Point",
        "coordinates": [
          3.6457483,
          46.8696643
        ]
      },
      "properties": {
        "name": "Bordet",
        "category": "Énergie & Nucléaire",
        "icon": "⚡",
        "region": "Bourgogne-Franche-Comté",
        "departement": "Nièvre",
        "ville": "Cercy-la-Tour",
        "projet": "Développement d’un site de production de charbon végétal",
        "coord_source": "nominatim",
        "coord_accuracy": "high",
        "feeds": {
          "company_rss": null,
          "company_url": "https://www.scierie-bordet.fr",
          "changedetection_url": "https://www.icp.fr/a-propos-de-licp/agenda/mercredis-de-la-com-i-rencontre-avec-capucine-bordet-journaliste-a-cvm-presse",
          "keywords": [
            "Bordet",
            "charbon végétal",
            "Cercy-la-Tour",
            "Nièvre"
          ],
          "sector_rss": [
            "https://www.usinenouvelle.com/arc/outboundfeeds/rss/"
          ],
          "changedetection_uuid": "0f7a81c3-6aab-44f1-a3f2-327859bd11cf"
        }
      }
    },
    {
      "type": "Feature",
      "id": "france-projet-010-jimmy-energy",
      "geometry": {
        "type": "Point",
        "coordinates": [
          4.4285961,
          46.8054064
        ]
      },
      "properties": {
        "name": "Jimmy Energy",
        "category": "Énergie & Nucléaire",
        "icon": "⚡",
        "region": "Bourgogne-Franche-Comté",
        "departement": "Saône-et-Loire",
        "ville": "Le Creusot",
        "projet": "Réacteur nucléaire innovant : développement d’un petit réacteur pour produire de la chaleur industrielle décarbonée",
        "coord_source": "nominatim",
        "coord_accuracy": "high",
        "feeds": {
          "company_rss": null,
          "company_url": "https://www.jimmy.energy",
          "changedetection_url": "https://www.jimmy-energy.eu/actualites",
          "keywords": [
            "Jimmy Energy",
            "réacteur nucléaire",
            "chaleur industrielle",
            "Le Creusot"
          ],
          "sector_rss": [
            "https://www.usinenouvelle.com/arc/outboundfeeds/rss/"
          ],
          "changedetection_uuid": "cfee3e9d-d103-4784-ad04-244332a7e94a"
        }
      }
    },
    {
      "type": "Feature",
      "id": "france-projet-011-fiat-powrtrain",
      "geometry": {
        "type": "Point",
        "coordinates": [
          3.7737674,
          46.6193905
        ]
      },
      "properties": {
        "name": "Fiat Powrtrain",
        "category": "Industrie",
        "icon": "🏭",
        "region": "Bourgogne-Franche-Comté",
        "departement": "Saône-et-Loire",
        "ville": "Bourbon-Lancy",
        "projet": "Conception de moteurs pour camions et engins agricoles",
        "coord_source": "nominatim",
        "coord_accuracy": "high",
        "feeds": {
          "company_rss": null,
          "company_url": "https://www.fptindustrial.com",
          "changedetection_url": "https://www.fptindustrial.com/media",
          "keywords": [
            "Fiat Powertrain",
            "FPT Industrial",
            "Bourbon-Lancy",
            "moteurs camions"
          ],
          "sector_rss": [
            "https://www.usinenouvelle.com/arc/outboundfeeds/rss/"
          ],
          "changedetection_uuid": "b8648368-9f29-4717-9215-13f2d95c39be"
        }
      }
    },
    {
      "type": "Feature",
      "id": "france-projet-012-prysmian",
      "geometry": {
        "type": "Point",
        "coordinates": [
          3.2470551,
          48.1785718
        ]
      },
      "properties": {
        "name": "Prysmian",
        "category": "Industrie",
        "icon": "🏭",
        "region": "Bourgogne-Franche-Comté",
        "departement": "Yonne",
        "ville": "Paron / Gron",
        "projet": "CAPA-PILASER – Extension d’un site de production de câbles électriques pour accompagner l’électrification",
        "coord_source": "nominatim",
        "coord_accuracy": "high",
        "feeds": {
          "company_rss": null,
          "company_url": "https://www.prysmiangroup.com",
          "changedetection_url": "https://www.prysmiangroup.com/en/media/press-releases",
          "keywords": [
            "Prysmian",
            "câbles électriques",
            "CAPA-PILASER",
            "Paron",
            "Gron",
            "Yonne"
          ],
          "sector_rss": [
            "https://www.usinenouvelle.com/arc/outboundfeeds/rss/"
          ],
          "changedetection_uuid": "0cfcd346-5167-4069-9657-045d9ee86f7b"
        }
      }
    },
    {
      "type": "Feature",
      "id": "france-projet-013-cailabs",
      "geometry": {
        "type": "Point",
        "coordinates": [
          -1.6800198,
          48.1113387
        ]
      },
      "properties": {
        "name": "Cailabs",
        "category": "Industrie",
        "icon": "🏭",
        "region": "Bretagne",
        "departement": "Ille-et-Vilaine",
        "ville": "Rennes",
        "projet": "Construction d’un site industriel pour produire des stations de communication laser",
        "coord_source": "nominatim",
        "coord_accuracy": "high",
        "feeds": {
          "company_rss": null,
          "company_url": "https://www.cailabs.com",
          "changedetection_url": "https://www.cailabs.com/presse",
          "keywords": [
            "Cailabs",
            "laser",
            "communication laser",
            "Rennes"
          ],
          "sector_rss": [
            "https://www.usinenouvelle.com/arc/outboundfeeds/rss/"
          ],
          "changedetection_uuid": "9f7a2da7-5ef2-4f60-be98-d294839210a7"
        }
      }
    },
    {
      "type": "Feature",
      "id": "france-projet-014-cooperl",
      "geometry": {
        "type": "Point",
        "coordinates": [
          -2.538592,
          48.4622954
        ]
      },
      "properties": {
        "name": "Cooperl",
        "category": "Biocarburants",
        "icon": "🌿",
        "region": "Bretagne",
        "departement": "Côte d'Armor",
        "ville": "Lamballe",
        "projet": "Production de biocarburants",
        "coord_source": "nominatim",
        "coord_accuracy": "medium",
        "feeds": {
          "company_rss": null,
          "company_url": "https://www.cooperl.com",
          "changedetection_url": "https://www.cooperl.com/actualites",
          "keywords": [
            "Cooperl",
            "biocarburants",
            "Lamballe",
            "Côte d'Armor"
          ],
          "sector_rss": [
            "https://www.usinenouvelle.com/arc/outboundfeeds/rss/"
          ],
          "changedetection_uuid": "da2af874-1a43-4755-847d-1f7a8a500f32"
        }
      }
    },
    {
      "type": "Feature",
      "id": "france-projet-015-ldc",
      "geometry": {
        "type": "Point",
        "coordinates": [
          -4.0916875,
          48.1968026
        ]
      },
      "properties": {
        "name": "LDC",
        "category": "Agroalimentaire",
        "icon": "🌾",
        "region": "Bretagne",
        "departement": "Finistère",
        "ville": "Châteaulin",
        "projet": "Création d'une usine d'abattage de volaille",
        "coord_source": "nominatim",
        "coord_accuracy": "high",
        "feeds": {
          "company_rss": null,
          "company_url": "https://www.ldc.fr",
          "changedetection_url": "https://www.ldc.fr/actualites",
          "keywords": [
            "LDC",
            "volaille",
            "abattage",
            "Châteaulin",
            "Finistère"
          ],
          "sector_rss": [
            "https://www.usinenouvelle.com/arc/outboundfeeds/rss/"
          ],
          "changedetection_uuid": "53a7939f-5f56-475c-9dc3-dde39b924a58"
        }
      }
    },
    {
      "type": "Feature",
      "id": "france-projet-016-sigmaphi",
      "geometry": {
        "type": "Point",
        "coordinates": [
          -2.7599079,
          47.6586772
        ]
      },
      "properties": {
        "name": "Sigmaphi",
        "category": "Matériaux critiques",
        "icon": "🔋",
        "region": "Bretagne",
        "departement": "Morbihan",
        "ville": "Vannes",
        "projet": "Construction d'une nouvelle usine d'assemblage d'aimants",
        "coord_source": "nominatim",
        "coord_accuracy": "high",
        "feeds": {
          "company_rss": null,
          "company_url": "https://www.sigmaphi.fr",
          "changedetection_url": "https://www.sigmaphi.fr/actualites",
          "keywords": [
            "Sigmaphi",
            "aimants",
            "Vannes",
            "Morbihan"
          ],
          "sector_rss": [
            "https://www.usinenouvelle.com/arc/outboundfeeds/rss/"
          ],
          "changedetection_uuid": "f5f06ada-98fb-4875-a032-cd8846a6d666"
        }
      }
    },
    {
      "type": "Feature",
      "id": "france-projet-017-mbda",
      "geometry": {
        "type": "Point",
        "coordinates": [
          2.399125,
          47.0811658
        ]
      },
      "properties": {
        "name": "MBDA",
        "category": "Industrie",
        "icon": "🏭",
        "region": "Centre-Val de Loire",
        "departement": "Cher",
        "ville": "Bourges",
        "projet": "Agrandissement",
        "coord_source": "nominatim",
        "coord_accuracy": "high",
        "feeds": {
          "company_rss": null,
          "company_url": "https://www.mbda-systems.com",
          "changedetection_url": "https://www.mbda-systems.com/newsroom/",
          "keywords": [
            "MBDA",
            "missiles",
            "défense",
            "Bourges"
          ],
          "sector_rss": [
            "https://www.usinenouvelle.com/arc/outboundfeeds/rss/"
          ],
          "changedetection_uuid": "bb70bd9e-17cf-48f2-a424-9980b031b752"
        }
      }
    },
    {
      "type": "Feature",
      "id": "france-projet-018-knds",
      "geometry": {
        "type": "Point",
        "coordinates": [
          2.399125,
          47.0811658
        ]
      },
      "properties": {
        "name": "KNDS",
        "category": "Industrie",
        "icon": "🏭",
        "region": "Centre-Val de Loire",
        "departement": "Cher",
        "ville": "Bourges",
        "projet": "Agrandissement",
        "coord_source": "nominatim",
        "coord_accuracy": "high",
        "feeds": {
          "company_rss": null,
          "company_url": "https://www.knds.com",
          "changedetection_url": "https://www.knds.com/actualites",
          "keywords": [
            "KNDS",
            "défense",
            "armement",
            "Bourges"
          ],
          "sector_rss": [
            "https://www.usinenouvelle.com/arc/outboundfeeds/rss/"
          ],
          "changedetection_uuid": "40ea0b93-dd7f-49f2-882f-af98fac7c63a"
        }
      }
    },
    {
      "type": "Feature",
      "id": "france-projet-019-google",
      "geometry": {
        "type": "Point",
        "coordinates": [
          1.7010433,
          46.8267767
        ]
      },
      "properties": {
        "name": "Google",
        "category": "Data Center & IA",
        "icon": "🖥️",
        "region": "Centre-Val de Loire",
        "departement": "Indre",
        "ville": "Déols / Châteauroux",
        "projet": "Data center",
        "coord_source": "nominatim",
        "coord_accuracy": "high",
        "feeds": {
          "company_rss": null,
          "company_url": "https://blog.google/intl/fr-fr/",
          "changedetection_url": "https://blog.google/intl/fr-fr/",
          "keywords": [
            "Google",
            "data center",
            "Déols",
            "Châteauroux",
            "cloud"
          ],
          "sector_rss": [
            "https://www.usinenouvelle.com/arc/outboundfeeds/rss/"
          ],
          "changedetection_uuid": "72534fe0-f6c5-4e04-a905-6d032fa3d17a"
        }
      }
    },
    {
      "type": "Feature",
      "id": "france-projet-020-intact",
      "geometry": {
        "type": "Point",
        "coordinates": [
          2.0024518,
          48.2372201
        ]
      },
      "properties": {
        "name": "Intact",
        "category": "Industrie",
        "icon": "🏭",
        "region": "Centre-Val de Loire",
        "departement": "Loiret",
        "ville": "Baudreville",
        "projet": "Création d'une usine d'ingrédients protéiques végétaux innovants",
        "coord_source": "nominatim",
        "coord_accuracy": "high",
        "feeds": {
          "company_rss": null,
          "company_url": "https://www.intact-food.com",
          "changedetection_url": "https://www.horizons-journal.fr/intact-ouvre-un-debouche-industriel-aux-legumineuses",
          "keywords": [
            "Intact",
            "protéines végétales",
            "Baudreville",
            "Loiret"
          ],
          "sector_rss": [
            "https://www.usinenouvelle.com/arc/outboundfeeds/rss/"
          ],
          "changedetection_uuid": "d5692861-f2f6-40a3-a1dc-10c1119fbc6c"
        }
      }
    },
    {
      "type": "Feature",
      "id": "france-projet-021-thales",
      "geometry": {
        "type": "Point",
        "coordinates": [
          1.9208883,
          47.9309156
        ]
      },
      "properties": {
        "name": "Thales",
        "category": "Industrie",
        "icon": "🏭",
        "region": "Centre-Val de Loire",
        "departement": "Loiret",
        "ville": "Fleury-les-Aubrais",
        "projet": "Augmentation de la capacité de production",
        "coord_source": "nominatim",
        "coord_accuracy": "high",
        "feeds": {
          "company_rss": "https://www.thalesgroup.com/en/feeds/press-room/rss.xml",
          "company_url": "https://www.thalesgroup.com",
          "changedetection_url": "https://www.thalesgroup.com/en/newsroom",
          "changedetection_uuid": null,
          "keywords": [
            "Thales",
            "Fleury-les-Aubrais",
            "Loiret",
            "capacité de production"
          ],
          "sector_rss": [
            "https://www.usinenouvelle.com/arc/outboundfeeds/rss/"
          ],
          "rss_uuid": "339afd38-63bf-432a-a99e-61d6eb512886"
        }
      }
    },
    {
      "type": "Feature",
      "id": "france-projet-022-barbas-plailly",
      "geometry": {
        "type": "Point",
        "coordinates": [
          1.7434925,
          47.3592182
        ]
      },
      "properties": {
        "name": "Barbas & Plailly",
        "category": "Industrie",
        "icon": "🏭",
        "region": "Centre-Val de Loire",
        "departement": "Loir-et-Cher",
        "ville": "Romorantin-Lanthenay",
        "projet": "Augmentation de la capacité de production",
        "coord_source": "nominatim",
        "coord_accuracy": "high",
        "feeds": {
          "company_rss": null,
          "company_url": "https://www.barbas-plailly.com",
          "changedetection_url": "https://fonderie-piwi.fr/barbas-plailly-une-fonderie-d-aluminium-dans-le-top-5-de-la-qualite/",
          "keywords": [
            "Barbas",
            "Plailly",
            "Romorantin-Lanthenay",
            "Loir-et-Cher"
          ],
          "sector_rss": [
            "https://www.usinenouvelle.com/arc/outboundfeeds/rss/"
          ],
          "changedetection_uuid": "e712bbf5-48c7-4c03-8b69-47f4defbaf92"
        }
      }
    },
    {
      "type": "Feature",
      "id": "france-projet-023-aresia",
      "geometry": {
        "type": "Point",
        "coordinates": [
          1.4478281,
          47.8514582
        ]
      },
      "properties": {
        "name": "Aresia",
        "category": "Industrie",
        "icon": "🏭",
        "region": "Centre-Val de Loire",
        "departement": "Loir-et-Cher",
        "ville": "Saint-Laurent-des-Bois",
        "projet": "Extension de site",
        "coord_source": "nominatim",
        "coord_accuracy": "high",
        "feeds": {
          "company_rss": null,
          "company_url": "https://www.aresia.fr",
          "changedetection_url": "https://aresia.com/charte-de-confidentialite/",
          "keywords": [
            "Aresia",
            "Saint-Laurent-des-Bois",
            "Loir-et-Cher",
            "aéronautique"
          ],
          "sector_rss": [
            "https://www.usinenouvelle.com/arc/outboundfeeds/rss/"
          ],
          "changedetection_uuid": "b4a8a3a2-608d-4d5e-99a2-b13ebe908fe9"
        }
      }
    },
    {
      "type": "Feature",
      "id": "france-projet-024-bertin-technologies",
      "geometry": {
        "type": "Point",
        "coordinates": [
          0.9930862,
          48.3109425
        ]
      },
      "properties": {
        "name": "Bertin technologies",
        "category": "Industrie",
        "icon": "🏭",
        "region": "Centre-Val de Loire",
        "departement": "Eure et Loir",
        "ville": "Thiron-Gardais",
        "projet": "Modernisation et développement",
        "coord_source": "nominatim",
        "coord_accuracy": "high",
        "feeds": {
          "company_rss": null,
          "company_url": "https://www.bertin-technologies.com",
          "changedetection_url": "https://www.bertin-technologies.com/fr/actualites",
          "keywords": [
            "Bertin Technologies",
            "Thiron-Gardais",
            "défense",
            "nucléaire"
          ],
          "sector_rss": [
            "https://www.usinenouvelle.com/arc/outboundfeeds/rss/"
          ],
          "changedetection_uuid": "ad995ade-7351-4d72-8fe7-d311d59a6caa"
        }
      }
    },
    {
      "type": "Feature",
      "id": "france-projet-025-arverne",
      "geometry": {
        "type": "Point",
        "coordinates": [
          7.953219,
          48.9027356
        ]
      },
      "properties": {
        "name": "Arverne",
        "category": "Matériaux critiques",
        "icon": "🔋",
        "region": "Grand Est",
        "departement": "Bas-Rhin",
        "ville": "Rittershoffen",
        "projet": "Extraction directe de lithium",
        "coord_source": "nominatim",
        "coord_accuracy": "high",
        "feeds": {
          "company_rss": null,
          "company_url": "https://www.arverne.com",
          "changedetection_url": "https://arverne.earth/cat/actualite/",
          "keywords": [
            "Arverne",
            "lithium",
            "extraction directe",
            "Rittershoffen",
            "Bas-Rhin"
          ],
          "sector_rss": [
            "https://www.usinenouvelle.com/arc/outboundfeeds/rss/"
          ],
          "changedetection_uuid": "5c6644fc-c42c-4857-80a2-51ab33aab9c6"
        }
      }
    },
    {
      "type": "Feature",
      "id": "france-projet-026-edf",
      "geometry": {
        "type": "Point",
        "coordinates": [
          7.5360223,
          47.915436
        ]
      },
      "properties": {
        "name": "EDF",
        "category": "Énergie & Nucléaire",
        "icon": "⚡",
        "region": "Grand Est",
        "departement": "Haut-Rhin",
        "ville": "Fessenheim",
        "projet": "Technocentre de Fessenheim : usine de recyclage de métaux faiblement radioactifs issus du nucléaire",
        "coord_source": "nominatim",
        "coord_accuracy": "high",
        "feeds": {
          "company_rss": "https://www.edf.fr/en/edf/rss-feeds-listing",
          "company_url": "https://www.edf.fr",
          "changedetection_url": "https://www.edf.fr/en/the-edf-group/dedicated-sections/journalists/all-press-releases",
          "changedetection_uuid": null,
          "keywords": [
            "EDF",
            "Fessenheim",
            "nucléaire",
            "recyclage métaux",
            "technocentre"
          ],
          "sector_rss": [
            "https://www.usinenouvelle.com/arc/outboundfeeds/rss/"
          ],
          "rss_uuid": "3e7ad042-a78d-48f5-b4b6-774b70b32fd1"
        }
      }
    },
    {
      "type": "Feature",
      "id": "france-projet-027-carbios",
      "geometry": {
        "type": "Point",
        "coordinates": [
          5.8023036,
          49.5339956
        ]
      },
      "properties": {
        "name": "Carbios",
        "category": "Recyclage",
        "icon": "♻️",
        "region": "Grand Est",
        "departement": "Meurthe-et-Moselle",
        "ville": "Longlaville",
        "projet": "Usine de biorecyclage – Première usine mondiale de recyclage",
        "coord_source": "nominatim",
        "coord_accuracy": "high",
        "feeds": {
          "company_rss": null,
          "company_url": "https://www.carbios.com",
          "changedetection_url": "https://www.carbios.com/newsroom/fr/",
          "keywords": [
            "Carbios",
            "biorecyclage",
            "PET",
            "Longlaville",
            "Meurthe-et-Moselle"
          ],
          "sector_rss": [
            "https://www.usinenouvelle.com/arc/outboundfeeds/rss/"
          ],
          "changedetection_uuid": "1b24d8a7-624a-4d3f-b229-0f8de05cba54"
        }
      }
    },
    {
      "type": "Feature",
      "id": "france-projet-029-holosolis",
      "geometry": {
        "type": "Point",
        "coordinates": [
          7.0372308,
          49.0613593
        ]
      },
      "properties": {
        "name": "Holosolis",
        "category": "Énergie & Nucléaire",
        "icon": "⚡",
        "region": "Grand Est",
        "departement": "Moselle",
        "ville": "Hambach",
        "projet": "Gigafactory photovoltaïque – Production de panneaux solaires à grande échelle",
        "coord_source": "nominatim",
        "coord_accuracy": "high",
        "feeds": {
          "company_rss": null,
          "company_url": "https://www.holosolis.com",
          "changedetection_url": "https://www.holosolis.com/presse",
          "keywords": [
            "Holosolis",
            "photovoltaïque",
            "panneaux solaires",
            "Hambach",
            "Moselle"
          ],
          "sector_rss": [
            "https://www.usinenouvelle.com/arc/outboundfeeds/rss/"
          ],
          "changedetection_uuid": "6d7bc229-09df-4eda-bd70-1e3486698a6b"
        }
      }
    },
    {
      "type": "Feature",
      "id": "france-projet-029-eclairion",
      "geometry": {
        "type": "Point",
        "coordinates": [
          6.1897,
          49.1694
        ]
      },
      "properties": {
        "name": "Eclairion",
        "category": "Data Center & IA",
        "icon": "🖥️",
        "region": "Grand Est",
        "departement": "Moselle",
        "ville": "La Maxe et Richemont",
        "projet": "Datacenters La Maxe et Richemont – Projet de supercalculateurs et centres de données",
        "coord_source": "nominatim",
        "coord_accuracy": "high",
        "feeds": {
          "company_rss": null,
          "company_url": "https://www.eclairion.com",
          "changedetection_url": "https://www.eclairion.com/actualites",
          "keywords": [
            "Eclairion",
            "datacenter",
            "supercalculateur",
            "La Maxe",
            "Richemont"
          ],
          "sector_rss": [
            "https://www.usinenouvelle.com/arc/outboundfeeds/rss/"
          ],
          "changedetection_uuid": "79368bfb-fca8-4033-94b4-401d02e2b47e"
        }
      }
    },
    {
      "type": "Feature",
      "id": "france-projet-030-circ",
      "geometry": {
        "type": "Point",
        "coordinates": [
          6.7071754,
          49.1043397
        ]
      },
      "properties": {
        "name": "CIRC",
        "category": "Recyclage",
        "icon": "♻️",
        "region": "Grand Est",
        "departement": "Moselle",
        "ville": "Saint-Avold",
        "projet": "Usine de recyclage textile – Recyclage et valorisation de textiles complexes",
        "coord_source": "nominatim",
        "coord_accuracy": "high",
        "feeds": {
          "company_rss": null,
          "company_url": "https://www.circularfashion.com",
          "changedetection_url": "https://www.circularfashion.com/news",
          "keywords": [
            "CIRC",
            "recyclage textile",
            "Saint-Avold",
            "Moselle"
          ],
          "sector_rss": [
            "https://www.usinenouvelle.com/arc/outboundfeeds/rss/"
          ],
          "changedetection_uuid": "0be551e7-14ed-4886-8106-6bfeda325583"
        }
      }
    },
    {
      "type": "Feature",
      "id": "france-projet-031-verso-energy",
      "geometry": {
        "type": "Point",
        "coordinates": [
          3.2918511,
          49.6558465
        ]
      },
      "properties": {
        "name": "Verso Energy",
        "category": "Biocarburants",
        "icon": "🌿",
        "region": "Hauts de France",
        "departement": "Aisne",
        "ville": "Tergnier",
        "projet": "Production de biocarburants",
        "coord_source": "nominatim",
        "coord_accuracy": "high",
        "feeds": {
          "company_rss": null,
          "company_url": "https://www.verso.energy",
          "changedetection_url": "https://www.verso.energy/actualites",
          "keywords": [
            "Verso Energy",
            "biocarburants",
            "Tergnier",
            "Aisne"
          ],
          "sector_rss": [
            "https://www.usinenouvelle.com/arc/outboundfeeds/rss/"
          ],
          "changedetection_uuid": "53ad0eee-aac1-472f-bce3-b542d6e89f8a"
        }
      }
    },
    {
      "type": "Feature",
      "id": "france-projet-032-axens",
      "geometry": {
        "type": "Point",
        "coordinates": [
          2.3772525,
          51.0347708
        ]
      },
      "properties": {
        "name": "Axens",
        "category": "Matériaux critiques",
        "icon": "🔋",
        "region": "Hauts de France",
        "departement": "Nord",
        "ville": "Dunkerque",
        "projet": "Production de matériaux cathodiques pour batteries",
        "coord_source": "nominatim",
        "coord_accuracy": "high",
        "feeds": {
          "company_rss": null,
          "company_url": "https://www.axens.net",
          "changedetection_url": "https://www.axens.net/resources-events/news",
          "keywords": [
            "Axens",
            "matériaux cathodiques",
            "batteries",
            "Dunkerque"
          ],
          "sector_rss": [
            "https://www.usinenouvelle.com/arc/outboundfeeds/rss/"
          ],
          "changedetection_uuid": "a1986512-88b8-4596-a71a-8d2c513723ac"
        }
      }
    },
    {
      "type": "Feature",
      "id": "france-projet-033-crystalrod",
      "geometry": {
        "type": "Point",
        "coordinates": [
          2.3772525,
          51.0347708
        ]
      },
      "properties": {
        "name": "Crystalrod",
        "category": "Recyclage",
        "icon": "♻️",
        "region": "Hauts de France",
        "departement": "Nord",
        "ville": "Dunkerque",
        "projet": "Usine d’aluminium – Recyclage et transformation de câbles en aluminium",
        "coord_source": "nominatim",
        "coord_accuracy": "high",
        "feeds": {
          "company_rss": null,
          "company_url": "https://www.crystalrod.fr",
          "changedetection_url": "https://fonderie-piwi.fr/les-contours-du-projet-de-fonderie-de-crystalrod/",
          "keywords": [
            "Crystalrod",
            "aluminium",
            "recyclage",
            "câbles",
            "Dunkerque"
          ],
          "sector_rss": [
            "https://www.usinenouvelle.com/arc/outboundfeeds/rss/"
          ],
          "changedetection_uuid": "b95c43ba-6e32-421b-967e-c180bac3eb20"
        }
      }
    },
    {
      "type": "Feature",
      "id": "france-projet-034-arcelor-mittal",
      "geometry": {
        "type": "Point",
        "coordinates": [
          2.3772525,
          51.0347708
        ]
      },
      "properties": {
        "name": "Arcelor Mittal",
        "category": "Sidérurgie",
        "icon": "⚙️",
        "region": "Hauts de France",
        "departement": "Nord",
        "ville": "Dunkerque",
        "projet": "Four électrique",
        "coord_source": "nominatim",
        "coord_accuracy": "high",
        "feeds": {
          "company_rss": null,
          "company_url": "https://corporate.arcelormittal.com",
          "changedetection_url": "https://corporate.arcelormittal.com/media/press-releases",
          "keywords": [
            "ArcelorMittal",
            "four électrique",
            "acier",
            "Dunkerque"
          ],
          "sector_rss": [
            "https://www.usinenouvelle.com/arc/outboundfeeds/rss/"
          ],
          "changedetection_uuid": "fb3d3932-0397-4ad7-b36b-2e4512eb8fbb"
        }
      }
    },
    {
      "type": "Feature",
      "id": "france-projet-035-windrose-technology",
      "geometry": {
        "type": "Point",
        "coordinates": [
          2.3772525,
          51.0347708
        ]
      },
      "properties": {
        "name": "Windrose Technology",
        "category": "Électromobilité",
        "icon": "🚗",
        "region": "Hauts de France",
        "departement": "Nord",
        "ville": "Dunkerque",
        "projet": "Production de camions électriques",
        "coord_source": "nominatim",
        "coord_accuracy": "high",
        "feeds": {
          "company_rss": null,
          "company_url": "https://www.windrose-technology.com",
          "changedetection_url": "https://www.hautsdefrance.fr/electromobilite-windrose-choisit-les-hauts-de-france-pour-sa-base-industrielle-europeenne/",
          "keywords": [
            "Windrose Technology",
            "camions électriques",
            "Dunkerque",
            "électromobilité"
          ],
          "sector_rss": [
            "https://www.usinenouvelle.com/arc/outboundfeeds/rss/"
          ],
          "changedetection_uuid": "494b6b32-4e45-41f3-a4ee-d7ddef29fd46"
        }
      }
    },
    {
      "type": "Feature",
      "id": "france-projet-036-nexans",
      "geometry": {
        "type": "Point",
        "coordinates": [
          2.8319805,
          50.4291723
        ]
      },
      "properties": {
        "name": "Nexans",
        "category": "Recyclage",
        "icon": "♻️",
        "region": "Hauts de France",
        "departement": "Pas-de-Calais",
        "ville": "Lens",
        "projet": "Nexagreen : production de cuivre recyclé pour câbles bas carbone",
        "coord_source": "nominatim",
        "coord_accuracy": "high",
        "feeds": {
          "company_rss": "https://www.nexans.com/en/rss/",
          "company_url": "https://www.nexans.com",
          "changedetection_url": "https://www.nexans.com/news-media-room/press-releases/",
          "changedetection_uuid": null,
          "keywords": [
            "Nexans",
            "Nexagreen",
            "cuivre recyclé",
            "câbles",
            "Lens"
          ],
          "sector_rss": [
            "https://www.usinenouvelle.com/arc/outboundfeeds/rss/"
          ],
          "rss_uuid": "57c05ead-cbdc-4af4-939d-94a83af76c96"
        }
      }
    },
    {
      "type": "Feature",
      "id": "france-projet-037-fertighy",
      "geometry": {
        "type": "Point",
        "coordinates": [
          2.9304343,
          49.7476535
        ]
      },
      "properties": {
        "name": "Fertighy",
        "category": "Agroalimentaire",
        "icon": "🌾",
        "region": "Hauts de France",
        "departement": "Somme",
        "ville": "Languevoisin-Quiquery / Nesle",
        "projet": "Construction d'une usine de production d'engrais à faible émission de carbone",
        "coord_source": "nominatim",
        "coord_accuracy": "high",
        "feeds": {
          "company_rss": null,
          "company_url": "https://www.fertighy.com",
          "changedetection_url": "https://www.fertighy.com/news",
          "keywords": [
            "Fertighy",
            "engrais",
            "bas carbone",
            "Nesle",
            "Somme"
          ],
          "sector_rss": [
            "https://www.usinenouvelle.com/arc/outboundfeeds/rss/"
          ],
          "changedetection_uuid": "9baadc81-7812-47d0-8d64-dfebe293bddc"
        }
      }
    },
    {
      "type": "Feature",
      "id": "france-projet-038-eclairion",
      "geometry": {
        "type": "Point",
        "coordinates": [
          2.1909499,
          48.5922609
        ]
      },
      "properties": {
        "name": "Eclairion",
        "category": "Data Center & IA",
        "icon": "🖥️",
        "region": "Ile-de-France",
        "departement": "Essonne",
        "ville": "Bruyères-le-Châtel",
        "projet": "Infrastructure dédiée au calcul intensif et aux data centers",
        "coord_source": "nominatim",
        "coord_accuracy": "high",
        "feeds": {
          "company_rss": null,
          "company_url": "https://www.eclairion.com",
          "changedetection_url": "https://www.eclairion.com/actualites",
          "keywords": [
            "Eclairion",
            "datacenter",
            "calcul intensif",
            "Bruyères-le-Châtel",
            "Essonne"
          ],
          "sector_rss": [
            "https://www.usinenouvelle.com/arc/outboundfeeds/rss/"
          ],
          "changedetection_uuid": "b30bf9c9-29a2-4c2c-b370-b2dafd867794"
        }
      }
    },
    {
      "type": "Feature",
      "id": "france-projet-039-harmattan-ai",
      "geometry": {
        "type": "Point",
        "coordinates": [
          2.172576,
          48.7305162
        ]
      },
      "properties": {
        "name": "Harmattan AI",
        "category": "Data Center & IA",
        "icon": "🖥️",
        "region": "Ile-de-France",
        "departement": "Essonne",
        "ville": "Saclay / Palaiseau",
        "projet": "Usine de production de drones",
        "coord_source": "nominatim",
        "coord_accuracy": "high",
        "feeds": {
          "company_rss": null,
          "company_url": "https://www.harmattan.ai",
          "changedetection_url": "https://www.harmattan.ai/news",
          "keywords": [
            "Harmattan AI",
            "drones",
            "Saclay",
            "Palaiseau",
            "Essonne"
          ],
          "sector_rss": [
            "https://www.usinenouvelle.com/arc/outboundfeeds/rss/"
          ],
          "changedetection_uuid": "3b6515f1-7866-455d-9e9d-2ba18efd0a06"
        }
      }
    },
    {
      "type": "Feature",
      "id": "france-projet-040-mersen-france",
      "geometry": {
        "type": "Point",
        "coordinates": [
          2.2940122,
          48.9254221
        ]
      },
      "properties": {
        "name": "Mersen France",
        "category": "Industrie",
        "icon": "🏭",
        "region": "Ile-de-France",
        "departement": "Hauts-de-Seine",
        "ville": "Gennevilliers",
        "projet": "Augmentation de la production",
        "coord_source": "nominatim",
        "coord_accuracy": "high",
        "feeds": {
          "company_rss": null,
          "company_url": "https://www.mersen.com",
          "changedetection_url": "https://www.mersen.com/fr/presse",
          "keywords": [
            "Mersen",
            "Gennevilliers",
            "Hauts-de-Seine",
            "matériaux"
          ],
          "sector_rss": [
            "https://www.usinenouvelle.com/arc/outboundfeeds/rss/"
          ],
          "changedetection_uuid": "5a9b11f5-9332-4570-9582-9949aa04bff0"
        }
      }
    },
    {
      "type": "Feature",
      "id": "france-projet-041-wandercraft",
      "geometry": {
        "type": "Point",
        "coordinates": [
          2.320041,
          48.8588897
        ]
      },
      "properties": {
        "name": "Wandercraft",
        "category": "Industrie",
        "icon": "🏭",
        "region": "Ile-de-France",
        "departement": "Paris",
        "ville": "Paris",
        "projet": "Production de robots pour la santé et l'industrie automobile",
        "coord_source": "nominatim",
        "coord_accuracy": "high",
        "feeds": {
          "company_rss": null,
          "company_url": "https://www.wandercraft.eu",
          "changedetection_url": "https://www.wandercraft.eu/press",
          "keywords": [
            "Wandercraft",
            "robots",
            "santé",
            "Paris",
            "exosquelette"
          ],
          "sector_rss": [
            "https://www.usinenouvelle.com/arc/outboundfeeds/rss/"
          ],
          "changedetection_uuid": "84e3790a-42b7-4dfe-9f69-b904f487342d"
        }
      }
    },
    {
      "type": "Feature",
      "id": "france-projet-042-mgx",
      "geometry": {
        "type": "Point",
        "coordinates": [
          2.7171086,
          48.8389953
        ]
      },
      "properties": {
        "name": "MGX",
        "category": "Industrie",
        "icon": "🏭",
        "region": "Ile-de-France",
        "departement": "Seine-et-Marne",
        "ville": "Bussy-Saint-Georges",
        "projet": "Projet de centre de données",
        "coord_source": "nominatim",
        "coord_accuracy": "high",
        "feeds": {
          "company_rss": null,
          "company_url": "https://www.mgx.com",
          "changedetection_url": "https://www.mgx.com/news",
          "keywords": [
            "MGX",
            "data center",
            "Bussy-Saint-Georges",
            "Seine-et-Marne"
          ],
          "sector_rss": [
            "https://www.usinenouvelle.com/arc/outboundfeeds/rss/"
          ],
          "changedetection_uuid": "b2be0636-9ccd-425f-bcbd-25a5a557227f"
        }
      }
    },
    {
      "type": "Feature",
      "id": "france-projet-043-opcore",
      "geometry": {
        "type": "Point",
        "coordinates": [
          2.7171086,
          48.8389953
        ]
      },
      "properties": {
        "name": "Opcore",
        "category": "Industrie",
        "icon": "🏭",
        "region": "Ile-de-France",
        "departement": "Seine-et-Marne",
        "ville": "Bussy-Saint-Georges",
        "projet": "Projet de centre de données porté avec Iliad",
        "coord_source": "nominatim",
        "coord_accuracy": "high",
        "feeds": {
          "company_rss": null,
          "company_url": "https://www.iliad.fr",
          "changedetection_url": "https://www.iliad.fr/presse/communiques-de-presse",
          "keywords": [
            "Opcore",
            "Iliad",
            "data center",
            "Bussy-Saint-Georges"
          ],
          "sector_rss": [
            "https://www.usinenouvelle.com/arc/outboundfeeds/rss/"
          ],
          "changedetection_uuid": "458585b3-ed30-4a34-b003-b96992d2cf43"
        }
      }
    },
    {
      "type": "Feature",
      "id": "france-projet-044-derichebourg",
      "geometry": {
        "type": "Point",
        "coordinates": [
          2.1513279,
          49.0992941
        ]
      },
      "properties": {
        "name": "Derichebourg",
        "category": "Recyclage",
        "icon": "♻️",
        "region": "Ile-de-France",
        "departement": "Val d'Oise",
        "ville": "Saint-Ouen-l'Aumône",
        "projet": "Recyclage de batteries de véhicules électriques",
        "coord_source": "nominatim",
        "coord_accuracy": "high",
        "feeds": {
          "company_rss": null,
          "company_url": "https://www.derichebourg.com",
          "changedetection_url": "https://www.derichebourg.com/presse",
          "keywords": [
            "Derichebourg",
            "batteries",
            "véhicules électriques",
            "Saint-Ouen-l'Aumône"
          ],
          "sector_rss": [
            "https://www.usinenouvelle.com/arc/outboundfeeds/rss/"
          ],
          "changedetection_uuid": "7f7666fb-bcd7-4420-9808-f909edd1aad9"
        }
      }
    },
    {
      "type": "Feature",
      "id": "france-projet-045-semmaris",
      "geometry": {
        "type": "Point",
        "coordinates": [
          2.4500537,
          48.9863555
        ]
      },
      "properties": {
        "name": "Semmaris",
        "category": "Industrie",
        "icon": "🏭",
        "region": "Ile-de-France",
        "departement": "Val d'Oise",
        "ville": "Gonesse",
        "projet": "Pôle agroalimentaire complémentaire",
        "coord_source": "nominatim",
        "coord_accuracy": "high",
        "feeds": {
          "company_rss": null,
          "company_url": "https://www.semmaris.fr",
          "changedetection_url": "https://www.semmaris.fr/actualites",
          "keywords": [
            "Semmaris",
            "Rungis",
            "agroalimentaire",
            "Gonesse",
            "Val d'Oise"
          ],
          "sector_rss": [
            "https://www.usinenouvelle.com/arc/outboundfeeds/rss/"
          ],
          "changedetection_uuid": "b17b1c7f-219e-4a51-9292-4a42be1d601c"
        }
      }
    },
    {
      "type": "Feature",
      "id": "france-projet-046-solmax",
      "geometry": {
        "type": "Point",
        "coordinates": [
          1.7140683,
          48.9891971
        ]
      },
      "properties": {
        "name": "Solmax",
        "category": "Industrie",
        "icon": "🏭",
        "region": "Ile-de-France",
        "departement": "Yvelines",
        "ville": "Mantes-la-Jolie",
        "projet": "Regrouper et décarboner des productions",
        "coord_source": "nominatim",
        "coord_accuracy": "high",
        "feeds": {
          "company_rss": null,
          "company_url": "https://www.solmax.com",
          "changedetection_url": "https://www.solmax.com/fr/actualites",
          "keywords": [
            "Solmax",
            "géosynthétiques",
            "Mantes-la-Jolie",
            "décarbonation"
          ],
          "sector_rss": [
            "https://www.usinenouvelle.com/arc/outboundfeeds/rss/"
          ],
          "changedetection_uuid": "7f850371-b157-4ea6-8201-5c13f5117ddd"
        }
      }
    },
    {
      "type": "Feature",
      "id": "france-projet-047-soredab",
      "geometry": {
        "type": "Point",
        "coordinates": [
          1.9554697,
          48.7555258
        ]
      },
      "properties": {
        "name": "Soredab",
        "category": "Industrie",
        "icon": "🏭",
        "region": "Ile-de-France",
        "departement": "Yvelines",
        "ville": "La Verrière",
        "projet": "Extension de son site R&D",
        "coord_source": "nominatim",
        "coord_accuracy": "high",
        "feeds": {
          "company_rss": null,
          "company_url": "https://www.soredab.com",
          "changedetection_url": "https://www.vegepolys-valley.eu/le-pole/les-adherents-annuaire-et-carte/l-annuaire-des-adherents/14266-sa-soredab.html",
          "keywords": [
            "Soredab",
            "R&D",
            "La Verrière",
            "Yvelines"
          ],
          "sector_rss": [
            "https://www.usinenouvelle.com/arc/outboundfeeds/rss/"
          ],
          "changedetection_uuid": "a53c50c3-960d-4b01-b907-b4e187b485ec"
        }
      }
    },
    {
      "type": "Feature",
      "id": "france-projet-048-tertu",
      "geometry": {
        "type": "Point",
        "coordinates": [
          -1.0848064,
          48.8280791
        ]
      },
      "properties": {
        "name": "Tertu",
        "category": "Biocarburants",
        "icon": "🌿",
        "region": "Normandie",
        "departement": "Calvados",
        "ville": "Villedieu-les-Poêles",
        "projet": "Production de biocarburants",
        "coord_source": "nominatim",
        "coord_accuracy": "high",
        "feeds": {
          "company_rss": null,
          "company_url": "https://www.tertu.fr",
          "changedetection_url": "https://www.tertu.fr/actualites",
          "keywords": [
            "Tertu",
            "biocarburants",
            "Villedieu-les-Poêles",
            "Calvados"
          ],
          "sector_rss": [
            "https://www.usinenouvelle.com/arc/outboundfeeds/rss/"
          ],
          "changedetection_uuid": "0172d84e-1ac2-4386-81b6-fef68c856b26"
        }
      }
    },
    {
      "type": "Feature",
      "id": "france-projet-049-maiaspace",
      "geometry": {
        "type": "Point",
        "coordinates": [
          1.4857205,
          49.0932008
        ]
      },
      "properties": {
        "name": "MaiaSpace",
        "category": "Aéronautique & Défense",
        "icon": "✈️",
        "region": "Normandie",
        "departement": "Eure",
        "ville": "Vernon",
        "projet": "Usine de production de lanceurs spaciaux réutilisables",
        "coord_source": "nominatim",
        "coord_accuracy": "high",
        "feeds": {
          "company_rss": null,
          "company_url": "https://www.maiaspace.com",
          "changedetection_url": "https://www.ariane.group/transport-spatial/maia/",
          "keywords": [
            "MaiaSpace",
            "lanceurs spatiaux",
            "réutilisable",
            "Vernon",
            "Eure"
          ],
          "sector_rss": [
            "https://www.usinenouvelle.com/arc/outboundfeeds/rss/"
          ],
          "changedetection_uuid": "a175185c-d168-41ed-b413-dfa0051a4e9a"
        }
      }
    },
    {
      "type": "Feature",
      "id": "france-projet-050-eastman",
      "geometry": {
        "type": "Point",
        "coordinates": [
          0.6005386,
          49.505435
        ]
      },
      "properties": {
        "name": "Eastman",
        "category": "Recyclage",
        "icon": "♻️",
        "region": "Normandie",
        "departement": "Seine-Maritime",
        "ville": "Port-Jérôme-sur-Seine",
        "projet": "Recyclage avancé des plastiques",
        "coord_source": "nominatim",
        "coord_accuracy": "high",
        "feeds": {
          "company_rss": null,
          "company_url": "https://www.eastman.com/fr",
          "changedetection_url": "https://www.eastman.com/fr/news-and-events",
          "keywords": [
            "Eastman",
            "recyclage plastiques",
            "Port-Jérôme-sur-Seine",
            "Seine-Maritime"
          ],
          "sector_rss": [
            "https://www.usinenouvelle.com/arc/outboundfeeds/rss/"
          ],
          "changedetection_uuid": "b4d7da7c-0090-428d-add4-0c57baf6fe64"
        }
      }
    },
    {
      "type": "Feature",
      "id": "france-projet-051-verso-energy",
      "geometry": {
        "type": "Point",
        "coordinates": [
          0.6005386,
          49.505435
        ]
      },
      "properties": {
        "name": "Verso Energy",
        "category": "Biocarburants",
        "icon": "🌿",
        "region": "Normandie",
        "departement": "Seine-Maritime",
        "ville": "Port-Jérôme-sur-Seine",
        "projet": "Production de biocarburants",
        "coord_source": "nominatim",
        "coord_accuracy": "high",
        "feeds": {
          "company_rss": null,
          "company_url": "https://www.verso.energy",
          "changedetection_url": "https://www.verso.energy/actualites",
          "keywords": [
            "Verso Energy",
            "biocarburants",
            "Port-Jérôme-sur-Seine",
            "Seine-Maritime"
          ],
          "sector_rss": [
            "https://www.usinenouvelle.com/arc/outboundfeeds/rss/"
          ],
          "changedetection_uuid": "bc9d4749-d9fe-4ef6-a339-fe1e1d68b544"
        }
      }
    },
    {
      "type": "Feature",
      "id": "france-projet-052-engie",
      "geometry": {
        "type": "Point",
        "coordinates": [
          0.1079732,
          49.4938975
        ]
      },
      "properties": {
        "name": "Engie",
        "category": "Biocarburants",
        "icon": "🌿",
        "region": "Normandie",
        "departement": "Seine-Maritime",
        "ville": "Le Havre",
        "projet": "Production de biocarburants",
        "coord_source": "nominatim",
        "coord_accuracy": "high",
        "feeds": {
          "company_rss": "https://en.newsroom.engie.com/rss/",
          "company_url": "https://www.engie.com",
          "changedetection_url": "https://newsroom.engie.com/actualites/",
          "changedetection_uuid": null,
          "keywords": [
            "ENGIE",
            "biocarburants",
            "Le Havre",
            "Seine-Maritime"
          ],
          "sector_rss": [
            "https://www.usinenouvelle.com/arc/outboundfeeds/rss/"
          ],
          "rss_uuid": "5cc9c394-e223-4eb7-85e4-4094aeae805a"
        }
      }
    },
    {
      "type": "Feature",
      "id": "france-projet-053-lhyfe",
      "geometry": {
        "type": "Point",
        "coordinates": [
          0.1079732,
          49.4938975
        ]
      },
      "properties": {
        "name": "Lhyfe",
        "category": "Énergie & Nucléaire",
        "icon": "⚡",
        "region": "Normandie",
        "departement": "Seine-Maritime",
        "ville": "Le Havre",
        "projet": "Approvisionnement en H2 bas carbone",
        "coord_source": "nominatim",
        "coord_accuracy": "high",
        "feeds": {
          "company_rss": null,
          "company_url": "https://www.lhyfe.com",
          "changedetection_url": "https://www.lhyfe.com/newsroom",
          "keywords": [
            "Lhyfe",
            "hydrogène",
            "H2 bas carbone",
            "Le Havre"
          ],
          "sector_rss": [
            "https://www.usinenouvelle.com/arc/outboundfeeds/rss/"
          ],
          "changedetection_uuid": "b6583826-d3c7-465f-86ff-c00e965c9463"
        }
      }
    },
    {
      "type": "Feature",
      "id": "france-projet-054-cabot-carbone",
      "geometry": {
        "type": "Point",
        "coordinates": [
          0.534411,
          49.5188282
        ]
      },
      "properties": {
        "name": "Cabot Carbone",
        "category": "Énergie & Nucléaire",
        "icon": "⚡",
        "region": "Normandie",
        "departement": "Seine-Maritime",
        "ville": "Lillebonne",
        "projet": "Création d'un energy center",
        "coord_source": "nominatim",
        "coord_accuracy": "high",
        "feeds": {
          "company_rss": null,
          "company_url": "https://www.cabot-corp.com",
          "changedetection_url": "https://www.cabot-corp.com/news-center/press-releases",
          "keywords": [
            "Cabot",
            "energy center",
            "Lillebonne",
            "Seine-Maritime"
          ],
          "sector_rss": [
            "https://www.usinenouvelle.com/arc/outboundfeeds/rss/"
          ],
          "changedetection_uuid": "8ed0ec9f-8c9b-4349-99e3-34989e586628"
        }
      }
    },
    {
      "type": "Feature",
      "id": "france-projet-055-kl-1-ag",
      "geometry": {
        "type": "Point",
        "coordinates": [
          -0.6300363,
          44.9088982
        ]
      },
      "properties": {
        "name": "KL 1 AG",
        "category": "Matériaux critiques",
        "icon": "🔋",
        "region": "Nouvelle-Aquitaine",
        "departement": "Gironde",
        "ville": "Blanquefort",
        "projet": "Investissement industriel et technologique dédié à la conversion de métaux critiques",
        "coord_source": "nominatim",
        "coord_accuracy": "high",
        "feeds": {
          "company_rss": null,
          "company_url": "https://www.kl1ag.com",
          "changedetection_url": "https://www.adi-na.fr/sites/default/files/2024-06/20240513-CP-ChooseFrance_ProjetsNouvelleAquitaine.pdf",
          "keywords": [
            "KL 1 AG",
            "KL1AG",
            "Blanquefort",
            "métaux critiques"
          ],
          "sector_rss": [
            "https://www.usinenouvelle.com/arc/outboundfeeds/rss/"
          ],
          "changedetection_uuid": "c1f769be-84f1-491e-b6a5-28852a838d4f"
        }
      }
    },
    {
      "type": "Feature",
      "id": "france-projet-056-verso-energy",
      "geometry": {
        "type": "Point",
        "coordinates": [
          -0.8095934,
          43.8323121
        ]
      },
      "properties": {
        "name": "Verso Energy",
        "category": "Biocarburants",
        "icon": "🌿",
        "region": "Nouvelle-Aquitaine",
        "departement": "Landes",
        "ville": "Tartas",
        "projet": "Production de biocarburants",
        "coord_source": "nominatim",
        "coord_accuracy": "high",
        "feeds": {
          "company_rss": null,
          "company_url": "https://www.verso.energy",
          "changedetection_url": "https://www.verso.energy/actualites",
          "keywords": [
            "Verso Energy",
            "biocarburants",
            "Tartas",
            "Landes"
          ],
          "sector_rss": [
            "https://www.usinenouvelle.com/arc/outboundfeeds/rss/"
          ],
          "changedetection_uuid": "6e3c99b5-6c2d-4c05-9c6f-6e3a878dfbff"
        }
      }
    },
    {
      "type": "Feature",
      "id": "france-projet-057-carester-caremag",
      "geometry": {
        "type": "Point",
        "coordinates": [
          -0.6200209,
          43.4127204
        ]
      },
      "properties": {
        "name": "Carester Caremag",
        "category": "Recyclage",
        "icon": "♻️",
        "region": "Nouvelle-Aquitaine",
        "departement": "Pyrénées-Atlantiques",
        "ville": "Lacq",
        "projet": "Recyclage d’aimants et production de terres rares pour sécuriser les approvisionnements",
        "coord_source": "nominatim",
        "coord_accuracy": "high",
        "feeds": {
          "company_rss": null,
          "company_url": "https://www.carester.fr",
          "changedetection_url": "https://www.carester.fr/actualites",
          "keywords": [
            "Carester",
            "Caremag",
            "terres rares",
            "aimants",
            "Lacq",
            "Pyrénées-Atlantiques"
          ],
          "sector_rss": [
            "https://www.usinenouvelle.com/arc/outboundfeeds/rss/"
          ],
          "changedetection_uuid": "f74e507f-47a5-4b12-bb33-d1e68403a2b5"
        }
      }
    },
    {
      "type": "Feature",
      "id": "france-projet-058-elyse-energy",
      "geometry": {
        "type": "Point",
        "coordinates": [
          -0.6200209,
          43.4127204
        ]
      },
      "properties": {
        "name": "Elyse Energy",
        "category": "Biocarburants",
        "icon": "🌿",
        "region": "Nouvelle-Aquitaine",
        "departement": "Pyrénées-Atlantiques",
        "ville": "Lacq",
        "projet": "Production de biocarburants",
        "coord_source": "nominatim",
        "coord_accuracy": "high",
        "feeds": {
          "company_rss": null,
          "company_url": "https://www.elyse.energy",
          "changedetection_url": "https://www.elyse.energy/presse",
          "keywords": [
            "Elyse Energy",
            "biocarburants",
            "Lacq",
            "Pyrénées-Atlantiques"
          ],
          "sector_rss": [
            "https://www.usinenouvelle.com/arc/outboundfeeds/rss/"
          ],
          "changedetection_uuid": "784eacd1-4fa1-40f9-a5a0-ef4ba586e99c"
        }
      }
    },
    {
      "type": "Feature",
      "id": "france-projet-059-aura-aero",
      "geometry": {
        "type": "Point",
        "coordinates": [
          1.3588178,
          43.535474
        ]
      },
      "properties": {
        "name": "Aura Aéro",
        "category": "Aéronautique & Défense",
        "icon": "✈️",
        "region": "Occitanie",
        "departement": "Haute-Garonne",
        "ville": "Toulouse (Francazal)",
        "projet": "Développement d'avions hybrides et électriques pour décarboner l'aviation",
        "coord_source": "nominatim",
        "coord_accuracy": "high",
        "feeds": {
          "company_rss": null,
          "company_url": "https://www.aura.aero",
          "changedetection_url": "https://www.aura.aero/news",
          "keywords": [
            "Aura Aéro",
            "avions hybrides",
            "électrique",
            "Toulouse",
            "Francazal"
          ],
          "sector_rss": [
            "https://www.usinenouvelle.com/arc/outboundfeeds/rss/"
          ],
          "changedetection_uuid": "d44cd7e8-5c37-401d-a42b-4baeedfc4071"
        }
      }
    },
    {
      "type": "Feature",
      "id": "france-projet-060-siat",
      "geometry": {
        "type": "Point",
        "coordinates": [
          2.4976209,
          43.6294985
        ]
      },
      "properties": {
        "name": "Siat",
        "category": "Industrie",
        "icon": "🏭",
        "region": "Occitanie",
        "departement": "Tarn",
        "ville": "Brassac",
        "projet": "Transformation de la scierie",
        "coord_source": "nominatim",
        "coord_accuracy": "high",
        "feeds": {
          "company_rss": null,
          "company_url": "https://www.siat.fr",
          "changedetection_url": "https://www.siat.fr/actualites",
          "keywords": [
            "Siat",
            "scierie",
            "Brassac",
            "Tarn",
            "bois"
          ],
          "sector_rss": [
            "https://www.usinenouvelle.com/arc/outboundfeeds/rss/"
          ],
          "changedetection_uuid": "a193eccb-2b75-40cc-b72d-8e78888a1495"
        }
      }
    },
    {
      "type": "Feature",
      "id": "france-projet-061-naval-group",
      "geometry": {
        "type": "Point",
        "coordinates": [
          -1.6830354,
          47.1964482
        ]
      },
      "properties": {
        "name": "Naval Group",
        "category": "Industrie",
        "icon": "🏭",
        "region": "Pays de la Loire",
        "departement": "Loire Atlantique",
        "ville": "Indret (Nantes)",
        "projet": "Augmentation des capacités de production",
        "coord_source": "nominatim",
        "coord_accuracy": "high",
        "feeds": {
          "company_rss": null,
          "company_url": "https://www.naval-group.com",
          "changedetection_url": "https://www.naval-group.com/fr/actualites",
          "keywords": [
            "Naval Group",
            "défense navale",
            "Indret",
            "Nantes",
            "sous-marins"
          ],
          "sector_rss": [
            "https://www.usinenouvelle.com/arc/outboundfeeds/rss/"
          ],
          "changedetection_uuid": "787b2c19-3494-4c4b-b6d6-3d36f290e14e"
        }
      }
    },
    {
      "type": "Feature",
      "id": "france-projet-062-briand",
      "geometry": {
        "type": "Point",
        "coordinates": [
          -0.5515588,
          47.4739884
        ]
      },
      "properties": {
        "name": "Briand",
        "category": "Sidérurgie",
        "icon": "⚙️",
        "region": "Pays de la Loire",
        "departement": "Maine-et-Loire",
        "ville": "Angers / Cholet",
        "projet": "Acier décarboné : projet de four électrique pour production d'aciers plats",
        "coord_source": "nominatim",
        "coord_accuracy": "high",
        "feeds": {
          "company_rss": null,
          "company_url": "https://www.groupebriand.fr",
          "changedetection_url": "https://www.groupebriand.fr/actualites",
          "keywords": [
            "Briand",
            "acier décarboné",
            "four électrique",
            "Angers",
            "Cholet"
          ],
          "sector_rss": [
            "https://www.usinenouvelle.com/arc/outboundfeeds/rss/"
          ],
          "changedetection_uuid": "5b39b3ec-e44e-4b10-b05c-95b39515255b"
        }
      }
    },
    {
      "type": "Feature",
      "id": "france-projet-063-goco",
      "geometry": {
        "type": "Point",
        "coordinates": [
          -0.7174,
          48.1214342
        ]
      },
      "properties": {
        "name": "GOCO²",
        "category": "Énergie & Nucléaire",
        "icon": "⚡",
        "region": "Pays de la Loire",
        "departement": "Mayenne",
        "ville": "Louverné",
        "projet": "Capture et stockage de CO2",
        "coord_source": "nominatim",
        "coord_accuracy": "high",
        "feeds": {
          "company_rss": null,
          "company_url": "https://www.goco2.fr",
          "changedetection_url": "https://www.goco2.fr/actualites",
          "keywords": [
            "GOCO2",
            "capture CO2",
            "stockage",
            "Louverné",
            "Mayenne"
          ],
          "sector_rss": [
            "https://www.usinenouvelle.com/arc/outboundfeeds/rss/"
          ],
          "changedetection_uuid": "a2e5587a-5058-41fa-905c-83d95300a6f4"
        }
      }
    },
    {
      "type": "Feature",
      "id": "france-projet-064-eclairion",
      "geometry": {
        "type": "Point",
        "coordinates": [
          0.1967849,
          48.0073849
        ]
      },
      "properties": {
        "name": "Eclairion",
        "category": "Industrie",
        "icon": "🏭",
        "region": "Pays de la Loire",
        "departement": "Sarthe",
        "ville": "Le Mans",
        "projet": "Projet de centre de données",
        "coord_source": "nominatim",
        "coord_accuracy": "high",
        "feeds": {
          "company_rss": null,
          "company_url": "https://www.eclairion.com",
          "changedetection_url": "https://www.eclairion.com/actualites",
          "keywords": [
            "Eclairion",
            "datacenter",
            "Le Mans",
            "Sarthe"
          ],
          "sector_rss": [
            "https://www.usinenouvelle.com/arc/outboundfeeds/rss/"
          ],
          "changedetection_uuid": "54a68230-536c-44d9-ba6b-d07ac9dd2d19"
        }
      }
    },
    {
      "type": "Feature",
      "id": "france-projet-065-airbus-helicopters",
      "geometry": {
        "type": "Point",
        "coordinates": [
          5.2145269,
          43.4162193
        ]
      },
      "properties": {
        "name": "Airbus Helicopters",
        "category": "Industrie",
        "icon": "🏭",
        "region": "Provence-Alpes-Côte d'Azur",
        "departement": "Bouches-du-Rhône",
        "ville": "Marignane",
        "projet": "Modernisation industrielle du site de Marignane",
        "coord_source": "nominatim",
        "coord_accuracy": "high",
        "feeds": {
          "company_rss": "https://www.airbus.com/en/rss-feeds",
          "company_url": "https://www.airbus.com/en/products-services/helicopters",
          "changedetection_url": "https://www.airbus.com/en/newsroom/press-releases",
          "changedetection_uuid": null,
          "keywords": [
            "Airbus Helicopters",
            "Marignane",
            "Bouches-du-Rhône",
            "modernisation"
          ],
          "sector_rss": [
            "https://www.usinenouvelle.com/arc/outboundfeeds/rss/"
          ],
          "rss_uuid": "c9fdf134-c973-41a4-afd8-1efbf309736e"
        }
      }
    },
    {
      "type": "Feature",
      "id": "france-projet-066-marcegaglia",
      "geometry": {
        "type": "Point",
        "coordinates": [
          4.945595,
          43.4380714
        ]
      },
      "properties": {
        "name": "Marcegaglia",
        "category": "Sidérurgie",
        "icon": "⚙️",
        "region": "Provence-Alpes-Côte d'Azur",
        "departement": "Bouches-du-Rhône",
        "ville": "Fos-sur-Mer",
        "projet": "Modernisation d’une aciérie et production d’acier bas carbone",
        "coord_source": "nominatim",
        "coord_accuracy": "high",
        "feeds": {
          "company_rss": null,
          "company_url": "https://www.marcegaglia.com",
          "changedetection_url": "https://www.marcegaglia.com/en/press/news",
          "keywords": [
            "Marcegaglia",
            "acier bas carbone",
            "Fos-sur-Mer",
            "Bouches-du-Rhône"
          ],
          "sector_rss": [
            "https://www.usinenouvelle.com/arc/outboundfeeds/rss/"
          ],
          "changedetection_uuid": "8f7b13aa-bc14-487d-a3d0-b8020b40f2bf"
        }
      }
    },
    {
      "type": "Feature",
      "id": "france-projet-067-gravithy",
      "geometry": {
        "type": "Point",
        "coordinates": [
          4.945595,
          43.4380714
        ]
      },
      "properties": {
        "name": "Gravithy",
        "category": "Sidérurgie",
        "icon": "⚙️",
        "region": "Provence-Alpes-Côte d'Azur",
        "departement": "Bouches-du-Rhône",
        "ville": "Fos-sur-Mer",
        "projet": "Procédé innovant de production de fer sans haut-fourneau",
        "coord_source": "nominatim",
        "coord_accuracy": "high",
        "feeds": {
          "company_rss": null,
          "company_url": "https://www.gravithy.com",
          "changedetection_url": "https://www.gravithy.com/news",
          "keywords": [
            "Gravithy",
            "fer",
            "haut-fourneau",
            "Fos-sur-Mer",
            "décarbonation acier"
          ],
          "sector_rss": [
            "https://www.usinenouvelle.com/arc/outboundfeeds/rss/"
          ],
          "changedetection_uuid": "a275a728-a483-46b7-a29c-64ff48cac750"
        }
      }
    },
    {
      "type": "Feature",
      "id": "france-projet-068-alteo",
      "geometry": {
        "type": "Point",
        "coordinates": [
          5.4710661,
          43.455613
        ]
      },
      "properties": {
        "name": "Alteo",
        "category": "Industrie",
        "icon": "🏭",
        "region": "Provence-Alpes-Côte d'Azur",
        "departement": "Bouches-du-Rhône",
        "ville": "Gardanne",
        "projet": "Développement d’une filière de composants pour batteries",
        "coord_source": "nominatim",
        "coord_accuracy": "high",
        "feeds": {
          "company_rss": null,
          "company_url": "https://www.alteo-alumina.com",
          "changedetection_url": "https://www.alteo-alumina.com/news",
          "keywords": [
            "Alteo",
            "batteries",
            "alumine",
            "Gardanne",
            "Bouches-du-Rhône"
          ],
          "sector_rss": [
            "https://www.usinenouvelle.com/arc/outboundfeeds/rss/"
          ],
          "changedetection_uuid": "8f4ec85a-f8b0-40f1-9a76-c71aae9d6f22"
        }
      }
    },
    {
      "type": "Feature",
      "id": "france-projet-069-naval-group",
      "geometry": {
        "type": "Point",
        "coordinates": [
          5.8483598,
          43.1396789
        ]
      },
      "properties": {
        "name": "Naval Group",
        "category": "Industrie",
        "icon": "🏭",
        "region": "Provence-Alpes-Côte d'Azur",
        "departement": "Var",
        "ville": "Ollioules / Toulon",
        "projet": "Investissement industriel",
        "coord_source": "nominatim",
        "coord_accuracy": "high",
        "feeds": {
          "company_rss": null,
          "company_url": "https://www.naval-group.com",
          "changedetection_url": "https://www.naval-group.com/fr/actualites",
          "keywords": [
            "Naval Group",
            "Ollioules",
            "Toulon",
            "Var",
            "marine nationale"
          ],
          "sector_rss": [
            "https://www.usinenouvelle.com/arc/outboundfeeds/rss/"
          ],
          "changedetection_uuid": "7a61af3f-9139-467e-90ba-3ea4608e2977"
        }
      }
    }
  ]
}